<?xml version="1.0" encoding="UTF-8"?>
<gpx version="1.1" creator="HPGT flysteder" xmlns="http://www.topografix.com/GPX/1/1">
 <trk>
  <name>Ryten – parkering til start</name>
  <trkseg>
   <trkpt lat="68.088712" lon="13.139099"><ele>16.8</ele></trkpt>
   <trkpt lat="68.088699" lon="13.139094"><ele>16.8</ele></trkpt>
   <trkpt lat="68.088682" lon="13.139089"><ele>16.8</ele></trkpt>
   <trkpt lat="68.088669" lon="13.139088"><ele>16.8</ele></trkpt>
   <trkpt lat="68.088655" lon="13.139086"><ele>16.6</ele></trkpt>
   <trkpt lat="68.088635" lon="13.139086"><ele>16.4</ele></trkpt>
   <trkpt lat="68.088612" lon="13.139084"><ele>16.4</ele></trkpt>
   <trkpt lat="68.088596" lon="13.139071"><ele>16.4</ele></trkpt>
   <trkpt lat="68.088566" lon="13.139077"><ele>16.0</ele></trkpt>
   <trkpt lat="68.088531" lon="13.139068"><ele>15.8</ele></trkpt>
   <trkpt lat="68.088523" lon="13.139058"><ele>15.6</ele></trkpt>
   <trkpt lat="68.088510" lon="13.139048"><ele>15.6</ele></trkpt>
   <trkpt lat="68.088433" lon="13.139007"><ele>15.4</ele></trkpt>
   <trkpt lat="68.088408" lon="13.138993"><ele>15.4</ele></trkpt>
   <trkpt lat="68.088383" lon="13.138977"><ele>15.2</ele></trkpt>
   <trkpt lat="68.088354" lon="13.138984"><ele>15.2</ele></trkpt>
   <trkpt lat="68.088340" lon="13.138991"><ele>15.2</ele></trkpt>
   <trkpt lat="68.088285" lon="13.139016"><ele>15.2</ele></trkpt>
   <trkpt lat="68.088270" lon="13.139025"><ele>15.2</ele></trkpt>
   <trkpt lat="68.088195" lon="13.139118"><ele>15.2</ele></trkpt>
   <trkpt lat="68.088143" lon="13.139147"><ele>15.4</ele></trkpt>
   <trkpt lat="68.088077" lon="13.139135"><ele>15.2</ele></trkpt>
   <trkpt lat="68.088024" lon="13.139091"><ele>15.0</ele></trkpt>
   <trkpt lat="68.088005" lon="13.139088"><ele>15.0</ele></trkpt>
   <trkpt lat="68.087922" lon="13.139055"><ele>14.8</ele></trkpt>
   <trkpt lat="68.087831" lon="13.138992"><ele>14.8</ele></trkpt>
   <trkpt lat="68.087811" lon="13.138959"><ele>14.6</ele></trkpt>
   <trkpt lat="68.087722" lon="13.138912"><ele>14.4</ele></trkpt>
   <trkpt lat="68.087672" lon="13.138889"><ele>14.4</ele></trkpt>
   <trkpt lat="68.087639" lon="13.138850"><ele>14.2</ele></trkpt>
   <trkpt lat="68.087556" lon="13.138827"><ele>14.2</ele></trkpt>
   <trkpt lat="68.087523" lon="13.138807"><ele>14.2</ele></trkpt>
   <trkpt lat="68.087449" lon="13.138764"><ele>13.8</ele></trkpt>
   <trkpt lat="68.087419" lon="13.138737"><ele>13.6</ele></trkpt>
   <trkpt lat="68.087372" lon="13.138717"><ele>13.2</ele></trkpt>
   <trkpt lat="68.087357" lon="13.138705"><ele>13.2</ele></trkpt>
   <trkpt lat="68.087276" lon="13.138649"><ele>13.2</ele></trkpt>
   <trkpt lat="68.087248" lon="13.138613"><ele>13.0</ele></trkpt>
   <trkpt lat="68.087180" lon="13.138539"><ele>12.8</ele></trkpt>
   <trkpt lat="68.087162" lon="13.138537"><ele>13.0</ele></trkpt>
   <trkpt lat="68.087051" lon="13.138517"><ele>13.2</ele></trkpt>
   <trkpt lat="68.087005" lon="13.138490"><ele>13.2</ele></trkpt>
   <trkpt lat="68.086958" lon="13.138462"><ele>13.2</ele></trkpt>
   <trkpt lat="68.086877" lon="13.138410"><ele>12.8</ele></trkpt>
   <trkpt lat="68.086837" lon="13.138388"><ele>12.8</ele></trkpt>
   <trkpt lat="68.086753" lon="13.138353"><ele>12.6</ele></trkpt>
   <trkpt lat="68.086666" lon="13.138307"><ele>12.6</ele></trkpt>
   <trkpt lat="68.086651" lon="13.138303"><ele>12.6</ele></trkpt>
   <trkpt lat="68.086585" lon="13.138272"><ele>12.8</ele></trkpt>
   <trkpt lat="68.086523" lon="13.138235"><ele>12.6</ele></trkpt>
   <trkpt lat="68.086510" lon="13.138230"><ele>12.4</ele></trkpt>
   <trkpt lat="68.086432" lon="13.138182"><ele>12.4</ele></trkpt>
   <trkpt lat="68.086389" lon="13.138146"><ele>12.2</ele></trkpt>
   <trkpt lat="68.086369" lon="13.138153"><ele>12.2</ele></trkpt>
   <trkpt lat="68.086370" lon="13.138164"><ele>12.0</ele></trkpt>
   <trkpt lat="68.086365" lon="13.138193"><ele>12.0</ele></trkpt>
   <trkpt lat="68.086345" lon="13.138219"><ele>12.0</ele></trkpt>
   <trkpt lat="68.086335" lon="13.138214"><ele>12.0</ele></trkpt>
   <trkpt lat="68.086304" lon="13.138205"><ele>12.0</ele></trkpt>
   <trkpt lat="68.086290" lon="13.138297"><ele>11.8</ele></trkpt>
   <trkpt lat="68.086298" lon="13.138388"><ele>11.4</ele></trkpt>
   <trkpt lat="68.086310" lon="13.138551"><ele>12.0</ele></trkpt>
   <trkpt lat="68.086323" lon="13.138602"><ele>12.0</ele></trkpt>
   <trkpt lat="68.086302" lon="13.138675"><ele>12.2</ele></trkpt>
   <trkpt lat="68.086294" lon="13.138696"><ele>12.2</ele></trkpt>
   <trkpt lat="68.086236" lon="13.138808"><ele>12.2</ele></trkpt>
   <trkpt lat="68.086224" lon="13.138832"><ele>12.2</ele></trkpt>
   <trkpt lat="68.086197" lon="13.138899"><ele>12.2</ele></trkpt>
   <trkpt lat="68.086161" lon="13.139023"><ele>12.4</ele></trkpt>
   <trkpt lat="68.086154" lon="13.139058"><ele>12.4</ele></trkpt>
   <trkpt lat="68.086137" lon="13.139131"><ele>12.4</ele></trkpt>
   <trkpt lat="68.086101" lon="13.139295"><ele>12.4</ele></trkpt>
   <trkpt lat="68.086083" lon="13.139379"><ele>12.4</ele></trkpt>
   <trkpt lat="68.086040" lon="13.139556"><ele>12.6</ele></trkpt>
   <trkpt lat="68.086027" lon="13.139613"><ele>12.6</ele></trkpt>
   <trkpt lat="68.085995" lon="13.139836"><ele>12.4</ele></trkpt>
   <trkpt lat="68.085981" lon="13.139924"><ele>12.6</ele></trkpt>
   <trkpt lat="68.085926" lon="13.140085"><ele>13.0</ele></trkpt>
   <trkpt lat="68.085926" lon="13.140124"><ele>13.0</ele></trkpt>
   <trkpt lat="68.085894" lon="13.140304"><ele>13.4</ele></trkpt>
   <trkpt lat="68.085880" lon="13.140389"><ele>13.4</ele></trkpt>
   <trkpt lat="68.085868" lon="13.140451"><ele>13.6</ele></trkpt>
   <trkpt lat="68.085829" lon="13.140614"><ele>14.0</ele></trkpt>
   <trkpt lat="68.085801" lon="13.140745"><ele>14.6</ele></trkpt>
   <trkpt lat="68.085785" lon="13.140831"><ele>15.6</ele></trkpt>
   <trkpt lat="68.085782" lon="13.140869"><ele>16.4</ele></trkpt>
   <trkpt lat="68.085780" lon="13.140899"><ele>16.8</ele></trkpt>
   <trkpt lat="68.085774" lon="13.140937"><ele>17.4</ele></trkpt>
   <trkpt lat="68.085766" lon="13.140964"><ele>18.0</ele></trkpt>
   <trkpt lat="68.085745" lon="13.141048"><ele>19.2</ele></trkpt>
   <trkpt lat="68.085739" lon="13.141178"><ele>20.4</ele></trkpt>
   <trkpt lat="68.085743" lon="13.141234"><ele>21.0</ele></trkpt>
   <trkpt lat="68.085748" lon="13.141298"><ele>21.4</ele></trkpt>
   <trkpt lat="68.085752" lon="13.141378"><ele>22.2</ele></trkpt>
   <trkpt lat="68.085752" lon="13.141410"><ele>22.6</ele></trkpt>
   <trkpt lat="68.085751" lon="13.141508"><ele>24.0</ele></trkpt>
   <trkpt lat="68.085747" lon="13.141595"><ele>25.0</ele></trkpt>
   <trkpt lat="68.085748" lon="13.141617"><ele>25.2</ele></trkpt>
   <trkpt lat="68.085742" lon="13.141724"><ele>26.4</ele></trkpt>
   <trkpt lat="68.085741" lon="13.141842"><ele>27.4</ele></trkpt>
   <trkpt lat="68.085742" lon="13.141875"><ele>27.6</ele></trkpt>
   <trkpt lat="68.085754" lon="13.142060"><ele>28.4</ele></trkpt>
   <trkpt lat="68.085753" lon="13.142088"><ele>28.6</ele></trkpt>
   <trkpt lat="68.085757" lon="13.142134"><ele>28.8</ele></trkpt>
   <trkpt lat="68.085773" lon="13.142209"><ele>29.2</ele></trkpt>
   <trkpt lat="68.085781" lon="13.142295"><ele>29.6</ele></trkpt>
   <trkpt lat="68.085792" lon="13.142378"><ele>30.2</ele></trkpt>
   <trkpt lat="68.085793" lon="13.142411"><ele>30.4</ele></trkpt>
   <trkpt lat="68.085793" lon="13.142470"><ele>30.6</ele></trkpt>
   <trkpt lat="68.085786" lon="13.142501"><ele>30.8</ele></trkpt>
   <trkpt lat="68.085740" lon="13.142607"><ele>31.8</ele></trkpt>
   <trkpt lat="68.085690" lon="13.142692"><ele>32.8</ele></trkpt>
   <trkpt lat="68.085686" lon="13.142711"><ele>33.0</ele></trkpt>
   <trkpt lat="68.085650" lon="13.142782"><ele>34.0</ele></trkpt>
   <trkpt lat="68.085642" lon="13.142741"><ele>34.4</ele></trkpt>
   <trkpt lat="68.085606" lon="13.142684"><ele>35.0</ele></trkpt>
   <trkpt lat="68.085598" lon="13.142658"><ele>35.2</ele></trkpt>
   <trkpt lat="68.085547" lon="13.142604"><ele>35.8</ele></trkpt>
   <trkpt lat="68.085485" lon="13.142637"><ele>36.2</ele></trkpt>
   <trkpt lat="68.085413" lon="13.142658"><ele>37.4</ele></trkpt>
   <trkpt lat="68.085405" lon="13.142673"><ele>37.8</ele></trkpt>
   <trkpt lat="68.085383" lon="13.142710"><ele>38.6</ele></trkpt>
   <trkpt lat="68.085308" lon="13.142762"><ele>38.8</ele></trkpt>
   <trkpt lat="68.085227" lon="13.142821"><ele>39.0</ele></trkpt>
   <trkpt lat="68.085199" lon="13.142832"><ele>39.6</ele></trkpt>
   <trkpt lat="68.085194" lon="13.142842"><ele>40.2</ele></trkpt>
   <trkpt lat="68.085191" lon="13.142873"><ele>40.8</ele></trkpt>
   <trkpt lat="68.085181" lon="13.142895"><ele>41.0</ele></trkpt>
   <trkpt lat="68.085156" lon="13.142889"><ele>42.0</ele></trkpt>
   <trkpt lat="68.085136" lon="13.142876"><ele>42.6</ele></trkpt>
   <trkpt lat="68.085125" lon="13.142848"><ele>43.0</ele></trkpt>
   <trkpt lat="68.085108" lon="13.142832"><ele>43.8</ele></trkpt>
   <trkpt lat="68.085107" lon="13.142833"><ele>44.2</ele></trkpt>
   <trkpt lat="68.085083" lon="13.142854"><ele>44.8</ele></trkpt>
   <trkpt lat="68.085067" lon="13.142851"><ele>45.2</ele></trkpt>
   <trkpt lat="68.085058" lon="13.142847"><ele>45.6</ele></trkpt>
   <trkpt lat="68.085038" lon="13.142802"><ele>46.4</ele></trkpt>
   <trkpt lat="68.085032" lon="13.142773"><ele>47.2</ele></trkpt>
   <trkpt lat="68.085019" lon="13.142767"><ele>47.4</ele></trkpt>
   <trkpt lat="68.084997" lon="13.142800"><ele>47.6</ele></trkpt>
   <trkpt lat="68.084960" lon="13.142873"><ele>48.4</ele></trkpt>
   <trkpt lat="68.084949" lon="13.142892"><ele>48.4</ele></trkpt>
   <trkpt lat="68.084933" lon="13.142918"><ele>48.6</ele></trkpt>
   <trkpt lat="68.084900" lon="13.142934"><ele>49.2</ele></trkpt>
   <trkpt lat="68.084894" lon="13.142930"><ele>49.4</ele></trkpt>
   <trkpt lat="68.084888" lon="13.142930"><ele>49.4</ele></trkpt>
   <trkpt lat="68.084861" lon="13.142969"><ele>50.2</ele></trkpt>
   <trkpt lat="68.084852" lon="13.142990"><ele>50.6</ele></trkpt>
   <trkpt lat="68.084831" lon="13.143002"><ele>51.6</ele></trkpt>
   <trkpt lat="68.084797" lon="13.142989"><ele>52.6</ele></trkpt>
   <trkpt lat="68.084790" lon="13.142991"><ele>52.8</ele></trkpt>
   <trkpt lat="68.084759" lon="13.143008"><ele>53.4</ele></trkpt>
   <trkpt lat="68.084741" lon="13.143014"><ele>53.8</ele></trkpt>
   <trkpt lat="68.084736" lon="13.143021"><ele>54.0</ele></trkpt>
   <trkpt lat="68.084709" lon="13.143026"><ele>54.8</ele></trkpt>
   <trkpt lat="68.084692" lon="13.143036"><ele>55.0</ele></trkpt>
   <trkpt lat="68.084650" lon="13.143056"><ele>56.2</ele></trkpt>
   <trkpt lat="68.084642" lon="13.143064"><ele>56.4</ele></trkpt>
   <trkpt lat="68.084605" lon="13.143069"><ele>57.4</ele></trkpt>
   <trkpt lat="68.084585" lon="13.143067"><ele>57.6</ele></trkpt>
   <trkpt lat="68.084535" lon="13.143039"><ele>58.6</ele></trkpt>
   <trkpt lat="68.084514" lon="13.143020"><ele>59.2</ele></trkpt>
   <trkpt lat="68.084490" lon="13.143007"><ele>59.6</ele></trkpt>
   <trkpt lat="68.084445" lon="13.142961"><ele>60.4</ele></trkpt>
   <trkpt lat="68.084406" lon="13.142974"><ele>60.8</ele></trkpt>
   <trkpt lat="68.084371" lon="13.143018"><ele>61.6</ele></trkpt>
   <trkpt lat="68.084356" lon="13.143023"><ele>61.8</ele></trkpt>
   <trkpt lat="68.084347" lon="13.143017"><ele>62.0</ele></trkpt>
   <trkpt lat="68.084317" lon="13.142976"><ele>63.0</ele></trkpt>
   <trkpt lat="68.084316" lon="13.142956"><ele>63.0</ele></trkpt>
   <trkpt lat="68.084316" lon="13.142903"><ele>63.6</ele></trkpt>
   <trkpt lat="68.084301" lon="13.142878"><ele>64.0</ele></trkpt>
   <trkpt lat="68.084296" lon="13.142863"><ele>64.2</ele></trkpt>
   <trkpt lat="68.084251" lon="13.142849"><ele>65.0</ele></trkpt>
   <trkpt lat="68.084234" lon="13.142848"><ele>65.2</ele></trkpt>
   <trkpt lat="68.084224" lon="13.142833"><ele>65.4</ele></trkpt>
   <trkpt lat="68.084185" lon="13.142809"><ele>66.4</ele></trkpt>
   <trkpt lat="68.084160" lon="13.142787"><ele>67.0</ele></trkpt>
   <trkpt lat="68.084116" lon="13.142731"><ele>67.4</ele></trkpt>
   <trkpt lat="68.084106" lon="13.142720"><ele>67.4</ele></trkpt>
   <trkpt lat="68.084074" lon="13.142683"><ele>67.6</ele></trkpt>
   <trkpt lat="68.084067" lon="13.142672"><ele>67.6</ele></trkpt>
   <trkpt lat="68.084061" lon="13.142662"><ele>67.8</ele></trkpt>
   <trkpt lat="68.084030" lon="13.142619"><ele>68.6</ele></trkpt>
   <trkpt lat="68.084011" lon="13.142619"><ele>69.2</ele></trkpt>
   <trkpt lat="68.083987" lon="13.142616"><ele>69.8</ele></trkpt>
   <trkpt lat="68.083965" lon="13.142603"><ele>70.6</ele></trkpt>
   <trkpt lat="68.083958" lon="13.142595"><ele>70.8</ele></trkpt>
   <trkpt lat="68.083932" lon="13.142567"><ele>71.8</ele></trkpt>
   <trkpt lat="68.083915" lon="13.142552"><ele>72.4</ele></trkpt>
   <trkpt lat="68.083884" lon="13.142518"><ele>73.0</ele></trkpt>
   <trkpt lat="68.083875" lon="13.142504"><ele>73.4</ele></trkpt>
   <trkpt lat="68.083833" lon="13.142485"><ele>74.0</ele></trkpt>
   <trkpt lat="68.083815" lon="13.142484"><ele>74.2</ele></trkpt>
   <trkpt lat="68.083801" lon="13.142435"><ele>74.6</ele></trkpt>
   <trkpt lat="68.083772" lon="13.142382"><ele>75.2</ele></trkpt>
   <trkpt lat="68.083721" lon="13.142377"><ele>76.4</ele></trkpt>
   <trkpt lat="68.083708" lon="13.142370"><ele>76.8</ele></trkpt>
   <trkpt lat="68.083689" lon="13.142333"><ele>77.4</ele></trkpt>
   <trkpt lat="68.083679" lon="13.142326"><ele>77.6</ele></trkpt>
   <trkpt lat="68.083666" lon="13.142298"><ele>77.8</ele></trkpt>
   <trkpt lat="68.083617" lon="13.142250"><ele>78.6</ele></trkpt>
   <trkpt lat="68.083592" lon="13.142219"><ele>79.0</ele></trkpt>
   <trkpt lat="68.083568" lon="13.142137"><ele>79.6</ele></trkpt>
   <trkpt lat="68.083535" lon="13.142039"><ele>80.2</ele></trkpt>
   <trkpt lat="68.083489" lon="13.141988"><ele>80.8</ele></trkpt>
   <trkpt lat="68.083454" lon="13.141912"><ele>81.2</ele></trkpt>
   <trkpt lat="68.083417" lon="13.141835"><ele>81.8</ele></trkpt>
   <trkpt lat="68.083363" lon="13.141694"><ele>82.8</ele></trkpt>
   <trkpt lat="68.083359" lon="13.141666"><ele>83.0</ele></trkpt>
   <trkpt lat="68.083346" lon="13.141627"><ele>83.4</ele></trkpt>
   <trkpt lat="68.083327" lon="13.141582"><ele>83.8</ele></trkpt>
   <trkpt lat="68.083320" lon="13.141557"><ele>84.0</ele></trkpt>
   <trkpt lat="68.083303" lon="13.141479"><ele>84.6</ele></trkpt>
   <trkpt lat="68.083294" lon="13.141435"><ele>85.0</ele></trkpt>
   <trkpt lat="68.083291" lon="13.141411"><ele>85.4</ele></trkpt>
   <trkpt lat="68.083307" lon="13.141281"><ele>85.8</ele></trkpt>
   <trkpt lat="68.083302" lon="13.141280"><ele>86.2</ele></trkpt>
   <trkpt lat="68.083283" lon="13.141230"><ele>86.8</ele></trkpt>
   <trkpt lat="68.083268" lon="13.141176"><ele>87.2</ele></trkpt>
   <trkpt lat="68.083250" lon="13.141110"><ele>87.6</ele></trkpt>
   <trkpt lat="68.083242" lon="13.141075"><ele>87.6</ele></trkpt>
   <trkpt lat="68.083235" lon="13.141030"><ele>88.0</ele></trkpt>
   <trkpt lat="68.083235" lon="13.141009"><ele>88.4</ele></trkpt>
   <trkpt lat="68.083237" lon="13.140911"><ele>89.4</ele></trkpt>
   <trkpt lat="68.083221" lon="13.140827"><ele>90.2</ele></trkpt>
   <trkpt lat="68.083216" lon="13.140789"><ele>90.8</ele></trkpt>
   <trkpt lat="68.083200" lon="13.140711"><ele>91.8</ele></trkpt>
   <trkpt lat="68.083186" lon="13.140662"><ele>92.6</ele></trkpt>
   <trkpt lat="68.083178" lon="13.140628"><ele>92.8</ele></trkpt>
   <trkpt lat="68.083159" lon="13.140559"><ele>94.0</ele></trkpt>
   <trkpt lat="68.083156" lon="13.140541"><ele>94.2</ele></trkpt>
   <trkpt lat="68.083150" lon="13.140484"><ele>95.2</ele></trkpt>
   <trkpt lat="68.083148" lon="13.140407"><ele>96.4</ele></trkpt>
   <trkpt lat="68.083147" lon="13.140371"><ele>97.0</ele></trkpt>
   <trkpt lat="68.083145" lon="13.140335"><ele>97.6</ele></trkpt>
   <trkpt lat="68.083154" lon="13.140252"><ele>98.6</ele></trkpt>
   <trkpt lat="68.083144" lon="13.140214"><ele>99.6</ele></trkpt>
   <trkpt lat="68.083143" lon="13.140207"><ele>99.8</ele></trkpt>
   <trkpt lat="68.083136" lon="13.140190"><ele>100.8</ele></trkpt>
   <trkpt lat="68.083139" lon="13.140178"><ele>101.2</ele></trkpt>
   <trkpt lat="68.083125" lon="13.140142"><ele>101.8</ele></trkpt>
   <trkpt lat="68.083120" lon="13.140072"><ele>102.8</ele></trkpt>
   <trkpt lat="68.083117" lon="13.140043"><ele>103.0</ele></trkpt>
   <trkpt lat="68.083124" lon="13.139879"><ele>104.0</ele></trkpt>
   <trkpt lat="68.083128" lon="13.139849"><ele>104.2</ele></trkpt>
   <trkpt lat="68.083150" lon="13.139808"><ele>105.0</ele></trkpt>
   <trkpt lat="68.083156" lon="13.139793"><ele>105.4</ele></trkpt>
   <trkpt lat="68.083160" lon="13.139767"><ele>105.6</ele></trkpt>
   <trkpt lat="68.083160" lon="13.139716"><ele>106.4</ele></trkpt>
   <trkpt lat="68.083165" lon="13.139701"><ele>107.2</ele></trkpt>
   <trkpt lat="68.083160" lon="13.139694"><ele>107.6</ele></trkpt>
   <trkpt lat="68.083140" lon="13.139690"><ele>108.4</ele></trkpt>
   <trkpt lat="68.083135" lon="13.139704"><ele>108.6</ele></trkpt>
   <trkpt lat="68.083118" lon="13.139690"><ele>109.6</ele></trkpt>
   <trkpt lat="68.083106" lon="13.139643"><ele>110.6</ele></trkpt>
   <trkpt lat="68.083098" lon="13.139637"><ele>110.8</ele></trkpt>
   <trkpt lat="68.083077" lon="13.139597"><ele>111.8</ele></trkpt>
   <trkpt lat="68.083053" lon="13.139581"><ele>112.6</ele></trkpt>
   <trkpt lat="68.083044" lon="13.139581"><ele>113.0</ele></trkpt>
   <trkpt lat="68.083017" lon="13.139570"><ele>114.0</ele></trkpt>
   <trkpt lat="68.083003" lon="13.139570"><ele>114.8</ele></trkpt>
   <trkpt lat="68.082997" lon="13.139572"><ele>115.0</ele></trkpt>
   <trkpt lat="68.082965" lon="13.139577"><ele>116.2</ele></trkpt>
   <trkpt lat="68.082966" lon="13.139593"><ele>116.2</ele></trkpt>
   <trkpt lat="68.082930" lon="13.139599"><ele>117.0</ele></trkpt>
   <trkpt lat="68.082925" lon="13.139598"><ele>117.2</ele></trkpt>
   <trkpt lat="68.082918" lon="13.139600"><ele>117.4</ele></trkpt>
   <trkpt lat="68.082889" lon="13.139587"><ele>118.2</ele></trkpt>
   <trkpt lat="68.082859" lon="13.139565"><ele>119.4</ele></trkpt>
   <trkpt lat="68.082852" lon="13.139571"><ele>119.8</ele></trkpt>
   <trkpt lat="68.082828" lon="13.139546"><ele>120.6</ele></trkpt>
   <trkpt lat="68.082810" lon="13.139531"><ele>121.2</ele></trkpt>
   <trkpt lat="68.082805" lon="13.139527"><ele>121.6</ele></trkpt>
   <trkpt lat="68.082796" lon="13.139529"><ele>122.6</ele></trkpt>
   <trkpt lat="68.082795" lon="13.139530"><ele>122.6</ele></trkpt>
   <trkpt lat="68.082749" lon="13.139546"><ele>123.4</ele></trkpt>
   <trkpt lat="68.082732" lon="13.139526"><ele>123.6</ele></trkpt>
   <trkpt lat="68.082679" lon="13.139469"><ele>124.4</ele></trkpt>
   <trkpt lat="68.082657" lon="13.139441"><ele>124.8</ele></trkpt>
   <trkpt lat="68.082639" lon="13.139406"><ele>125.0</ele></trkpt>
   <trkpt lat="68.082630" lon="13.139307"><ele>126.0</ele></trkpt>
   <trkpt lat="68.082627" lon="13.139272"><ele>126.4</ele></trkpt>
   <trkpt lat="68.082621" lon="13.139105"><ele>127.0</ele></trkpt>
   <trkpt lat="68.082607" lon="13.139002"><ele>127.6</ele></trkpt>
   <trkpt lat="68.082594" lon="13.138951"><ele>128.0</ele></trkpt>
   <trkpt lat="68.082593" lon="13.138952"><ele>128.2</ele></trkpt>
   <trkpt lat="68.082550" lon="13.138899"><ele>127.8</ele></trkpt>
   <trkpt lat="68.082533" lon="13.138882"><ele>127.8</ele></trkpt>
   <trkpt lat="68.082518" lon="13.138876"><ele>128.0</ele></trkpt>
   <trkpt lat="68.082505" lon="13.138882"><ele>128.2</ele></trkpt>
   <trkpt lat="68.082494" lon="13.138870"><ele>128.2</ele></trkpt>
   <trkpt lat="68.082497" lon="13.138879"><ele>128.2</ele></trkpt>
   <trkpt lat="68.082497" lon="13.138881"><ele>128.2</ele></trkpt>
   <trkpt lat="68.082499" lon="13.138876"><ele>128.2</ele></trkpt>
   <trkpt lat="68.082513" lon="13.138828"><ele>128.2</ele></trkpt>
   <trkpt lat="68.082528" lon="13.138727"><ele>128.4</ele></trkpt>
   <trkpt lat="68.082534" lon="13.138640"><ele>128.6</ele></trkpt>
   <trkpt lat="68.082535" lon="13.138613"><ele>128.6</ele></trkpt>
   <trkpt lat="68.082519" lon="13.138552"><ele>128.8</ele></trkpt>
   <trkpt lat="68.082502" lon="13.138434"><ele>129.2</ele></trkpt>
   <trkpt lat="68.082480" lon="13.138344"><ele>129.8</ele></trkpt>
   <trkpt lat="68.082468" lon="13.138289"><ele>128.2</ele></trkpt>
   <trkpt lat="68.082439" lon="13.138223"><ele>128.4</ele></trkpt>
   <trkpt lat="68.082425" lon="13.138212"><ele>129.2</ele></trkpt>
   <trkpt lat="68.082408" lon="13.138153"><ele>129.8</ele></trkpt>
   <trkpt lat="68.082407" lon="13.138093"><ele>130.4</ele></trkpt>
   <trkpt lat="68.082412" lon="13.138043"><ele>130.6</ele></trkpt>
   <trkpt lat="68.082425" lon="13.137980"><ele>131.6</ele></trkpt>
   <trkpt lat="68.082431" lon="13.137921"><ele>132.6</ele></trkpt>
   <trkpt lat="68.082432" lon="13.137901"><ele>133.0</ele></trkpt>
   <trkpt lat="68.082427" lon="13.137845"><ele>133.8</ele></trkpt>
   <trkpt lat="68.082434" lon="13.137794"><ele>134.4</ele></trkpt>
   <trkpt lat="68.082437" lon="13.137760"><ele>134.6</ele></trkpt>
   <trkpt lat="68.082433" lon="13.137684"><ele>134.8</ele></trkpt>
   <trkpt lat="68.082430" lon="13.137661"><ele>134.8</ele></trkpt>
   <trkpt lat="68.082429" lon="13.137604"><ele>134.8</ele></trkpt>
   <trkpt lat="68.082458" lon="13.137519"><ele>135.8</ele></trkpt>
   <trkpt lat="68.082464" lon="13.137465"><ele>136.2</ele></trkpt>
   <trkpt lat="68.082473" lon="13.137413"><ele>136.8</ele></trkpt>
   <trkpt lat="68.082477" lon="13.137393"><ele>137.0</ele></trkpt>
   <trkpt lat="68.082464" lon="13.137357"><ele>138.2</ele></trkpt>
   <trkpt lat="68.082452" lon="13.137345"><ele>138.6</ele></trkpt>
   <trkpt lat="68.082438" lon="13.137277"><ele>139.2</ele></trkpt>
   <trkpt lat="68.082454" lon="13.137209"><ele>140.0</ele></trkpt>
   <trkpt lat="68.082461" lon="13.137207"><ele>140.4</ele></trkpt>
   <trkpt lat="68.082472" lon="13.137215"><ele>141.4</ele></trkpt>
   <trkpt lat="68.082476" lon="13.137214"><ele>141.4</ele></trkpt>
   <trkpt lat="68.082489" lon="13.137205"><ele>142.4</ele></trkpt>
   <trkpt lat="68.082497" lon="13.137204"><ele>142.6</ele></trkpt>
   <trkpt lat="68.082521" lon="13.137185"><ele>143.8</ele></trkpt>
   <trkpt lat="68.082530" lon="13.137173"><ele>144.2</ele></trkpt>
   <trkpt lat="68.082560" lon="13.137119"><ele>144.8</ele></trkpt>
   <trkpt lat="68.082583" lon="13.137092"><ele>145.6</ele></trkpt>
   <trkpt lat="68.082588" lon="13.137092"><ele>145.8</ele></trkpt>
   <trkpt lat="68.082599" lon="13.137072"><ele>146.8</ele></trkpt>
   <trkpt lat="68.082588" lon="13.137046"><ele>147.4</ele></trkpt>
   <trkpt lat="68.082572" lon="13.137013"><ele>148.0</ele></trkpt>
   <trkpt lat="68.082556" lon="13.136959"><ele>149.2</ele></trkpt>
   <trkpt lat="68.082553" lon="13.136896"><ele>150.0</ele></trkpt>
   <trkpt lat="68.082552" lon="13.136873"><ele>150.2</ele></trkpt>
   <trkpt lat="68.082553" lon="13.136819"><ele>151.2</ele></trkpt>
   <trkpt lat="68.082565" lon="13.136815"><ele>152.0</ele></trkpt>
   <trkpt lat="68.082571" lon="13.136817"><ele>152.4</ele></trkpt>
   <trkpt lat="68.082586" lon="13.136819"><ele>153.6</ele></trkpt>
   <trkpt lat="68.082604" lon="13.136802"><ele>154.6</ele></trkpt>
   <trkpt lat="68.082608" lon="13.136811"><ele>154.8</ele></trkpt>
   <trkpt lat="68.082627" lon="13.136815"><ele>155.8</ele></trkpt>
   <trkpt lat="68.082621" lon="13.136782"><ele>157.0</ele></trkpt>
   <trkpt lat="68.082601" lon="13.136730"><ele>158.2</ele></trkpt>
   <trkpt lat="68.082614" lon="13.136724"><ele>158.6</ele></trkpt>
   <trkpt lat="68.082636" lon="13.136689"><ele>159.2</ele></trkpt>
   <trkpt lat="68.082655" lon="13.136644"><ele>160.0</ele></trkpt>
   <trkpt lat="68.082655" lon="13.136640"><ele>160.4</ele></trkpt>
   <trkpt lat="68.082651" lon="13.136596"><ele>161.6</ele></trkpt>
   <trkpt lat="68.082645" lon="13.136568"><ele>162.2</ele></trkpt>
   <trkpt lat="68.082651" lon="13.136545"><ele>162.6</ele></trkpt>
   <trkpt lat="68.082661" lon="13.136529"><ele>163.8</ele></trkpt>
   <trkpt lat="68.082666" lon="13.136539"><ele>164.4</ele></trkpt>
   <trkpt lat="68.082670" lon="13.136525"><ele>164.8</ele></trkpt>
   <trkpt lat="68.082685" lon="13.136463"><ele>166.0</ele></trkpt>
   <trkpt lat="68.082696" lon="13.136411"><ele>166.6</ele></trkpt>
   <trkpt lat="68.082709" lon="13.136382"><ele>167.2</ele></trkpt>
   <trkpt lat="68.082725" lon="13.136322"><ele>168.4</ele></trkpt>
   <trkpt lat="68.082728" lon="13.136299"><ele>168.6</ele></trkpt>
   <trkpt lat="68.082730" lon="13.136240"><ele>169.4</ele></trkpt>
   <trkpt lat="68.082731" lon="13.136186"><ele>170.6</ele></trkpt>
   <trkpt lat="68.082739" lon="13.136142"><ele>171.8</ele></trkpt>
   <trkpt lat="68.082747" lon="13.136105"><ele>173.0</ele></trkpt>
   <trkpt lat="68.082747" lon="13.136099"><ele>173.2</ele></trkpt>
   <trkpt lat="68.082748" lon="13.136081"><ele>174.2</ele></trkpt>
   <trkpt lat="68.082746" lon="13.136011"><ele>175.0</ele></trkpt>
   <trkpt lat="68.082742" lon="13.135991"><ele>175.6</ele></trkpt>
   <trkpt lat="68.082755" lon="13.135918"><ele>176.6</ele></trkpt>
   <trkpt lat="68.082770" lon="13.135891"><ele>176.6</ele></trkpt>
   <trkpt lat="68.082775" lon="13.135785"><ele>177.8</ele></trkpt>
   <trkpt lat="68.082735" lon="13.135666"><ele>178.6</ele></trkpt>
   <trkpt lat="68.082722" lon="13.135624"><ele>178.8</ele></trkpt>
   <trkpt lat="68.082722" lon="13.135596"><ele>179.0</ele></trkpt>
   <trkpt lat="68.082740" lon="13.135471"><ele>180.0</ele></trkpt>
   <trkpt lat="68.082740" lon="13.135447"><ele>180.4</ele></trkpt>
   <trkpt lat="68.082737" lon="13.135339"><ele>181.0</ele></trkpt>
   <trkpt lat="68.082738" lon="13.135269"><ele>181.4</ele></trkpt>
   <trkpt lat="68.082742" lon="13.135243"><ele>181.4</ele></trkpt>
   <trkpt lat="68.082736" lon="13.135242"><ele>181.4</ele></trkpt>
   <trkpt lat="68.082732" lon="13.135235"><ele>181.8</ele></trkpt>
   <trkpt lat="68.082732" lon="13.135235"><ele>182.0</ele></trkpt>
   <trkpt lat="68.082732" lon="13.135235"><ele>181.2</ele></trkpt>
   <trkpt lat="68.082733" lon="13.135227"><ele>181.0</ele></trkpt>
   <trkpt lat="68.082760" lon="13.135158"><ele>181.4</ele></trkpt>
   <trkpt lat="68.082768" lon="13.135134"><ele>181.6</ele></trkpt>
   <trkpt lat="68.082793" lon="13.135040"><ele>182.2</ele></trkpt>
   <trkpt lat="68.082810" lon="13.134958"><ele>182.8</ele></trkpt>
   <trkpt lat="68.082817" lon="13.134936"><ele>182.8</ele></trkpt>
   <trkpt lat="68.082825" lon="13.134855"><ele>183.2</ele></trkpt>
   <trkpt lat="68.082824" lon="13.134829"><ele>183.4</ele></trkpt>
   <trkpt lat="68.082813" lon="13.134733"><ele>183.4</ele></trkpt>
   <trkpt lat="68.082819" lon="13.134681"><ele>183.4</ele></trkpt>
   <trkpt lat="68.082819" lon="13.134626"><ele>183.8</ele></trkpt>
   <trkpt lat="68.082820" lon="13.134601"><ele>183.8</ele></trkpt>
   <trkpt lat="68.082821" lon="13.134534"><ele>184.6</ele></trkpt>
   <trkpt lat="68.082828" lon="13.134510"><ele>184.8</ele></trkpt>
   <trkpt lat="68.082846" lon="13.134446"><ele>185.4</ele></trkpt>
   <trkpt lat="68.082845" lon="13.134424"><ele>185.6</ele></trkpt>
   <trkpt lat="68.082844" lon="13.134333"><ele>186.4</ele></trkpt>
   <trkpt lat="68.082846" lon="13.134288"><ele>186.8</ele></trkpt>
   <trkpt lat="68.082843" lon="13.134256"><ele>187.2</ele></trkpt>
   <trkpt lat="68.082831" lon="13.134153"><ele>187.8</ele></trkpt>
   <trkpt lat="68.082850" lon="13.134072"><ele>188.6</ele></trkpt>
   <trkpt lat="68.082857" lon="13.134049"><ele>188.8</ele></trkpt>
   <trkpt lat="68.082857" lon="13.134016"><ele>189.0</ele></trkpt>
   <trkpt lat="68.082848" lon="13.133895"><ele>189.8</ele></trkpt>
   <trkpt lat="68.082809" lon="13.133770"><ele>191.0</ele></trkpt>
   <trkpt lat="68.082795" lon="13.133711"><ele>191.8</ele></trkpt>
   <trkpt lat="68.082772" lon="13.133630"><ele>192.4</ele></trkpt>
   <trkpt lat="68.082752" lon="13.133529"><ele>193.4</ele></trkpt>
   <trkpt lat="68.082742" lon="13.133511"><ele>193.6</ele></trkpt>
   <trkpt lat="68.082711" lon="13.133429"><ele>194.2</ele></trkpt>
   <trkpt lat="68.082704" lon="13.133406"><ele>194.4</ele></trkpt>
   <trkpt lat="68.082664" lon="13.133344"><ele>195.2</ele></trkpt>
   <trkpt lat="68.082651" lon="13.133288"><ele>195.4</ele></trkpt>
   <trkpt lat="68.082597" lon="13.133151"><ele>195.8</ele></trkpt>
   <trkpt lat="68.082544" lon="13.133000"><ele>196.4</ele></trkpt>
   <trkpt lat="68.082535" lon="13.132979"><ele>196.6</ele></trkpt>
   <trkpt lat="68.082475" lon="13.132857"><ele>196.8</ele></trkpt>
   <trkpt lat="68.082432" lon="13.132784"><ele>196.8</ele></trkpt>
   <trkpt lat="68.082386" lon="13.132694"><ele>197.0</ele></trkpt>
   <trkpt lat="68.082339" lon="13.132658"><ele>197.0</ele></trkpt>
   <trkpt lat="68.082326" lon="13.132655"><ele>197.0</ele></trkpt>
   <trkpt lat="68.082298" lon="13.132622"><ele>197.0</ele></trkpt>
   <trkpt lat="68.082246" lon="13.132568"><ele>196.8</ele></trkpt>
   <trkpt lat="68.082215" lon="13.132537"><ele>196.6</ele></trkpt>
   <trkpt lat="68.082155" lon="13.132440"><ele>197.0</ele></trkpt>
   <trkpt lat="68.082131" lon="13.132400"><ele>197.4</ele></trkpt>
   <trkpt lat="68.082106" lon="13.132369"><ele>197.4</ele></trkpt>
   <trkpt lat="68.082070" lon="13.132337"><ele>197.6</ele></trkpt>
   <trkpt lat="68.082003" lon="13.132267"><ele>198.0</ele></trkpt>
   <trkpt lat="68.081997" lon="13.132232"><ele>198.0</ele></trkpt>
   <trkpt lat="68.081935" lon="13.132143"><ele>198.2</ele></trkpt>
   <trkpt lat="68.081914" lon="13.132076"><ele>198.4</ele></trkpt>
   <trkpt lat="68.081895" lon="13.132037"><ele>198.6</ele></trkpt>
   <trkpt lat="68.081868" lon="13.131923"><ele>199.0</ele></trkpt>
   <trkpt lat="68.081841" lon="13.131865"><ele>199.4</ele></trkpt>
   <trkpt lat="68.081811" lon="13.131838"><ele>199.6</ele></trkpt>
   <trkpt lat="68.081789" lon="13.131766"><ele>200.0</ele></trkpt>
   <trkpt lat="68.081745" lon="13.131706"><ele>200.8</ele></trkpt>
   <trkpt lat="68.081735" lon="13.131687"><ele>200.8</ele></trkpt>
   <trkpt lat="68.081731" lon="13.131666"><ele>201.0</ele></trkpt>
   <trkpt lat="68.081721" lon="13.131611"><ele>201.8</ele></trkpt>
   <trkpt lat="68.081713" lon="13.131583"><ele>202.4</ele></trkpt>
   <trkpt lat="68.081707" lon="13.131542"><ele>203.0</ele></trkpt>
   <trkpt lat="68.081704" lon="13.131496"><ele>203.4</ele></trkpt>
   <trkpt lat="68.081691" lon="13.131440"><ele>204.0</ele></trkpt>
   <trkpt lat="68.081687" lon="13.131425"><ele>204.2</ele></trkpt>
   <trkpt lat="68.081689" lon="13.131381"><ele>204.8</ele></trkpt>
   <trkpt lat="68.081690" lon="13.131368"><ele>205.0</ele></trkpt>
   <trkpt lat="68.081689" lon="13.131353"><ele>205.4</ele></trkpt>
   <trkpt lat="68.081671" lon="13.131324"><ele>206.2</ele></trkpt>
   <trkpt lat="68.081663" lon="13.131317"><ele>206.2</ele></trkpt>
   <trkpt lat="68.081653" lon="13.131314"><ele>206.4</ele></trkpt>
   <trkpt lat="68.081621" lon="13.131250"><ele>207.4</ele></trkpt>
   <trkpt lat="68.081617" lon="13.131232"><ele>207.6</ele></trkpt>
   <trkpt lat="68.081613" lon="13.131199"><ele>208.4</ele></trkpt>
   <trkpt lat="68.081612" lon="13.131178"><ele>208.6</ele></trkpt>
   <trkpt lat="68.081642" lon="13.131124"><ele>209.8</ele></trkpt>
   <trkpt lat="68.081651" lon="13.131081"><ele>210.8</ele></trkpt>
   <trkpt lat="68.081640" lon="13.131024"><ele>212.0</ele></trkpt>
   <trkpt lat="68.081640" lon="13.130996"><ele>212.2</ele></trkpt>
   <trkpt lat="68.081657" lon="13.130889"><ele>213.0</ele></trkpt>
   <trkpt lat="68.081656" lon="13.130838"><ele>213.4</ele></trkpt>
   <trkpt lat="68.081672" lon="13.130722"><ele>214.0</ele></trkpt>
   <trkpt lat="68.081669" lon="13.130565"><ele>214.2</ele></trkpt>
   <trkpt lat="68.081627" lon="13.130434"><ele>214.6</ele></trkpt>
   <trkpt lat="68.081597" lon="13.130373"><ele>214.6</ele></trkpt>
   <trkpt lat="68.081570" lon="13.130295"><ele>214.6</ele></trkpt>
   <trkpt lat="68.081539" lon="13.130186"><ele>214.4</ele></trkpt>
   <trkpt lat="68.081524" lon="13.130142"><ele>214.4</ele></trkpt>
   <trkpt lat="68.081509" lon="13.130091"><ele>214.6</ele></trkpt>
   <trkpt lat="68.081485" lon="13.129958"><ele>215.0</ele></trkpt>
   <trkpt lat="68.081466" lon="13.129827"><ele>215.6</ele></trkpt>
   <trkpt lat="68.081424" lon="13.129621"><ele>216.0</ele></trkpt>
   <trkpt lat="68.081404" lon="13.129540"><ele>216.0</ele></trkpt>
   <trkpt lat="68.081398" lon="13.129472"><ele>216.0</ele></trkpt>
   <trkpt lat="68.081370" lon="13.129269"><ele>216.0</ele></trkpt>
   <trkpt lat="68.081355" lon="13.129221"><ele>215.8</ele></trkpt>
   <trkpt lat="68.081351" lon="13.129191"><ele>215.8</ele></trkpt>
   <trkpt lat="68.081336" lon="13.129051"><ele>215.8</ele></trkpt>
   <trkpt lat="68.081299" lon="13.128952"><ele>215.8</ele></trkpt>
   <trkpt lat="68.081285" lon="13.128898"><ele>215.6</ele></trkpt>
   <trkpt lat="68.081276" lon="13.128727"><ele>215.2</ele></trkpt>
   <trkpt lat="68.081267" lon="13.128580"><ele>216.0</ele></trkpt>
   <trkpt lat="68.081260" lon="13.128558"><ele>216.2</ele></trkpt>
   <trkpt lat="68.081247" lon="13.128522"><ele>216.8</ele></trkpt>
   <trkpt lat="68.081247" lon="13.128492"><ele>217.2</ele></trkpt>
   <trkpt lat="68.081248" lon="13.128448"><ele>218.4</ele></trkpt>
   <trkpt lat="68.081238" lon="13.128390"><ele>219.0</ele></trkpt>
   <trkpt lat="68.081224" lon="13.128329"><ele>219.2</ele></trkpt>
   <trkpt lat="68.081216" lon="13.128306"><ele>219.4</ele></trkpt>
   <trkpt lat="68.081201" lon="13.128223"><ele>220.0</ele></trkpt>
   <trkpt lat="68.081184" lon="13.128155"><ele>220.6</ele></trkpt>
   <trkpt lat="68.081158" lon="13.128055"><ele>221.6</ele></trkpt>
   <trkpt lat="68.081151" lon="13.128039"><ele>221.6</ele></trkpt>
   <trkpt lat="68.081136" lon="13.127982"><ele>222.6</ele></trkpt>
   <trkpt lat="68.081132" lon="13.127964"><ele>222.8</ele></trkpt>
   <trkpt lat="68.081117" lon="13.127891"><ele>223.6</ele></trkpt>
   <trkpt lat="68.081111" lon="13.127865"><ele>223.8</ele></trkpt>
   <trkpt lat="68.081097" lon="13.127753"><ele>224.2</ele></trkpt>
   <trkpt lat="68.081092" lon="13.127681"><ele>225.0</ele></trkpt>
   <trkpt lat="68.081086" lon="13.127580"><ele>225.8</ele></trkpt>
   <trkpt lat="68.081087" lon="13.127530"><ele>226.6</ele></trkpt>
   <trkpt lat="68.081093" lon="13.127487"><ele>227.0</ele></trkpt>
   <trkpt lat="68.081117" lon="13.127344"><ele>227.6</ele></trkpt>
   <trkpt lat="68.081130" lon="13.127260"><ele>228.0</ele></trkpt>
   <trkpt lat="68.081129" lon="13.127207"><ele>228.2</ele></trkpt>
   <trkpt lat="68.081144" lon="13.127142"><ele>228.6</ele></trkpt>
   <trkpt lat="68.081143" lon="13.127115"><ele>228.8</ele></trkpt>
   <trkpt lat="68.081147" lon="13.127089"><ele>228.8</ele></trkpt>
   <trkpt lat="68.081160" lon="13.127050"><ele>228.8</ele></trkpt>
   <trkpt lat="68.081167" lon="13.126998"><ele>228.8</ele></trkpt>
   <trkpt lat="68.081159" lon="13.126891"><ele>228.8</ele></trkpt>
   <trkpt lat="68.081149" lon="13.126787"><ele>228.6</ele></trkpt>
   <trkpt lat="68.081162" lon="13.126761"><ele>228.6</ele></trkpt>
   <trkpt lat="68.081168" lon="13.126736"><ele>228.8</ele></trkpt>
   <trkpt lat="68.081187" lon="13.126566"><ele>229.0</ele></trkpt>
   <trkpt lat="68.081191" lon="13.126543"><ele>229.0</ele></trkpt>
   <trkpt lat="68.081221" lon="13.126370"><ele>229.4</ele></trkpt>
   <trkpt lat="68.081217" lon="13.126311"><ele>229.6</ele></trkpt>
   <trkpt lat="68.081238" lon="13.126227"><ele>229.6</ele></trkpt>
   <trkpt lat="68.081256" lon="13.126164"><ele>230.0</ele></trkpt>
   <trkpt lat="68.081263" lon="13.126142"><ele>230.2</ele></trkpt>
   <trkpt lat="68.081275" lon="13.126100"><ele>230.6</ele></trkpt>
   <trkpt lat="68.081293" lon="13.125966"><ele>231.2</ele></trkpt>
   <trkpt lat="68.081313" lon="13.125839"><ele>231.6</ele></trkpt>
   <trkpt lat="68.081315" lon="13.125819"><ele>231.8</ele></trkpt>
   <trkpt lat="68.081318" lon="13.125800"><ele>232.0</ele></trkpt>
   <trkpt lat="68.081344" lon="13.125675"><ele>232.8</ele></trkpt>
   <trkpt lat="68.081361" lon="13.125615"><ele>233.4</ele></trkpt>
   <trkpt lat="68.081365" lon="13.125580"><ele>234.0</ele></trkpt>
   <trkpt lat="68.081397" lon="13.125425"><ele>234.4</ele></trkpt>
   <trkpt lat="68.081417" lon="13.125341"><ele>234.4</ele></trkpt>
   <trkpt lat="68.081452" lon="13.125268"><ele>235.2</ele></trkpt>
   <trkpt lat="68.081489" lon="13.125132"><ele>236.2</ele></trkpt>
   <trkpt lat="68.081508" lon="13.125070"><ele>236.8</ele></trkpt>
   <trkpt lat="68.081527" lon="13.124990"><ele>237.4</ele></trkpt>
   <trkpt lat="68.081543" lon="13.124921"><ele>238.0</ele></trkpt>
   <trkpt lat="68.081559" lon="13.124871"><ele>238.2</ele></trkpt>
   <trkpt lat="68.081584" lon="13.124830"><ele>238.6</ele></trkpt>
   <trkpt lat="68.081623" lon="13.124716"><ele>239.6</ele></trkpt>
   <trkpt lat="68.081632" lon="13.124694"><ele>239.8</ele></trkpt>
   <trkpt lat="68.081660" lon="13.124615"><ele>241.2</ele></trkpt>
   <trkpt lat="68.081678" lon="13.124543"><ele>242.2</ele></trkpt>
   <trkpt lat="68.081686" lon="13.124524"><ele>242.4</ele></trkpt>
   <trkpt lat="68.081711" lon="13.124466"><ele>243.4</ele></trkpt>
   <trkpt lat="68.081727" lon="13.124440"><ele>243.8</ele></trkpt>
   <trkpt lat="68.081742" lon="13.124419"><ele>244.4</ele></trkpt>
   <trkpt lat="68.081747" lon="13.124397"><ele>244.8</ele></trkpt>
   <trkpt lat="68.081752" lon="13.124373"><ele>245.2</ele></trkpt>
   <trkpt lat="68.081762" lon="13.124349"><ele>245.4</ele></trkpt>
   <trkpt lat="68.081795" lon="13.124287"><ele>246.6</ele></trkpt>
   <trkpt lat="68.081809" lon="13.124242"><ele>247.4</ele></trkpt>
   <trkpt lat="68.081816" lon="13.124222"><ele>247.6</ele></trkpt>
   <trkpt lat="68.081826" lon="13.124150"><ele>248.8</ele></trkpt>
   <trkpt lat="68.081834" lon="13.124116"><ele>249.2</ele></trkpt>
   <trkpt lat="68.081838" lon="13.124093"><ele>249.4</ele></trkpt>
   <trkpt lat="68.081850" lon="13.124056"><ele>249.6</ele></trkpt>
   <trkpt lat="68.081853" lon="13.124034"><ele>250.0</ele></trkpt>
   <trkpt lat="68.081868" lon="13.123965"><ele>250.6</ele></trkpt>
   <trkpt lat="68.081879" lon="13.123915"><ele>251.2</ele></trkpt>
   <trkpt lat="68.081903" lon="13.123846"><ele>252.4</ele></trkpt>
   <trkpt lat="68.081917" lon="13.123808"><ele>252.8</ele></trkpt>
   <trkpt lat="68.081933" lon="13.123759"><ele>253.6</ele></trkpt>
   <trkpt lat="68.081953" lon="13.123721"><ele>254.0</ele></trkpt>
   <trkpt lat="68.081965" lon="13.123645"><ele>254.8</ele></trkpt>
   <trkpt lat="68.081988" lon="13.123572"><ele>255.8</ele></trkpt>
   <trkpt lat="68.081996" lon="13.123558"><ele>256.2</ele></trkpt>
   <trkpt lat="68.082015" lon="13.123509"><ele>257.2</ele></trkpt>
   <trkpt lat="68.082047" lon="13.123401"><ele>258.4</ele></trkpt>
   <trkpt lat="68.082051" lon="13.123379"><ele>258.6</ele></trkpt>
   <trkpt lat="68.082067" lon="13.123295"><ele>259.4</ele></trkpt>
   <trkpt lat="68.082107" lon="13.123206"><ele>260.2</ele></trkpt>
   <trkpt lat="68.082115" lon="13.123192"><ele>260.4</ele></trkpt>
   <trkpt lat="68.082130" lon="13.123112"><ele>261.4</ele></trkpt>
   <trkpt lat="68.082132" lon="13.123090"><ele>261.8</ele></trkpt>
   <trkpt lat="68.082149" lon="13.123054"><ele>262.2</ele></trkpt>
   <trkpt lat="68.082170" lon="13.123022"><ele>262.8</ele></trkpt>
   <trkpt lat="68.082217" lon="13.122907"><ele>264.0</ele></trkpt>
   <trkpt lat="68.082242" lon="13.122819"><ele>265.0</ele></trkpt>
   <trkpt lat="68.082249" lon="13.122801"><ele>265.2</ele></trkpt>
   <trkpt lat="68.082260" lon="13.122760"><ele>265.6</ele></trkpt>
   <trkpt lat="68.082263" lon="13.122742"><ele>265.8</ele></trkpt>
   <trkpt lat="68.082270" lon="13.122715"><ele>266.2</ele></trkpt>
   <trkpt lat="68.082275" lon="13.122700"><ele>266.6</ele></trkpt>
   <trkpt lat="68.082311" lon="13.122636"><ele>267.2</ele></trkpt>
   <trkpt lat="68.082321" lon="13.122625"><ele>267.4</ele></trkpt>
   <trkpt lat="68.082376" lon="13.122561"><ele>268.2</ele></trkpt>
   <trkpt lat="68.082391" lon="13.122547"><ele>268.8</ele></trkpt>
   <trkpt lat="68.082399" lon="13.122534"><ele>268.8</ele></trkpt>
   <trkpt lat="68.082422" lon="13.122508"><ele>269.2</ele></trkpt>
   <trkpt lat="68.082432" lon="13.122492"><ele>269.4</ele></trkpt>
   <trkpt lat="68.082447" lon="13.122455"><ele>269.6</ele></trkpt>
   <trkpt lat="68.082462" lon="13.122405"><ele>269.8</ele></trkpt>
   <trkpt lat="68.082486" lon="13.122341"><ele>270.4</ele></trkpt>
   <trkpt lat="68.082493" lon="13.122330"><ele>270.6</ele></trkpt>
   <trkpt lat="68.082514" lon="13.122264"><ele>271.0</ele></trkpt>
   <trkpt lat="68.082535" lon="13.122160"><ele>271.4</ele></trkpt>
   <trkpt lat="68.082553" lon="13.122009"><ele>271.4</ele></trkpt>
   <trkpt lat="68.082561" lon="13.122006"><ele>271.4</ele></trkpt>
   <trkpt lat="68.082617" lon="13.121819"><ele>271.2</ele></trkpt>
   <trkpt lat="68.082650" lon="13.121750"><ele>271.2</ele></trkpt>
   <trkpt lat="68.082674" lon="13.121693"><ele>271.0</ele></trkpt>
   <trkpt lat="68.082714" lon="13.121598"><ele>271.0</ele></trkpt>
   <trkpt lat="68.082744" lon="13.121470"><ele>270.4</ele></trkpt>
   <trkpt lat="68.082748" lon="13.121437"><ele>270.2</ele></trkpt>
   <trkpt lat="68.082767" lon="13.121344"><ele>269.8</ele></trkpt>
   <trkpt lat="68.082784" lon="13.121197"><ele>269.6</ele></trkpt>
   <trkpt lat="68.082786" lon="13.121163"><ele>269.4</ele></trkpt>
   <trkpt lat="68.082810" lon="13.120960"><ele>268.6</ele></trkpt>
   <trkpt lat="68.082813" lon="13.120923"><ele>268.6</ele></trkpt>
   <trkpt lat="68.082816" lon="13.120887"><ele>268.2</ele></trkpt>
   <trkpt lat="68.082841" lon="13.120685"><ele>267.8</ele></trkpt>
   <trkpt lat="68.082842" lon="13.120649"><ele>267.8</ele></trkpt>
   <trkpt lat="68.082840" lon="13.120447"><ele>267.6</ele></trkpt>
   <trkpt lat="68.082838" lon="13.120382"><ele>267.2</ele></trkpt>
   <trkpt lat="68.082839" lon="13.120353"><ele>267.2</ele></trkpt>
   <trkpt lat="68.082840" lon="13.120272"><ele>266.4</ele></trkpt>
   <trkpt lat="68.082833" lon="13.120179"><ele>266.2</ele></trkpt>
   <trkpt lat="68.082830" lon="13.120131"><ele>266.2</ele></trkpt>
   <trkpt lat="68.082825" lon="13.120026"><ele>266.4</ele></trkpt>
   <trkpt lat="68.082822" lon="13.119949"><ele>266.2</ele></trkpt>
   <trkpt lat="68.082815" lon="13.119822"><ele>266.0</ele></trkpt>
   <trkpt lat="68.082811" lon="13.119670"><ele>265.8</ele></trkpt>
   <trkpt lat="68.082824" lon="13.119448"><ele>266.0</ele></trkpt>
   <trkpt lat="68.082827" lon="13.119412"><ele>266.0</ele></trkpt>
   <trkpt lat="68.082843" lon="13.119211"><ele>265.8</ele></trkpt>
   <trkpt lat="68.082855" lon="13.119015"><ele>266.0</ele></trkpt>
   <trkpt lat="68.082857" lon="13.118975"><ele>266.2</ele></trkpt>
   <trkpt lat="68.082871" lon="13.118750"><ele>266.8</ele></trkpt>
   <trkpt lat="68.082869" lon="13.118653"><ele>267.2</ele></trkpt>
   <trkpt lat="68.082867" lon="13.118634"><ele>267.4</ele></trkpt>
   <trkpt lat="68.082885" lon="13.118520"><ele>268.4</ele></trkpt>
   <trkpt lat="68.082892" lon="13.118466"><ele>268.6</ele></trkpt>
   <trkpt lat="68.082896" lon="13.118359"><ele>268.6</ele></trkpt>
   <trkpt lat="68.082913" lon="13.118228"><ele>268.8</ele></trkpt>
   <trkpt lat="68.082919" lon="13.118206"><ele>268.8</ele></trkpt>
   <trkpt lat="68.082934" lon="13.118131"><ele>269.0</ele></trkpt>
   <trkpt lat="68.082954" lon="13.117963"><ele>268.8</ele></trkpt>
   <trkpt lat="68.082958" lon="13.117927"><ele>268.8</ele></trkpt>
   <trkpt lat="68.082961" lon="13.117749"><ele>268.8</ele></trkpt>
   <trkpt lat="68.082963" lon="13.117697"><ele>268.8</ele></trkpt>
   <trkpt lat="68.082969" lon="13.117617"><ele>268.8</ele></trkpt>
   <trkpt lat="68.082980" lon="13.117581"><ele>268.8</ele></trkpt>
   <trkpt lat="68.082987" lon="13.117526"><ele>268.8</ele></trkpt>
   <trkpt lat="68.083012" lon="13.117471"><ele>268.6</ele></trkpt>
   <trkpt lat="68.083024" lon="13.117387"><ele>268.4</ele></trkpt>
   <trkpt lat="68.083021" lon="13.117363"><ele>268.2</ele></trkpt>
   <trkpt lat="68.083026" lon="13.117287"><ele>268.2</ele></trkpt>
   <trkpt lat="68.083058" lon="13.117225"><ele>268.2</ele></trkpt>
   <trkpt lat="68.083131" lon="13.117110"><ele>268.4</ele></trkpt>
   <trkpt lat="68.083138" lon="13.117044"><ele>268.4</ele></trkpt>
   <trkpt lat="68.083161" lon="13.116882"><ele>268.2</ele></trkpt>
   <trkpt lat="68.083196" lon="13.116826"><ele>268.2</ele></trkpt>
   <trkpt lat="68.083245" lon="13.116700"><ele>269.0</ele></trkpt>
   <trkpt lat="68.083256" lon="13.116663"><ele>269.4</ele></trkpt>
   <trkpt lat="68.083281" lon="13.116625"><ele>269.8</ele></trkpt>
   <trkpt lat="68.083318" lon="13.116550"><ele>270.4</ele></trkpt>
   <trkpt lat="68.083326" lon="13.116526"><ele>270.6</ele></trkpt>
   <trkpt lat="68.083340" lon="13.116478"><ele>271.0</ele></trkpt>
   <trkpt lat="68.083364" lon="13.116407"><ele>271.6</ele></trkpt>
   <trkpt lat="68.083368" lon="13.116383"><ele>272.0</ele></trkpt>
   <trkpt lat="68.083397" lon="13.116291"><ele>272.8</ele></trkpt>
   <trkpt lat="68.083419" lon="13.116236"><ele>273.2</ele></trkpt>
   <trkpt lat="68.083434" lon="13.116198"><ele>273.8</ele></trkpt>
   <trkpt lat="68.083463" lon="13.116153"><ele>274.2</ele></trkpt>
   <trkpt lat="68.083510" lon="13.116070"><ele>275.0</ele></trkpt>
   <trkpt lat="68.083526" lon="13.116033"><ele>275.2</ele></trkpt>
   <trkpt lat="68.083548" lon="13.116018"><ele>275.6</ele></trkpt>
   <trkpt lat="68.083573" lon="13.115983"><ele>276.2</ele></trkpt>
   <trkpt lat="68.083629" lon="13.115900"><ele>277.2</ele></trkpt>
   <trkpt lat="68.083637" lon="13.115885"><ele>277.4</ele></trkpt>
   <trkpt lat="68.083650" lon="13.115847"><ele>277.6</ele></trkpt>
   <trkpt lat="68.083680" lon="13.115744"><ele>278.4</ele></trkpt>
   <trkpt lat="68.083697" lon="13.115562"><ele>279.4</ele></trkpt>
   <trkpt lat="68.083703" lon="13.115515"><ele>280.0</ele></trkpt>
   <trkpt lat="68.083710" lon="13.115468"><ele>280.4</ele></trkpt>
   <trkpt lat="68.083736" lon="13.115347"><ele>281.6</ele></trkpt>
   <trkpt lat="68.083759" lon="13.115246"><ele>282.4</ele></trkpt>
   <trkpt lat="68.083766" lon="13.115227"><ele>282.8</ele></trkpt>
   <trkpt lat="68.083802" lon="13.115144"><ele>283.8</ele></trkpt>
   <trkpt lat="68.083831" lon="13.115050"><ele>285.0</ele></trkpt>
   <trkpt lat="68.083867" lon="13.114959"><ele>286.2</ele></trkpt>
   <trkpt lat="68.083879" lon="13.114874"><ele>287.0</ele></trkpt>
   <trkpt lat="68.083883" lon="13.114817"><ele>287.4</ele></trkpt>
   <trkpt lat="68.083893" lon="13.114735"><ele>288.4</ele></trkpt>
   <trkpt lat="68.083901" lon="13.114672"><ele>289.2</ele></trkpt>
   <trkpt lat="68.083904" lon="13.114655"><ele>289.4</ele></trkpt>
   <trkpt lat="68.083920" lon="13.114580"><ele>290.6</ele></trkpt>
   <trkpt lat="68.083926" lon="13.114546"><ele>291.0</ele></trkpt>
   <trkpt lat="68.083938" lon="13.114497"><ele>291.8</ele></trkpt>
   <trkpt lat="68.083977" lon="13.114473"><ele>293.0</ele></trkpt>
   <trkpt lat="68.083999" lon="13.114399"><ele>294.2</ele></trkpt>
   <trkpt lat="68.084008" lon="13.114360"><ele>294.6</ele></trkpt>
   <trkpt lat="68.084025" lon="13.114316"><ele>295.4</ele></trkpt>
   <trkpt lat="68.084040" lon="13.114263"><ele>296.0</ele></trkpt>
   <trkpt lat="68.084044" lon="13.114247"><ele>296.4</ele></trkpt>
   <trkpt lat="68.084050" lon="13.114156"><ele>297.4</ele></trkpt>
   <trkpt lat="68.084059" lon="13.114086"><ele>298.0</ele></trkpt>
   <trkpt lat="68.084065" lon="13.114017"><ele>298.6</ele></trkpt>
   <trkpt lat="68.084078" lon="13.113966"><ele>299.4</ele></trkpt>
   <trkpt lat="68.084086" lon="13.113953"><ele>299.6</ele></trkpt>
   <trkpt lat="68.084094" lon="13.113937"><ele>299.6</ele></trkpt>
   <trkpt lat="68.084109" lon="13.113832"><ele>300.6</ele></trkpt>
   <trkpt lat="68.084113" lon="13.113765"><ele>301.4</ele></trkpt>
   <trkpt lat="68.084116" lon="13.113746"><ele>301.8</ele></trkpt>
   <trkpt lat="68.084119" lon="13.113650"><ele>302.8</ele></trkpt>
   <trkpt lat="68.084133" lon="13.113603"><ele>303.6</ele></trkpt>
   <trkpt lat="68.084143" lon="13.113588"><ele>304.0</ele></trkpt>
   <trkpt lat="68.084145" lon="13.113581"><ele>304.4</ele></trkpt>
   <trkpt lat="68.084154" lon="13.113546"><ele>305.0</ele></trkpt>
   <trkpt lat="68.084156" lon="13.113526"><ele>305.2</ele></trkpt>
   <trkpt lat="68.084163" lon="13.113409"><ele>306.2</ele></trkpt>
   <trkpt lat="68.084164" lon="13.113359"><ele>306.6</ele></trkpt>
   <trkpt lat="68.084169" lon="13.113290"><ele>307.4</ele></trkpt>
   <trkpt lat="68.084164" lon="13.113139"><ele>308.4</ele></trkpt>
   <trkpt lat="68.084164" lon="13.113118"><ele>308.8</ele></trkpt>
   <trkpt lat="68.084153" lon="13.112994"><ele>309.6</ele></trkpt>
   <trkpt lat="68.084146" lon="13.112832"><ele>310.6</ele></trkpt>
   <trkpt lat="68.084143" lon="13.112796"><ele>310.8</ele></trkpt>
   <trkpt lat="68.084152" lon="13.112656"><ele>312.0</ele></trkpt>
   <trkpt lat="68.084154" lon="13.112608"><ele>312.4</ele></trkpt>
   <trkpt lat="68.084165" lon="13.112513"><ele>313.0</ele></trkpt>
   <trkpt lat="68.084167" lon="13.112393"><ele>313.8</ele></trkpt>
   <trkpt lat="68.084169" lon="13.112335"><ele>314.2</ele></trkpt>
   <trkpt lat="68.084168" lon="13.112271"><ele>314.6</ele></trkpt>
   <trkpt lat="68.084165" lon="13.112156"><ele>315.2</ele></trkpt>
   <trkpt lat="68.084157" lon="13.112015"><ele>316.0</ele></trkpt>
   <trkpt lat="68.084156" lon="13.111983"><ele>316.2</ele></trkpt>
   <trkpt lat="68.084155" lon="13.111945"><ele>316.4</ele></trkpt>
   <trkpt lat="68.084155" lon="13.111849"><ele>317.2</ele></trkpt>
   <trkpt lat="68.084153" lon="13.111750"><ele>317.6</ele></trkpt>
   <trkpt lat="68.084151" lon="13.111682"><ele>318.0</ele></trkpt>
   <trkpt lat="68.084149" lon="13.111561"><ele>318.8</ele></trkpt>
   <trkpt lat="68.084148" lon="13.111466"><ele>319.4</ele></trkpt>
   <trkpt lat="68.084149" lon="13.111412"><ele>319.8</ele></trkpt>
   <trkpt lat="68.084139" lon="13.111273"><ele>320.4</ele></trkpt>
   <trkpt lat="68.084146" lon="13.111221"><ele>320.8</ele></trkpt>
   <trkpt lat="68.084148" lon="13.111197"><ele>321.0</ele></trkpt>
   <trkpt lat="68.084151" lon="13.111034"><ele>322.0</ele></trkpt>
   <trkpt lat="68.084153" lon="13.110921"><ele>322.8</ele></trkpt>
   <trkpt lat="68.084157" lon="13.110840"><ele>323.2</ele></trkpt>
   <trkpt lat="68.084148" lon="13.110671"><ele>323.8</ele></trkpt>
   <trkpt lat="68.084146" lon="13.110595"><ele>324.2</ele></trkpt>
   <trkpt lat="68.084140" lon="13.110418"><ele>325.0</ele></trkpt>
   <trkpt lat="68.084139" lon="13.110386"><ele>325.2</ele></trkpt>
   <trkpt lat="68.084139" lon="13.110217"><ele>326.2</ele></trkpt>
   <trkpt lat="68.084135" lon="13.110032"><ele>326.8</ele></trkpt>
   <trkpt lat="68.084134" lon="13.109999"><ele>326.8</ele></trkpt>
   <trkpt lat="68.084137" lon="13.109816"><ele>327.2</ele></trkpt>
   <trkpt lat="68.084130" lon="13.109750"><ele>327.4</ele></trkpt>
   <trkpt lat="68.084133" lon="13.109611"><ele>327.4</ele></trkpt>
   <trkpt lat="68.084139" lon="13.109523"><ele>327.8</ele></trkpt>
   <trkpt lat="68.084140" lon="13.109421"><ele>328.2</ele></trkpt>
   <trkpt lat="68.084140" lon="13.109318"><ele>328.4</ele></trkpt>
   <trkpt lat="68.084140" lon="13.109249"><ele>329.0</ele></trkpt>
   <trkpt lat="68.084141" lon="13.109061"><ele>329.2</ele></trkpt>
   <trkpt lat="68.084143" lon="13.109008"><ele>329.4</ele></trkpt>
   <trkpt lat="68.084143" lon="13.108955"><ele>329.6</ele></trkpt>
   <trkpt lat="68.084151" lon="13.108776"><ele>330.4</ele></trkpt>
   <trkpt lat="68.084157" lon="13.108750"><ele>330.6</ele></trkpt>
   <trkpt lat="68.084161" lon="13.108714"><ele>330.8</ele></trkpt>
   <trkpt lat="68.084169" lon="13.108526"><ele>331.4</ele></trkpt>
   <trkpt lat="68.084176" lon="13.108462"><ele>331.8</ele></trkpt>
   <trkpt lat="68.084192" lon="13.108300"><ele>332.8</ele></trkpt>
   <trkpt lat="68.084194" lon="13.108215"><ele>333.4</ele></trkpt>
   <trkpt lat="68.084195" lon="13.108117"><ele>334.0</ele></trkpt>
   <trkpt lat="68.084203" lon="13.108049"><ele>334.6</ele></trkpt>
   <trkpt lat="68.084203" lon="13.108026"><ele>334.8</ele></trkpt>
   <trkpt lat="68.084210" lon="13.108004"><ele>335.2</ele></trkpt>
   <trkpt lat="68.084220" lon="13.107961"><ele>335.6</ele></trkpt>
   <trkpt lat="68.084220" lon="13.107914"><ele>336.2</ele></trkpt>
   <trkpt lat="68.084238" lon="13.107809"><ele>337.2</ele></trkpt>
   <trkpt lat="68.084256" lon="13.107756"><ele>337.8</ele></trkpt>
   <trkpt lat="68.084275" lon="13.107717"><ele>338.4</ele></trkpt>
   <trkpt lat="68.084281" lon="13.107676"><ele>339.0</ele></trkpt>
   <trkpt lat="68.084281" lon="13.107625"><ele>339.4</ele></trkpt>
   <trkpt lat="68.084281" lon="13.107602"><ele>339.6</ele></trkpt>
   <trkpt lat="68.084269" lon="13.107442"><ele>340.2</ele></trkpt>
   <trkpt lat="68.084274" lon="13.107384"><ele>340.6</ele></trkpt>
   <trkpt lat="68.084299" lon="13.107273"><ele>341.4</ele></trkpt>
   <trkpt lat="68.084301" lon="13.107248"><ele>341.6</ele></trkpt>
   <trkpt lat="68.084309" lon="13.107210"><ele>341.8</ele></trkpt>
   <trkpt lat="68.084311" lon="13.107094"><ele>342.8</ele></trkpt>
   <trkpt lat="68.084314" lon="13.106885"><ele>343.6</ele></trkpt>
   <trkpt lat="68.084316" lon="13.106834"><ele>344.0</ele></trkpt>
   <trkpt lat="68.084330" lon="13.106690"><ele>345.0</ele></trkpt>
   <trkpt lat="68.084328" lon="13.106613"><ele>345.4</ele></trkpt>
   <trkpt lat="68.084333" lon="13.106523"><ele>346.0</ele></trkpt>
   <trkpt lat="68.084327" lon="13.106379"><ele>347.0</ele></trkpt>
   <trkpt lat="68.084332" lon="13.106352"><ele>347.0</ele></trkpt>
   <trkpt lat="68.084351" lon="13.106257"><ele>348.0</ele></trkpt>
   <trkpt lat="68.084363" lon="13.106175"><ele>349.2</ele></trkpt>
   <trkpt lat="68.084360" lon="13.106135"><ele>349.6</ele></trkpt>
   <trkpt lat="68.084359" lon="13.106088"><ele>350.6</ele></trkpt>
   <trkpt lat="68.084370" lon="13.106039"><ele>351.0</ele></trkpt>
   <trkpt lat="68.084372" lon="13.105883"><ele>351.4</ele></trkpt>
   <trkpt lat="68.084371" lon="13.105821"><ele>351.6</ele></trkpt>
   <trkpt lat="68.084377" lon="13.105646"><ele>352.0</ele></trkpt>
   <trkpt lat="68.084387" lon="13.105562"><ele>352.6</ele></trkpt>
   <trkpt lat="68.084410" lon="13.105392"><ele>353.8</ele></trkpt>
   <trkpt lat="68.084423" lon="13.105273"><ele>354.8</ele></trkpt>
   <trkpt lat="68.084425" lon="13.105244"><ele>354.8</ele></trkpt>
   <trkpt lat="68.084452" lon="13.105114"><ele>356.0</ele></trkpt>
   <trkpt lat="68.084465" lon="13.105061"><ele>356.6</ele></trkpt>
   <trkpt lat="68.084481" lon="13.105002"><ele>357.2</ele></trkpt>
   <trkpt lat="68.084502" lon="13.104890"><ele>358.2</ele></trkpt>
   <trkpt lat="68.084506" lon="13.104828"><ele>358.6</ele></trkpt>
   <trkpt lat="68.084520" lon="13.104726"><ele>359.4</ele></trkpt>
   <trkpt lat="68.084563" lon="13.104666"><ele>360.8</ele></trkpt>
   <trkpt lat="68.084584" lon="13.104622"><ele>361.8</ele></trkpt>
   <trkpt lat="68.084600" lon="13.104569"><ele>362.4</ele></trkpt>
   <trkpt lat="68.084609" lon="13.104482"><ele>362.8</ele></trkpt>
   <trkpt lat="68.084620" lon="13.104415"><ele>363.2</ele></trkpt>
   <trkpt lat="68.084636" lon="13.104362"><ele>363.8</ele></trkpt>
   <trkpt lat="68.084661" lon="13.104246"><ele>364.8</ele></trkpt>
   <trkpt lat="68.084668" lon="13.104232"><ele>364.8</ele></trkpt>
   <trkpt lat="68.084688" lon="13.104175"><ele>365.8</ele></trkpt>
   <trkpt lat="68.084698" lon="13.104132"><ele>366.2</ele></trkpt>
   <trkpt lat="68.084712" lon="13.104052"><ele>367.0</ele></trkpt>
   <trkpt lat="68.084723" lon="13.103947"><ele>368.0</ele></trkpt>
   <trkpt lat="68.084731" lon="13.103922"><ele>368.2</ele></trkpt>
   <trkpt lat="68.084745" lon="13.103892"><ele>368.6</ele></trkpt>
   <trkpt lat="68.084756" lon="13.103843"><ele>369.2</ele></trkpt>
   <trkpt lat="68.084769" lon="13.103761"><ele>370.2</ele></trkpt>
   <trkpt lat="68.084768" lon="13.103661"><ele>371.0</ele></trkpt>
   <trkpt lat="68.084765" lon="13.103601"><ele>371.4</ele></trkpt>
   <trkpt lat="68.084760" lon="13.103466"><ele>372.0</ele></trkpt>
   <trkpt lat="68.084763" lon="13.103411"><ele>372.4</ele></trkpt>
   <trkpt lat="68.084768" lon="13.103249"><ele>373.2</ele></trkpt>
   <trkpt lat="68.084781" lon="13.103191"><ele>373.6</ele></trkpt>
   <trkpt lat="68.084794" lon="13.103109"><ele>374.0</ele></trkpt>
   <trkpt lat="68.084802" lon="13.103018"><ele>374.6</ele></trkpt>
   <trkpt lat="68.084821" lon="13.102935"><ele>375.8</ele></trkpt>
   <trkpt lat="68.084831" lon="13.102898"><ele>376.4</ele></trkpt>
   <trkpt lat="68.084831" lon="13.102831"><ele>376.8</ele></trkpt>
   <trkpt lat="68.084819" lon="13.102686"><ele>378.0</ele></trkpt>
   <trkpt lat="68.084812" lon="13.102615"><ele>378.4</ele></trkpt>
   <trkpt lat="68.084803" lon="13.102473"><ele>379.0</ele></trkpt>
   <trkpt lat="68.084793" lon="13.102372"><ele>380.0</ele></trkpt>
   <trkpt lat="68.084792" lon="13.102341"><ele>380.2</ele></trkpt>
   <trkpt lat="68.084784" lon="13.102165"><ele>381.2</ele></trkpt>
   <trkpt lat="68.084781" lon="13.102128"><ele>381.2</ele></trkpt>
   <trkpt lat="68.084783" lon="13.101971"><ele>382.0</ele></trkpt>
   <trkpt lat="68.084786" lon="13.101919"><ele>382.6</ele></trkpt>
   <trkpt lat="68.084788" lon="13.101742"><ele>383.4</ele></trkpt>
   <trkpt lat="68.084791" lon="13.101707"><ele>383.8</ele></trkpt>
   <trkpt lat="68.084793" lon="13.101671"><ele>384.0</ele></trkpt>
   <trkpt lat="68.084795" lon="13.101497"><ele>385.0</ele></trkpt>
   <trkpt lat="68.084783" lon="13.101334"><ele>385.4</ele></trkpt>
   <trkpt lat="68.084785" lon="13.101297"><ele>385.6</ele></trkpt>
   <trkpt lat="68.084800" lon="13.101243"><ele>386.2</ele></trkpt>
   <trkpt lat="68.084816" lon="13.101160"><ele>387.0</ele></trkpt>
   <trkpt lat="68.084821" lon="13.101137"><ele>387.2</ele></trkpt>
   <trkpt lat="68.084836" lon="13.101036"><ele>388.6</ele></trkpt>
   <trkpt lat="68.084844" lon="13.100963"><ele>389.4</ele></trkpt>
   <trkpt lat="68.084844" lon="13.100930"><ele>389.6</ele></trkpt>
   <trkpt lat="68.084862" lon="13.100758"><ele>390.6</ele></trkpt>
   <trkpt lat="68.084863" lon="13.100729"><ele>390.8</ele></trkpt>
   <trkpt lat="68.084862" lon="13.100646"><ele>391.4</ele></trkpt>
   <trkpt lat="68.084866" lon="13.100596"><ele>392.0</ele></trkpt>
   <trkpt lat="68.084883" lon="13.100419"><ele>393.2</ele></trkpt>
   <trkpt lat="68.084902" lon="13.100278"><ele>394.4</ele></trkpt>
   <trkpt lat="68.084911" lon="13.100157"><ele>395.4</ele></trkpt>
   <trkpt lat="68.084912" lon="13.100135"><ele>395.6</ele></trkpt>
   <trkpt lat="68.084919" lon="13.100067"><ele>396.4</ele></trkpt>
   <trkpt lat="68.084927" lon="13.100073"><ele>396.6</ele></trkpt>
   <trkpt lat="68.084941" lon="13.100069"><ele>397.2</ele></trkpt>
   <trkpt lat="68.084956" lon="13.100065"><ele>397.8</ele></trkpt>
   <trkpt lat="68.084987" lon="13.100036"><ele>398.8</ele></trkpt>
   <trkpt lat="68.084996" lon="13.100035"><ele>399.0</ele></trkpt>
   <trkpt lat="68.085003" lon="13.100026"><ele>399.4</ele></trkpt>
   <trkpt lat="68.085010" lon="13.099994"><ele>400.0</ele></trkpt>
   <trkpt lat="68.085035" lon="13.099955"><ele>401.0</ele></trkpt>
   <trkpt lat="68.085064" lon="13.099940"><ele>402.2</ele></trkpt>
   <trkpt lat="68.085093" lon="13.099901"><ele>403.4</ele></trkpt>
   <trkpt lat="68.085099" lon="13.099889"><ele>403.6</ele></trkpt>
   <trkpt lat="68.085116" lon="13.099847"><ele>404.4</ele></trkpt>
   <trkpt lat="68.085145" lon="13.099794"><ele>405.6</ele></trkpt>
   <trkpt lat="68.085172" lon="13.099785"><ele>406.2</ele></trkpt>
   <trkpt lat="68.085184" lon="13.099770"><ele>406.8</ele></trkpt>
   <trkpt lat="68.085215" lon="13.099789"><ele>407.8</ele></trkpt>
   <trkpt lat="68.085221" lon="13.099785"><ele>408.0</ele></trkpt>
   <trkpt lat="68.085253" lon="13.099765"><ele>409.2</ele></trkpt>
   <trkpt lat="68.085276" lon="13.099715"><ele>410.0</ele></trkpt>
   <trkpt lat="68.085284" lon="13.099702"><ele>410.4</ele></trkpt>
   <trkpt lat="68.085328" lon="13.099679"><ele>411.4</ele></trkpt>
   <trkpt lat="68.085337" lon="13.099682"><ele>411.8</ele></trkpt>
   <trkpt lat="68.085360" lon="13.099668"><ele>412.6</ele></trkpt>
   <trkpt lat="68.085383" lon="13.099633"><ele>413.6</ele></trkpt>
   <trkpt lat="68.085385" lon="13.099617"><ele>413.8</ele></trkpt>
   <trkpt lat="68.085393" lon="13.099602"><ele>414.6</ele></trkpt>
   <trkpt lat="68.085390" lon="13.099588"><ele>414.8</ele></trkpt>
   <trkpt lat="68.085392" lon="13.099586"><ele>415.0</ele></trkpt>
   <trkpt lat="68.085392" lon="13.099586"><ele>415.2</ele></trkpt>
   <trkpt lat="68.085392" lon="13.099586"><ele>416.0</ele></trkpt>
   <trkpt lat="68.085392" lon="13.099586"><ele>416.6</ele></trkpt>
   <trkpt lat="68.085407" lon="13.099552"><ele>417.0</ele></trkpt>
   <trkpt lat="68.085434" lon="13.099485"><ele>417.6</ele></trkpt>
   <trkpt lat="68.085443" lon="13.099458"><ele>417.8</ele></trkpt>
   <trkpt lat="68.085454" lon="13.099430"><ele>418.2</ele></trkpt>
   <trkpt lat="68.085501" lon="13.099340"><ele>419.2</ele></trkpt>
   <trkpt lat="68.085528" lon="13.099319"><ele>420.4</ele></trkpt>
   <trkpt lat="68.085569" lon="13.099295"><ele>421.6</ele></trkpt>
   <trkpt lat="68.085593" lon="13.099266"><ele>422.6</ele></trkpt>
   <trkpt lat="68.085600" lon="13.099268"><ele>422.8</ele></trkpt>
   <trkpt lat="68.085624" lon="13.099271"><ele>423.8</ele></trkpt>
   <trkpt lat="68.085670" lon="13.099250"><ele>424.8</ele></trkpt>
   <trkpt lat="68.085699" lon="13.099209"><ele>426.2</ele></trkpt>
   <trkpt lat="68.085724" lon="13.099198"><ele>427.4</ele></trkpt>
   <trkpt lat="68.085728" lon="13.099191"><ele>427.6</ele></trkpt>
   <trkpt lat="68.085737" lon="13.099132"><ele>428.4</ele></trkpt>
   <trkpt lat="68.085758" lon="13.099095"><ele>429.4</ele></trkpt>
   <trkpt lat="68.085765" lon="13.099094"><ele>429.8</ele></trkpt>
   <trkpt lat="68.085783" lon="13.099048"><ele>431.0</ele></trkpt>
   <trkpt lat="68.085787" lon="13.099035"><ele>431.0</ele></trkpt>
   <trkpt lat="68.085789" lon="13.099038"><ele>431.6</ele></trkpt>
   <trkpt lat="68.085789" lon="13.099048"><ele>431.6</ele></trkpt>
   <trkpt lat="68.085792" lon="13.099040"><ele>431.6</ele></trkpt>
   <trkpt lat="68.085792" lon="13.099040"><ele>431.6</ele></trkpt>
   <trkpt lat="68.085792" lon="13.099040"><ele>431.6</ele></trkpt>
   <trkpt lat="68.085792" lon="13.099040"><ele>431.6</ele></trkpt>
   <trkpt lat="68.085792" lon="13.099040"><ele>431.8</ele></trkpt>
   <trkpt lat="68.085792" lon="13.099040"><ele>432.0</ele></trkpt>
   <trkpt lat="68.085799" lon="13.098940"><ele>432.6</ele></trkpt>
   <trkpt lat="68.085801" lon="13.098904"><ele>432.8</ele></trkpt>
   <trkpt lat="68.085803" lon="13.098760"><ele>433.2</ele></trkpt>
   <trkpt lat="68.085805" lon="13.098744"><ele>433.6</ele></trkpt>
   <trkpt lat="68.085812" lon="13.098738"><ele>433.2</ele></trkpt>
   <trkpt lat="68.085816" lon="13.098735"><ele>433.2</ele></trkpt>
   <trkpt lat="68.085816" lon="13.098735"><ele>433.6</ele></trkpt>
   <trkpt lat="68.085816" lon="13.098735"><ele>433.6</ele></trkpt>
   <trkpt lat="68.085816" lon="13.098735"><ele>433.4</ele></trkpt>
   <trkpt lat="68.085816" lon="13.098737"><ele>433.8</ele></trkpt>
   <trkpt lat="68.085816" lon="13.098737"><ele>434.2</ele></trkpt>
   <trkpt lat="68.085867" lon="13.098710"><ele>435.6</ele></trkpt>
   <trkpt lat="68.085885" lon="13.098699"><ele>435.8</ele></trkpt>
   <trkpt lat="68.085943" lon="13.098652"><ele>436.6</ele></trkpt>
   <trkpt lat="68.085981" lon="13.098586"><ele>437.8</ele></trkpt>
   <trkpt lat="68.085998" lon="13.098518"><ele>438.8</ele></trkpt>
   <trkpt lat="68.086003" lon="13.098407"><ele>440.2</ele></trkpt>
   <trkpt lat="68.086005" lon="13.098335"><ele>440.6</ele></trkpt>
   <trkpt lat="68.086016" lon="13.098281"><ele>441.2</ele></trkpt>
   <trkpt lat="68.086030" lon="13.098230"><ele>442.0</ele></trkpt>
   <trkpt lat="68.086035" lon="13.098209"><ele>442.4</ele></trkpt>
   <trkpt lat="68.086043" lon="13.098168"><ele>443.2</ele></trkpt>
   <trkpt lat="68.086046" lon="13.098136"><ele>443.4</ele></trkpt>
   <trkpt lat="68.086045" lon="13.098083"><ele>444.0</ele></trkpt>
   <trkpt lat="68.086031" lon="13.098024"><ele>444.6</ele></trkpt>
   <trkpt lat="68.086029" lon="13.097991"><ele>445.2</ele></trkpt>
   <trkpt lat="68.086033" lon="13.097935"><ele>446.2</ele></trkpt>
   <trkpt lat="68.086034" lon="13.097905"><ele>446.6</ele></trkpt>
   <trkpt lat="68.086044" lon="13.097834"><ele>447.4</ele></trkpt>
   <trkpt lat="68.086066" lon="13.097785"><ele>448.4</ele></trkpt>
   <trkpt lat="68.086067" lon="13.097767"><ele>448.8</ele></trkpt>
   <trkpt lat="68.086068" lon="13.097749"><ele>449.2</ele></trkpt>
   <trkpt lat="68.086070" lon="13.097732"><ele>449.6</ele></trkpt>
   <trkpt lat="68.086071" lon="13.097703"><ele>450.2</ele></trkpt>
   <trkpt lat="68.086071" lon="13.097666"><ele>450.6</ele></trkpt>
   <trkpt lat="68.086063" lon="13.097656"><ele>451.8</ele></trkpt>
   <trkpt lat="68.086064" lon="13.097667"><ele>451.8</ele></trkpt>
   <trkpt lat="68.086070" lon="13.097643"><ele>451.4</ele></trkpt>
   <trkpt lat="68.086070" lon="13.097643"><ele>451.4</ele></trkpt>
   <trkpt lat="68.086070" lon="13.097643"><ele>451.4</ele></trkpt>
   <trkpt lat="68.086084" lon="13.097546"><ele>452.8</ele></trkpt>
   <trkpt lat="68.086090" lon="13.097534"><ele>452.8</ele></trkpt>
   <trkpt lat="68.086116" lon="13.097442"><ele>454.0</ele></trkpt>
   <trkpt lat="68.086137" lon="13.097365"><ele>455.0</ele></trkpt>
   <trkpt lat="68.086142" lon="13.097354"><ele>455.2</ele></trkpt>
   <trkpt lat="68.086151" lon="13.097326"><ele>456.4</ele></trkpt>
   <trkpt lat="68.086161" lon="13.097294"><ele>457.2</ele></trkpt>
   <trkpt lat="68.086168" lon="13.097271"><ele>457.6</ele></trkpt>
   <trkpt lat="68.086169" lon="13.097214"><ele>459.0</ele></trkpt>
   <trkpt lat="68.086174" lon="13.097201"><ele>459.4</ele></trkpt>
   <trkpt lat="68.086187" lon="13.097173"><ele>460.4</ele></trkpt>
   <trkpt lat="68.086194" lon="13.097138"><ele>461.2</ele></trkpt>
   <trkpt lat="68.086197" lon="13.097121"><ele>461.6</ele></trkpt>
   <trkpt lat="68.086201" lon="13.097088"><ele>462.2</ele></trkpt>
   <trkpt lat="68.086205" lon="13.097075"><ele>462.6</ele></trkpt>
   <trkpt lat="68.086205" lon="13.097004"><ele>463.6</ele></trkpt>
   <trkpt lat="68.086210" lon="13.096987"><ele>464.0</ele></trkpt>
   <trkpt lat="68.086229" lon="13.096975"><ele>464.8</ele></trkpt>
   <trkpt lat="68.086234" lon="13.096954"><ele>465.4</ele></trkpt>
   <trkpt lat="68.086246" lon="13.096932"><ele>466.2</ele></trkpt>
   <trkpt lat="68.086273" lon="13.096957"><ele>467.2</ele></trkpt>
   <trkpt lat="68.086285" lon="13.096889"><ele>468.2</ele></trkpt>
   <trkpt lat="68.086283" lon="13.096864"><ele>468.6</ele></trkpt>
   <trkpt lat="68.086285" lon="13.096793"><ele>469.4</ele></trkpt>
   <trkpt lat="68.086299" lon="13.096747"><ele>470.6</ele></trkpt>
   <trkpt lat="68.086339" lon="13.096676"><ele>471.8</ele></trkpt>
   <trkpt lat="68.086378" lon="13.096640"><ele>473.0</ele></trkpt>
   <trkpt lat="68.086414" lon="13.096566"><ele>474.0</ele></trkpt>
   <trkpt lat="68.086435" lon="13.096507"><ele>474.8</ele></trkpt>
   <trkpt lat="68.086450" lon="13.096474"><ele>475.2</ele></trkpt>
   <trkpt lat="68.086463" lon="13.096447"><ele>475.6</ele></trkpt>
   <trkpt lat="68.086487" lon="13.096389"><ele>476.4</ele></trkpt>
   <trkpt lat="68.086514" lon="13.096329"><ele>477.4</ele></trkpt>
   <trkpt lat="68.086543" lon="13.096309"><ele>478.6</ele></trkpt>
   <trkpt lat="68.086555" lon="13.096292"><ele>479.4</ele></trkpt>
   <trkpt lat="68.086567" lon="13.096266"><ele>479.8</ele></trkpt>
   <trkpt lat="68.086589" lon="13.096211"><ele>480.8</ele></trkpt>
   <trkpt lat="68.086600" lon="13.096195"><ele>481.4</ele></trkpt>
   <trkpt lat="68.086615" lon="13.096151"><ele>482.0</ele></trkpt>
   <trkpt lat="68.086621" lon="13.096087"><ele>482.8</ele></trkpt>
   <trkpt lat="68.086625" lon="13.096062"><ele>483.0</ele></trkpt>
   <trkpt lat="68.086628" lon="13.096043"><ele>483.2</ele></trkpt>
   <trkpt lat="68.086640" lon="13.095980"><ele>484.2</ele></trkpt>
   <trkpt lat="68.086648" lon="13.095852"><ele>485.2</ele></trkpt>
   <trkpt lat="68.086648" lon="13.095795"><ele>485.6</ele></trkpt>
   <trkpt lat="68.086655" lon="13.095709"><ele>486.6</ele></trkpt>
   <trkpt lat="68.086661" lon="13.095673"><ele>487.0</ele></trkpt>
   <trkpt lat="68.086663" lon="13.095633"><ele>487.8</ele></trkpt>
   <trkpt lat="68.086664" lon="13.095607"><ele>488.2</ele></trkpt>
   <trkpt lat="68.086671" lon="13.095503"><ele>489.0</ele></trkpt>
   <trkpt lat="68.086679" lon="13.095327"><ele>490.2</ele></trkpt>
   <trkpt lat="68.086678" lon="13.095293"><ele>490.2</ele></trkpt>
   <trkpt lat="68.086672" lon="13.095219"><ele>491.2</ele></trkpt>
   <trkpt lat="68.086673" lon="13.095139"><ele>492.2</ele></trkpt>
   <trkpt lat="68.086672" lon="13.095112"><ele>492.6</ele></trkpt>
   <trkpt lat="68.086663" lon="13.094970"><ele>493.6</ele></trkpt>
   <trkpt lat="68.086652" lon="13.094832"><ele>494.6</ele></trkpt>
   <trkpt lat="68.086654" lon="13.094677"><ele>495.6</ele></trkpt>
   <trkpt lat="68.086663" lon="13.094591"><ele>496.6</ele></trkpt>
   <trkpt lat="68.086667" lon="13.094572"><ele>496.6</ele></trkpt>
   <trkpt lat="68.086676" lon="13.094516"><ele>497.0</ele></trkpt>
   <trkpt lat="68.086685" lon="13.094440"><ele>497.8</ele></trkpt>
   <trkpt lat="68.086695" lon="13.094359"><ele>498.6</ele></trkpt>
   <trkpt lat="68.086695" lon="13.094337"><ele>499.0</ele></trkpt>
   <trkpt lat="68.086696" lon="13.094219"><ele>500.0</ele></trkpt>
   <trkpt lat="68.086699" lon="13.094195"><ele>500.2</ele></trkpt>
   <trkpt lat="68.086715" lon="13.094064"><ele>501.0</ele></trkpt>
   <trkpt lat="68.086728" lon="13.093951"><ele>502.2</ele></trkpt>
   <trkpt lat="68.086741" lon="13.093882"><ele>502.8</ele></trkpt>
   <trkpt lat="68.086748" lon="13.093859"><ele>503.0</ele></trkpt>
   <trkpt lat="68.086753" lon="13.093839"><ele>503.2</ele></trkpt>
   <trkpt lat="68.086772" lon="13.093723"><ele>504.4</ele></trkpt>
   <trkpt lat="68.086791" lon="13.093609"><ele>505.4</ele></trkpt>
   <trkpt lat="68.086808" lon="13.093517"><ele>506.2</ele></trkpt>
   <trkpt lat="68.086815" lon="13.093444"><ele>506.6</ele></trkpt>
   <trkpt lat="68.086823" lon="13.093268"><ele>507.4</ele></trkpt>
   <trkpt lat="68.086827" lon="13.093245"><ele>507.6</ele></trkpt>
   <trkpt lat="68.086836" lon="13.093116"><ele>508.8</ele></trkpt>
   <trkpt lat="68.086842" lon="13.093038"><ele>509.6</ele></trkpt>
   <trkpt lat="68.086850" lon="13.092969"><ele>510.0</ele></trkpt>
   <trkpt lat="68.086856" lon="13.092803"><ele>511.0</ele></trkpt>
   <trkpt lat="68.086858" lon="13.092781"><ele>511.0</ele></trkpt>
   <trkpt lat="68.086861" lon="13.092764"><ele>511.2</ele></trkpt>
   <trkpt lat="68.086875" lon="13.092614"><ele>512.2</ele></trkpt>
   <trkpt lat="68.086902" lon="13.092525"><ele>512.8</ele></trkpt>
   <trkpt lat="68.086911" lon="13.092476"><ele>513.2</ele></trkpt>
   <trkpt lat="68.086924" lon="13.092314"><ele>514.2</ele></trkpt>
   <trkpt lat="68.086935" lon="13.092257"><ele>514.4</ele></trkpt>
   <trkpt lat="68.086960" lon="13.092196"><ele>514.8</ele></trkpt>
   <trkpt lat="68.086998" lon="13.092147"><ele>515.4</ele></trkpt>
   <trkpt lat="68.087038" lon="13.092080"><ele>516.6</ele></trkpt>
   <trkpt lat="68.087053" lon="13.092034"><ele>517.4</ele></trkpt>
  </trkseg>
 </trk>
</gpx>
