<?xml version="1.0" encoding="UTF-8"?>
<gpx version="1.1" creator="HPGT flysteder" xmlns="http://www.topografix.com/GPX/1/1">
 <trk>
  <name>Ryten – fra landingen i Kvalvika til parkeringen</name>
  <trkseg>
   <trkpt lat="68.071753" lon="13.083026"><ele>5.1</ele></trkpt>
   <trkpt lat="68.072015" lon="13.082430"><ele>2.7</ele></trkpt>
   <trkpt lat="68.072058" lon="13.082327"><ele>2.6</ele></trkpt>
   <trkpt lat="68.072110" lon="13.082255"><ele>2.4</ele></trkpt>
   <trkpt lat="68.072139" lon="13.082147"><ele>2.2</ele></trkpt>
   <trkpt lat="68.072174" lon="13.082038"><ele>2.1</ele></trkpt>
   <trkpt lat="68.072222" lon="13.081887"><ele>1.9</ele></trkpt>
   <trkpt lat="68.072284" lon="13.081806"><ele>1.6</ele></trkpt>
   <trkpt lat="68.072331" lon="13.081773"><ele>1.5</ele></trkpt>
   <trkpt lat="68.072389" lon="13.081716"><ele>1.3</ele></trkpt>
   <trkpt lat="68.072444" lon="13.081611"><ele>1.6</ele></trkpt>
   <trkpt lat="68.072504" lon="13.081487"><ele>1.7</ele></trkpt>
   <trkpt lat="68.072586" lon="13.081375"><ele>1.4</ele></trkpt>
   <trkpt lat="68.072656" lon="13.081296"><ele>0.3</ele></trkpt>
   <trkpt lat="68.072695" lon="13.081236"><ele>0.0</ele></trkpt>
   <trkpt lat="68.072747" lon="13.081165"><ele>0.0</ele></trkpt>
   <trkpt lat="68.072748" lon="13.081287"><ele>0.0</ele></trkpt>
   <trkpt lat="68.072782" lon="13.081458"><ele>0.0</ele></trkpt>
   <trkpt lat="68.072845" lon="13.081442"><ele>0.0</ele></trkpt>
   <trkpt lat="68.072817" lon="13.081621"><ele>0.0</ele></trkpt>
   <trkpt lat="68.072845" lon="13.081919"><ele>0.0</ele></trkpt>
   <trkpt lat="68.072860" lon="13.082079"><ele>0.0</ele></trkpt>
   <trkpt lat="68.072891" lon="13.082229"><ele>0.0</ele></trkpt>
   <trkpt lat="68.072929" lon="13.082460"><ele>0.0</ele></trkpt>
   <trkpt lat="68.072969" lon="13.082645"><ele>0.0</ele></trkpt>
   <trkpt lat="68.073006" lon="13.082786"><ele>0.0</ele></trkpt>
   <trkpt lat="68.073036" lon="13.082909"><ele>0.0</ele></trkpt>
   <trkpt lat="68.073087" lon="13.083085"><ele>0.0</ele></trkpt>
   <trkpt lat="68.073140" lon="13.083276"><ele>0.0</ele></trkpt>
   <trkpt lat="68.073171" lon="13.083455"><ele>0.0</ele></trkpt>
   <trkpt lat="68.073203" lon="13.083578"><ele>0.0</ele></trkpt>
   <trkpt lat="68.073211" lon="13.083736"><ele>0.0</ele></trkpt>
   <trkpt lat="68.073260" lon="13.083914"><ele>0.0</ele></trkpt>
   <trkpt lat="68.073303" lon="13.084012"><ele>0.0</ele></trkpt>
   <trkpt lat="68.073352" lon="13.084138"><ele>0.0</ele></trkpt>
   <trkpt lat="68.073416" lon="13.084317"><ele>0.0</ele></trkpt>
   <trkpt lat="68.073462" lon="13.084443"><ele>0.0</ele></trkpt>
   <trkpt lat="68.073486" lon="13.084545"><ele>0.0</ele></trkpt>
   <trkpt lat="68.073530" lon="13.084712"><ele>0.0</ele></trkpt>
   <trkpt lat="68.073574" lon="13.084928"><ele>0.0</ele></trkpt>
   <trkpt lat="68.073595" lon="13.085070"><ele>0.0</ele></trkpt>
   <trkpt lat="68.073644" lon="13.085223"><ele>0.0</ele></trkpt>
   <trkpt lat="68.073700" lon="13.085269"><ele>0.0</ele></trkpt>
   <trkpt lat="68.073721" lon="13.085376"><ele>0.0</ele></trkpt>
   <trkpt lat="68.073717" lon="13.085532"><ele>0.6</ele></trkpt>
   <trkpt lat="68.073770" lon="13.085514"><ele>0.0</ele></trkpt>
   <trkpt lat="68.073716" lon="13.085566"><ele>1.2</ele></trkpt>
   <trkpt lat="68.073711" lon="13.085700"><ele>3.4</ele></trkpt>
   <trkpt lat="68.073683" lon="13.085830"><ele>4.4</ele></trkpt>
   <trkpt lat="68.073697" lon="13.085949"><ele>5.5</ele></trkpt>
   <trkpt lat="68.073749" lon="13.086076"><ele>6.7</ele></trkpt>
   <trkpt lat="68.073805" lon="13.086153"><ele>7.0</ele></trkpt>
   <trkpt lat="68.073859" lon="13.086260"><ele>7.7</ele></trkpt>
   <trkpt lat="68.073894" lon="13.086396"><ele>9.8</ele></trkpt>
   <trkpt lat="68.073938" lon="13.086485"><ele>10.2</ele></trkpt>
   <trkpt lat="68.073979" lon="13.086552"><ele>10.8</ele></trkpt>
   <trkpt lat="68.074030" lon="13.086578"><ele>11.0</ele></trkpt>
   <trkpt lat="68.074089" lon="13.086613"><ele>10.0</ele></trkpt>
   <trkpt lat="68.074155" lon="13.086750"><ele>10.7</ele></trkpt>
   <trkpt lat="68.074243" lon="13.086870"><ele>10.2</ele></trkpt>
   <trkpt lat="68.074285" lon="13.086954"><ele>9.3</ele></trkpt>
   <trkpt lat="68.074336" lon="13.087137"><ele>10.9</ele></trkpt>
   <trkpt lat="68.074307" lon="13.087233"><ele>13.7</ele></trkpt>
   <trkpt lat="68.074268" lon="13.087323"><ele>17.0</ele></trkpt>
   <trkpt lat="68.074250" lon="13.087454"><ele>21.7</ele></trkpt>
   <trkpt lat="68.074267" lon="13.087567"><ele>24.5</ele></trkpt>
   <trkpt lat="68.074291" lon="13.087676"><ele>26.0</ele></trkpt>
   <trkpt lat="68.074328" lon="13.087748"><ele>25.6</ele></trkpt>
   <trkpt lat="68.074308" lon="13.087636"><ele>23.1</ele></trkpt>
   <trkpt lat="68.074298" lon="13.087466"><ele>18.5</ele></trkpt>
   <trkpt lat="68.074258" lon="13.087377"><ele>18.8</ele></trkpt>
   <trkpt lat="68.074213" lon="13.087381"><ele>21.8</ele></trkpt>
   <trkpt lat="68.074158" lon="13.087447"><ele>25.6</ele></trkpt>
   <trkpt lat="68.074113" lon="13.087434"><ele>27.0</ele></trkpt>
   <trkpt lat="68.074141" lon="13.087543"><ele>29.7</ele></trkpt>
   <trkpt lat="68.074191" lon="13.087600"><ele>30.4</ele></trkpt>
   <trkpt lat="68.074214" lon="13.087733"><ele>32.0</ele></trkpt>
   <trkpt lat="68.074256" lon="13.087928"><ele>32.6</ele></trkpt>
   <trkpt lat="68.074310" lon="13.088070"><ele>33.7</ele></trkpt>
   <trkpt lat="68.074360" lon="13.088143"><ele>32.6</ele></trkpt>
   <trkpt lat="68.074375" lon="13.088281"><ele>34.3</ele></trkpt>
   <trkpt lat="68.074368" lon="13.088410"><ele>37.9</ele></trkpt>
   <trkpt lat="68.074359" lon="13.088533"><ele>41.0</ele></trkpt>
   <trkpt lat="68.074377" lon="13.088658"><ele>40.6</ele></trkpt>
   <trkpt lat="68.074394" lon="13.088783"><ele>42.8</ele></trkpt>
   <trkpt lat="68.074394" lon="13.088946"><ele>43.9</ele></trkpt>
   <trkpt lat="68.074419" lon="13.089051"><ele>41.7</ele></trkpt>
   <trkpt lat="68.074444" lon="13.089173"><ele>39.1</ele></trkpt>
   <trkpt lat="68.074484" lon="13.089242"><ele>36.3</ele></trkpt>
   <trkpt lat="68.074541" lon="13.089301"><ele>33.0</ele></trkpt>
   <trkpt lat="68.074590" lon="13.089310"><ele>31.0</ele></trkpt>
   <trkpt lat="68.074648" lon="13.089353"><ele>29.6</ele></trkpt>
   <trkpt lat="68.074719" lon="13.089317"><ele>27.9</ele></trkpt>
   <trkpt lat="68.074790" lon="13.089278"><ele>25.6</ele></trkpt>
   <trkpt lat="68.074848" lon="13.089324"><ele>23.5</ele></trkpt>
   <trkpt lat="68.074901" lon="13.089283"><ele>19.4</ele></trkpt>
   <trkpt lat="68.074944" lon="13.089346"><ele>16.1</ele></trkpt>
   <trkpt lat="68.074994" lon="13.089279"><ele>12.6</ele></trkpt>
   <trkpt lat="68.075042" lon="13.089338"><ele>11.4</ele></trkpt>
   <trkpt lat="68.075074" lon="13.089433"><ele>10.0</ele></trkpt>
   <trkpt lat="68.075110" lon="13.089529"><ele>9.8</ele></trkpt>
   <trkpt lat="68.075154" lon="13.089591"><ele>8.9</ele></trkpt>
   <trkpt lat="68.075172" lon="13.089734"><ele>7.9</ele></trkpt>
   <trkpt lat="68.075171" lon="13.089869"><ele>10.0</ele></trkpt>
   <trkpt lat="68.075166" lon="13.089993"><ele>12.2</ele></trkpt>
   <trkpt lat="68.075178" lon="13.090129"><ele>12.2</ele></trkpt>
   <trkpt lat="68.075210" lon="13.090314"><ele>13.3</ele></trkpt>
   <trkpt lat="68.075221" lon="13.090433"><ele>14.1</ele></trkpt>
   <trkpt lat="68.075220" lon="13.090556"><ele>14.1</ele></trkpt>
   <trkpt lat="68.075229" lon="13.090674"><ele>12.7</ele></trkpt>
   <trkpt lat="68.075250" lon="13.090885"><ele>12.2</ele></trkpt>
   <trkpt lat="68.075279" lon="13.091057"><ele>12.4</ele></trkpt>
   <trkpt lat="68.075319" lon="13.091239"><ele>14.3</ele></trkpt>
   <trkpt lat="68.075351" lon="13.091385"><ele>13.6</ele></trkpt>
   <trkpt lat="68.075359" lon="13.091540"><ele>14.2</ele></trkpt>
   <trkpt lat="68.075369" lon="13.091665"><ele>12.4</ele></trkpt>
   <trkpt lat="68.075355" lon="13.091818"><ele>11.4</ele></trkpt>
   <trkpt lat="68.075367" lon="13.091938"><ele>11.2</ele></trkpt>
   <trkpt lat="68.075386" lon="13.092090"><ele>11.1</ele></trkpt>
   <trkpt lat="68.075413" lon="13.092251"><ele>11.5</ele></trkpt>
   <trkpt lat="68.075468" lon="13.092511"><ele>9.8</ele></trkpt>
   <trkpt lat="68.075506" lon="13.092640"><ele>8.3</ele></trkpt>
   <trkpt lat="68.075544" lon="13.092714"><ele>6.9</ele></trkpt>
   <trkpt lat="68.075582" lon="13.092859"><ele>5.5</ele></trkpt>
   <trkpt lat="68.075629" lon="13.092905"><ele>3.3</ele></trkpt>
   <trkpt lat="68.075670" lon="13.092971"><ele>2.7</ele></trkpt>
   <trkpt lat="68.075744" lon="13.093093"><ele>1.6</ele></trkpt>
   <trkpt lat="68.075800" lon="13.093198"><ele>1.5</ele></trkpt>
   <trkpt lat="68.075872" lon="13.093140"><ele>1.7</ele></trkpt>
   <trkpt lat="68.075954" lon="13.093009"><ele>1.9</ele></trkpt>
   <trkpt lat="68.076044" lon="13.093123"><ele>1.8</ele></trkpt>
   <trkpt lat="68.076083" lon="13.093202"><ele>1.8</ele></trkpt>
   <trkpt lat="68.076136" lon="13.093314"><ele>1.8</ele></trkpt>
   <trkpt lat="68.076190" lon="13.093477"><ele>1.9</ele></trkpt>
   <trkpt lat="68.076240" lon="13.093528"><ele>1.8</ele></trkpt>
   <trkpt lat="68.076284" lon="13.093622"><ele>1.8</ele></trkpt>
   <trkpt lat="68.076326" lon="13.093714"><ele>1.8</ele></trkpt>
   <trkpt lat="68.076369" lon="13.093805"><ele>1.8</ele></trkpt>
   <trkpt lat="68.076404" lon="13.093970"><ele>1.7</ele></trkpt>
   <trkpt lat="68.076451" lon="13.094088"><ele>1.6</ele></trkpt>
   <trkpt lat="68.076534" lon="13.094185"><ele>1.7</ele></trkpt>
   <trkpt lat="68.076609" lon="13.094290"><ele>1.6</ele></trkpt>
   <trkpt lat="68.076688" lon="13.094406"><ele>1.6</ele></trkpt>
   <trkpt lat="68.076736" lon="13.094457"><ele>1.6</ele></trkpt>
   <trkpt lat="68.076836" lon="13.094590"><ele>1.6</ele></trkpt>
   <trkpt lat="68.076879" lon="13.094671"><ele>1.6</ele></trkpt>
   <trkpt lat="68.076928" lon="13.094778"><ele>1.5</ele></trkpt>
   <trkpt lat="68.076978" lon="13.094879"><ele>1.5</ele></trkpt>
   <trkpt lat="68.077028" lon="13.094991"><ele>1.4</ele></trkpt>
   <trkpt lat="68.077084" lon="13.095118"><ele>1.4</ele></trkpt>
   <trkpt lat="68.077170" lon="13.095297"><ele>1.4</ele></trkpt>
   <trkpt lat="68.077233" lon="13.095433"><ele>1.4</ele></trkpt>
   <trkpt lat="68.077262" lon="13.095540"><ele>1.3</ele></trkpt>
   <trkpt lat="68.077312" lon="13.095655"><ele>1.3</ele></trkpt>
   <trkpt lat="68.077369" lon="13.095759"><ele>1.3</ele></trkpt>
   <trkpt lat="68.077405" lon="13.095883"><ele>1.2</ele></trkpt>
   <trkpt lat="68.077437" lon="13.096019"><ele>1.1</ele></trkpt>
   <trkpt lat="68.077488" lon="13.096152"><ele>1.1</ele></trkpt>
   <trkpt lat="68.077547" lon="13.096262"><ele>1.1</ele></trkpt>
   <trkpt lat="68.077636" lon="13.096448"><ele>1.2</ele></trkpt>
   <trkpt lat="68.077680" lon="13.096521"><ele>1.2</ele></trkpt>
   <trkpt lat="68.077741" lon="13.096637"><ele>1.2</ele></trkpt>
   <trkpt lat="68.077799" lon="13.096718"><ele>1.2</ele></trkpt>
   <trkpt lat="68.077871" lon="13.096824"><ele>1.2</ele></trkpt>
   <trkpt lat="68.077913" lon="13.096921"><ele>1.2</ele></trkpt>
   <trkpt lat="68.077971" lon="13.097042"><ele>1.2</ele></trkpt>
   <trkpt lat="68.078061" lon="13.097228"><ele>1.3</ele></trkpt>
   <trkpt lat="68.078117" lon="13.097369"><ele>1.3</ele></trkpt>
   <trkpt lat="68.078167" lon="13.097366"><ele>1.3</ele></trkpt>
   <trkpt lat="68.078218" lon="13.097518"><ele>1.2</ele></trkpt>
   <trkpt lat="68.078273" lon="13.097685"><ele>1.2</ele></trkpt>
   <trkpt lat="68.078290" lon="13.097799"><ele>1.2</ele></trkpt>
   <trkpt lat="68.078294" lon="13.097957"><ele>1.1</ele></trkpt>
   <trkpt lat="68.078327" lon="13.098059"><ele>1.1</ele></trkpt>
   <trkpt lat="68.078333" lon="13.098205"><ele>1.0</ele></trkpt>
   <trkpt lat="68.078378" lon="13.098306"><ele>1.4</ele></trkpt>
   <trkpt lat="68.078428" lon="13.098389"><ele>2.2</ele></trkpt>
   <trkpt lat="68.078469" lon="13.098458"><ele>3.2</ele></trkpt>
   <trkpt lat="68.078513" lon="13.098563"><ele>4.4</ele></trkpt>
   <trkpt lat="68.078544" lon="13.098714"><ele>6.8</ele></trkpt>
   <trkpt lat="68.078555" lon="13.098833"><ele>7.9</ele></trkpt>
   <trkpt lat="68.078585" lon="13.099067"><ele>9.4</ele></trkpt>
   <trkpt lat="68.078654" lon="13.099182"><ele>11.6</ele></trkpt>
   <trkpt lat="68.078699" lon="13.099259"><ele>14.3</ele></trkpt>
   <trkpt lat="68.078757" lon="13.099334"><ele>16.4</ele></trkpt>
   <trkpt lat="68.078817" lon="13.099446"><ele>18.6</ele></trkpt>
   <trkpt lat="68.078901" lon="13.099430"><ele>21.5</ele></trkpt>
   <trkpt lat="68.078949" lon="13.099402"><ele>23.3</ele></trkpt>
   <trkpt lat="68.079006" lon="13.099372"><ele>25.4</ele></trkpt>
   <trkpt lat="68.079047" lon="13.099312"><ele>25.9</ele></trkpt>
   <trkpt lat="68.079094" lon="13.099381"><ele>27.9</ele></trkpt>
   <trkpt lat="68.079147" lon="13.099456"><ele>29.7</ele></trkpt>
   <trkpt lat="68.079197" lon="13.099445"><ele>32.1</ele></trkpt>
   <trkpt lat="68.079265" lon="13.099500"><ele>34.8</ele></trkpt>
   <trkpt lat="68.079303" lon="13.099419"><ele>36.8</ele></trkpt>
   <trkpt lat="68.079347" lon="13.099456"><ele>38.9</ele></trkpt>
   <trkpt lat="68.079386" lon="13.099364"><ele>41.0</ele></trkpt>
   <trkpt lat="68.079403" lon="13.099238"><ele>41.7</ele></trkpt>
   <trkpt lat="68.079455" lon="13.099282"><ele>44.5</ele></trkpt>
   <trkpt lat="68.079513" lon="13.099354"><ele>47.1</ele></trkpt>
   <trkpt lat="68.079551" lon="13.099430"><ele>49.1</ele></trkpt>
   <trkpt lat="68.079596" lon="13.099436"><ele>51.6</ele></trkpt>
   <trkpt lat="68.079635" lon="13.099346"><ele>54.5</ele></trkpt>
   <trkpt lat="68.079654" lon="13.099176"><ele>55.3</ele></trkpt>
   <trkpt lat="68.079697" lon="13.099267"><ele>58.2</ele></trkpt>
   <trkpt lat="68.079739" lon="13.099344"><ele>59.8</ele></trkpt>
   <trkpt lat="68.079782" lon="13.099439"><ele>61.8</ele></trkpt>
   <trkpt lat="68.079831" lon="13.099530"><ele>63.8</ele></trkpt>
   <trkpt lat="68.079876" lon="13.099540"><ele>66.0</ele></trkpt>
   <trkpt lat="68.079924" lon="13.099542"><ele>68.7</ele></trkpt>
   <trkpt lat="68.079971" lon="13.099559"><ele>71.3</ele></trkpt>
   <trkpt lat="68.080018" lon="13.099641"><ele>74.2</ele></trkpt>
   <trkpt lat="68.080063" lon="13.099515"><ele>76.5</ele></trkpt>
   <trkpt lat="68.080114" lon="13.099548"><ele>79.6</ele></trkpt>
   <trkpt lat="68.080160" lon="13.099620"><ele>82.7</ele></trkpt>
   <trkpt lat="68.080214" lon="13.099614"><ele>85.8</ele></trkpt>
   <trkpt lat="68.080246" lon="13.099701"><ele>87.7</ele></trkpt>
   <trkpt lat="68.080291" lon="13.099711"><ele>90.3</ele></trkpt>
   <trkpt lat="68.080339" lon="13.099733"><ele>93.5</ele></trkpt>
   <trkpt lat="68.080387" lon="13.099831"><ele>96.3</ele></trkpt>
   <trkpt lat="68.080427" lon="13.099889"><ele>98.3</ele></trkpt>
   <trkpt lat="68.080484" lon="13.099928"><ele>102.4</ele></trkpt>
   <trkpt lat="68.080527" lon="13.099859"><ele>105.2</ele></trkpt>
   <trkpt lat="68.080562" lon="13.099945"><ele>107.0</ele></trkpt>
   <trkpt lat="68.080617" lon="13.099975"><ele>110.3</ele></trkpt>
   <trkpt lat="68.080653" lon="13.100074"><ele>112.0</ele></trkpt>
   <trkpt lat="68.080695" lon="13.100133"><ele>114.2</ele></trkpt>
   <trkpt lat="68.080746" lon="13.100212"><ele>117.5</ele></trkpt>
   <trkpt lat="68.080777" lon="13.100306"><ele>118.8</ele></trkpt>
   <trkpt lat="68.080827" lon="13.100442"><ele>120.8</ele></trkpt>
   <trkpt lat="68.080880" lon="13.100513"><ele>123.7</ele></trkpt>
   <trkpt lat="68.080925" lon="13.100659"><ele>125.8</ele></trkpt>
   <trkpt lat="68.080934" lon="13.100786"><ele>125.7</ele></trkpt>
   <trkpt lat="68.080965" lon="13.100899"><ele>126.5</ele></trkpt>
   <trkpt lat="68.081009" lon="13.100991"><ele>128.9</ele></trkpt>
   <trkpt lat="68.081056" lon="13.101063"><ele>131.6</ele></trkpt>
   <trkpt lat="68.081103" lon="13.101211"><ele>133.8</ele></trkpt>
   <trkpt lat="68.081142" lon="13.101307"><ele>135.6</ele></trkpt>
   <trkpt lat="68.081188" lon="13.101436"><ele>138.0</ele></trkpt>
   <trkpt lat="68.081232" lon="13.101571"><ele>140.3</ele></trkpt>
   <trkpt lat="68.081290" lon="13.101607"><ele>143.0</ele></trkpt>
   <trkpt lat="68.081333" lon="13.101731"><ele>145.6</ele></trkpt>
   <trkpt lat="68.081388" lon="13.101781"><ele>148.4</ele></trkpt>
   <trkpt lat="68.081432" lon="13.101933"><ele>151.3</ele></trkpt>
   <trkpt lat="68.081459" lon="13.102046"><ele>152.8</ele></trkpt>
   <trkpt lat="68.081468" lon="13.102189"><ele>153.1</ele></trkpt>
   <trkpt lat="68.081477" lon="13.102339"><ele>153.4</ele></trkpt>
   <trkpt lat="68.081523" lon="13.102518"><ele>155.7</ele></trkpt>
   <trkpt lat="68.081526" lon="13.102667"><ele>155.3</ele></trkpt>
   <trkpt lat="68.081572" lon="13.102693"><ele>157.8</ele></trkpt>
   <trkpt lat="68.081602" lon="13.102793"><ele>160.1</ele></trkpt>
   <trkpt lat="68.081640" lon="13.102858"><ele>162.4</ele></trkpt>
   <trkpt lat="68.081688" lon="13.102934"><ele>164.9</ele></trkpt>
   <trkpt lat="68.081734" lon="13.102966"><ele>167.8</ele></trkpt>
   <trkpt lat="68.081777" lon="13.103046"><ele>170.8</ele></trkpt>
   <trkpt lat="68.081816" lon="13.103184"><ele>173.2</ele></trkpt>
   <trkpt lat="68.081880" lon="13.103246"><ele>177.6</ele></trkpt>
   <trkpt lat="68.081938" lon="13.103337"><ele>182.2</ele></trkpt>
   <trkpt lat="68.081991" lon="13.103357"><ele>185.8</ele></trkpt>
   <trkpt lat="68.082036" lon="13.103362"><ele>188.5</ele></trkpt>
   <trkpt lat="68.082081" lon="13.103424"><ele>192.0</ele></trkpt>
   <trkpt lat="68.082128" lon="13.103534"><ele>196.3</ele></trkpt>
   <trkpt lat="68.082173" lon="13.103647"><ele>199.9</ele></trkpt>
   <trkpt lat="68.082168" lon="13.103809"><ele>201.3</ele></trkpt>
   <trkpt lat="68.082178" lon="13.103935"><ele>202.7</ele></trkpt>
   <trkpt lat="68.082212" lon="13.104021"><ele>206.2</ele></trkpt>
   <trkpt lat="68.082224" lon="13.104144"><ele>207.6</ele></trkpt>
   <trkpt lat="68.082200" lon="13.104265"><ele>207.3</ele></trkpt>
   <trkpt lat="68.082209" lon="13.104462"><ele>208.9</ele></trkpt>
   <trkpt lat="68.082235" lon="13.104644"><ele>210.7</ele></trkpt>
   <trkpt lat="68.082262" lon="13.104775"><ele>212.7</ele></trkpt>
   <trkpt lat="68.082293" lon="13.104912"><ele>214.4</ele></trkpt>
   <trkpt lat="68.082322" lon="13.105014"><ele>215.5</ele></trkpt>
   <trkpt lat="68.082350" lon="13.105190"><ele>217.3</ele></trkpt>
   <trkpt lat="68.082372" lon="13.105327"><ele>218.5</ele></trkpt>
   <trkpt lat="68.082392" lon="13.105452"><ele>219.5</ele></trkpt>
   <trkpt lat="68.082411" lon="13.105699"><ele>221.0</ele></trkpt>
   <trkpt lat="68.082428" lon="13.105905"><ele>222.7</ele></trkpt>
   <trkpt lat="68.082434" lon="13.106033"><ele>223.7</ele></trkpt>
   <trkpt lat="68.082439" lon="13.106154"><ele>224.7</ele></trkpt>
   <trkpt lat="68.082450" lon="13.106282"><ele>225.6</ele></trkpt>
   <trkpt lat="68.082462" lon="13.106400"><ele>226.5</ele></trkpt>
   <trkpt lat="68.082483" lon="13.106566"><ele>228.2</ele></trkpt>
   <trkpt lat="68.082497" lon="13.106684"><ele>229.3</ele></trkpt>
   <trkpt lat="68.082510" lon="13.106835"><ele>230.1</ele></trkpt>
   <trkpt lat="68.082522" lon="13.107028"><ele>231.4</ele></trkpt>
   <trkpt lat="68.082533" lon="13.107159"><ele>232.1</ele></trkpt>
   <trkpt lat="68.082558" lon="13.107333"><ele>232.9</ele></trkpt>
   <trkpt lat="68.082570" lon="13.107458"><ele>233.9</ele></trkpt>
   <trkpt lat="68.082582" lon="13.107604"><ele>234.7</ele></trkpt>
   <trkpt lat="68.082599" lon="13.107753"><ele>235.4</ele></trkpt>
   <trkpt lat="68.082617" lon="13.107954"><ele>236.7</ele></trkpt>
   <trkpt lat="68.082633" lon="13.108081"><ele>238.0</ele></trkpt>
   <trkpt lat="68.082660" lon="13.108241"><ele>239.4</ele></trkpt>
   <trkpt lat="68.082680" lon="13.108395"><ele>240.4</ele></trkpt>
   <trkpt lat="68.082693" lon="13.108540"><ele>240.9</ele></trkpt>
   <trkpt lat="68.082730" lon="13.108708"><ele>241.5</ele></trkpt>
   <trkpt lat="68.082770" lon="13.108948"><ele>242.8</ele></trkpt>
   <trkpt lat="68.082785" lon="13.109080"><ele>243.0</ele></trkpt>
   <trkpt lat="68.082809" lon="13.109261"><ele>244.0</ele></trkpt>
   <trkpt lat="68.082841" lon="13.109497"><ele>245.4</ele></trkpt>
   <trkpt lat="68.082841" lon="13.109622"><ele>245.7</ele></trkpt>
   <trkpt lat="68.082849" lon="13.109792"><ele>246.2</ele></trkpt>
   <trkpt lat="68.082868" lon="13.109905"><ele>246.9</ele></trkpt>
   <trkpt lat="68.082888" lon="13.110055"><ele>247.1</ele></trkpt>
   <trkpt lat="68.082912" lon="13.110169"><ele>246.8</ele></trkpt>
   <trkpt lat="68.082955" lon="13.110292"><ele>247.8</ele></trkpt>
   <trkpt lat="68.082988" lon="13.110436"><ele>248.3</ele></trkpt>
   <trkpt lat="68.083013" lon="13.110574"><ele>249.1</ele></trkpt>
   <trkpt lat="68.083032" lon="13.110703"><ele>249.7</ele></trkpt>
   <trkpt lat="68.083051" lon="13.110845"><ele>250.0</ele></trkpt>
   <trkpt lat="68.083080" lon="13.111019"><ele>250.8</ele></trkpt>
   <trkpt lat="68.083107" lon="13.111160"><ele>252.2</ele></trkpt>
   <trkpt lat="68.083133" lon="13.111286"><ele>253.0</ele></trkpt>
   <trkpt lat="68.083174" lon="13.111493"><ele>255.9</ele></trkpt>
   <trkpt lat="68.083177" lon="13.111617"><ele>255.9</ele></trkpt>
   <trkpt lat="68.083173" lon="13.111811"><ele>255.2</ele></trkpt>
   <trkpt lat="68.083190" lon="13.111944"><ele>256.1</ele></trkpt>
   <trkpt lat="68.083212" lon="13.112072"><ele>258.4</ele></trkpt>
   <trkpt lat="68.083236" lon="13.112295"><ele>260.5</ele></trkpt>
   <trkpt lat="68.083250" lon="13.112422"><ele>260.8</ele></trkpt>
   <trkpt lat="68.083290" lon="13.112560"><ele>262.5</ele></trkpt>
   <trkpt lat="68.083306" lon="13.112805"><ele>263.0</ele></trkpt>
   <trkpt lat="68.083315" lon="13.112966"><ele>263.5</ele></trkpt>
   <trkpt lat="68.083331" lon="13.113133"><ele>263.7</ele></trkpt>
   <trkpt lat="68.083372" lon="13.113263"><ele>264.7</ele></trkpt>
   <trkpt lat="68.083415" lon="13.113411"><ele>265.7</ele></trkpt>
   <trkpt lat="68.083423" lon="13.113548"><ele>266.6</ele></trkpt>
   <trkpt lat="68.083442" lon="13.113665"><ele>267.1</ele></trkpt>
   <trkpt lat="68.083471" lon="13.113845"><ele>268.7</ele></trkpt>
   <trkpt lat="68.083489" lon="13.113960"><ele>269.5</ele></trkpt>
   <trkpt lat="68.083495" lon="13.114136"><ele>270.2</ele></trkpt>
   <trkpt lat="68.083533" lon="13.114348"><ele>271.8</ele></trkpt>
   <trkpt lat="68.083562" lon="13.114529"><ele>271.9</ele></trkpt>
   <trkpt lat="68.083589" lon="13.114745"><ele>272.1</ele></trkpt>
   <trkpt lat="68.083654" lon="13.114943"><ele>272.9</ele></trkpt>
   <trkpt lat="68.083759" lon="13.115246"><ele>273.6</ele></trkpt>
   <trkpt lat="68.083710" lon="13.115468"><ele>271.7</ele></trkpt>
   <trkpt lat="68.083680" lon="13.115744"><ele>269.4</ele></trkpt>
   <trkpt lat="68.083650" lon="13.115847"><ele>268.3</ele></trkpt>
   <trkpt lat="68.083573" lon="13.115983"><ele>266.8</ele></trkpt>
   <trkpt lat="68.083526" lon="13.116033"><ele>265.9</ele></trkpt>
   <trkpt lat="68.083463" lon="13.116153"><ele>265.0</ele></trkpt>
   <trkpt lat="68.083419" lon="13.116236"><ele>264.2</ele></trkpt>
   <trkpt lat="68.083368" lon="13.116383"><ele>263.0</ele></trkpt>
   <trkpt lat="68.083340" lon="13.116478"><ele>262.2</ele></trkpt>
   <trkpt lat="68.083281" lon="13.116625"><ele>260.3</ele></trkpt>
   <trkpt lat="68.083245" lon="13.116700"><ele>259.4</ele></trkpt>
   <trkpt lat="68.083196" lon="13.116826"><ele>258.4</ele></trkpt>
   <trkpt lat="68.083138" lon="13.117044"><ele>258.6</ele></trkpt>
   <trkpt lat="68.083058" lon="13.117225"><ele>258.4</ele></trkpt>
   <trkpt lat="68.083021" lon="13.117363"><ele>258.4</ele></trkpt>
   <trkpt lat="68.082987" lon="13.117526"><ele>259.1</ele></trkpt>
   <trkpt lat="68.082963" lon="13.117697"><ele>259.6</ele></trkpt>
   <trkpt lat="68.082958" lon="13.117927"><ele>259.2</ele></trkpt>
   <trkpt lat="68.082934" lon="13.118131"><ele>259.1</ele></trkpt>
   <trkpt lat="68.082896" lon="13.118359"><ele>259.4</ele></trkpt>
   <trkpt lat="68.082885" lon="13.118520"><ele>259.0</ele></trkpt>
   <trkpt lat="68.082867" lon="13.118634"><ele>258.3</ele></trkpt>
   <trkpt lat="68.082857" lon="13.118975"><ele>256.6</ele></trkpt>
   <trkpt lat="68.082843" lon="13.119211"><ele>255.5</ele></trkpt>
   <trkpt lat="68.082827" lon="13.119412"><ele>256.2</ele></trkpt>
   <trkpt lat="68.082811" lon="13.119670"><ele>255.5</ele></trkpt>
   <trkpt lat="68.082815" lon="13.119822"><ele>255.4</ele></trkpt>
   <trkpt lat="68.082822" lon="13.119949"><ele>255.9</ele></trkpt>
   <trkpt lat="68.082830" lon="13.120131"><ele>256.0</ele></trkpt>
   <trkpt lat="68.082840" lon="13.120272"><ele>255.3</ele></trkpt>
   <trkpt lat="68.082840" lon="13.120447"><ele>256.1</ele></trkpt>
   <trkpt lat="68.082842" lon="13.120649"><ele>256.7</ele></trkpt>
   <trkpt lat="68.082816" lon="13.120887"><ele>256.9</ele></trkpt>
   <trkpt lat="68.082786" lon="13.121163"><ele>257.9</ele></trkpt>
   <trkpt lat="68.082767" lon="13.121344"><ele>258.6</ele></trkpt>
   <trkpt lat="68.082744" lon="13.121470"><ele>259.0</ele></trkpt>
   <trkpt lat="68.082714" lon="13.121598"><ele>259.8</ele></trkpt>
   <trkpt lat="68.082674" lon="13.121693"><ele>260.1</ele></trkpt>
   <trkpt lat="68.082617" lon="13.121819"><ele>260.4</ele></trkpt>
   <trkpt lat="68.082561" lon="13.122006"><ele>260.5</ele></trkpt>
   <trkpt lat="68.082535" lon="13.122160"><ele>260.9</ele></trkpt>
   <trkpt lat="68.082493" lon="13.122330"><ele>261.0</ele></trkpt>
   <trkpt lat="68.082447" lon="13.122455"><ele>260.1</ele></trkpt>
   <trkpt lat="68.082399" lon="13.122534"><ele>259.3</ele></trkpt>
   <trkpt lat="68.082321" lon="13.122625"><ele>258.0</ele></trkpt>
   <trkpt lat="68.082275" lon="13.122700"><ele>257.0</ele></trkpt>
   <trkpt lat="68.082249" lon="13.122801"><ele>256.5</ele></trkpt>
   <trkpt lat="68.082217" lon="13.122907"><ele>256.0</ele></trkpt>
   <trkpt lat="68.082170" lon="13.123022"><ele>254.5</ele></trkpt>
   <trkpt lat="68.082132" lon="13.123090"><ele>253.3</ele></trkpt>
   <trkpt lat="68.082107" lon="13.123206"><ele>252.4</ele></trkpt>
   <trkpt lat="68.082067" lon="13.123295"><ele>251.0</ele></trkpt>
   <trkpt lat="68.082015" lon="13.123509"><ele>248.8</ele></trkpt>
   <trkpt lat="68.081965" lon="13.123645"><ele>247.3</ele></trkpt>
   <trkpt lat="68.081933" lon="13.123759"><ele>246.0</ele></trkpt>
   <trkpt lat="68.081879" lon="13.123915"><ele>244.2</ele></trkpt>
   <trkpt lat="68.081853" lon="13.124034"><ele>243.1</ele></trkpt>
   <trkpt lat="68.081826" lon="13.124150"><ele>241.7</ele></trkpt>
   <trkpt lat="68.081795" lon="13.124287"><ele>240.8</ele></trkpt>
   <trkpt lat="68.081752" lon="13.124373"><ele>239.3</ele></trkpt>
   <trkpt lat="68.081711" lon="13.124466"><ele>237.8</ele></trkpt>
   <trkpt lat="68.081660" lon="13.124615"><ele>236.3</ele></trkpt>
   <trkpt lat="68.081623" lon="13.124716"><ele>235.2</ele></trkpt>
   <trkpt lat="68.081584" lon="13.124830"><ele>234.1</ele></trkpt>
   <trkpt lat="68.081543" lon="13.124921"><ele>232.8</ele></trkpt>
   <trkpt lat="68.081508" lon="13.125070"><ele>232.1</ele></trkpt>
   <trkpt lat="68.081452" lon="13.125268"><ele>230.4</ele></trkpt>
   <trkpt lat="68.081397" lon="13.125425"><ele>229.1</ele></trkpt>
   <trkpt lat="68.081365" lon="13.125580"><ele>228.6</ele></trkpt>
   <trkpt lat="68.081318" lon="13.125800"><ele>226.7</ele></trkpt>
   <trkpt lat="68.081293" lon="13.125966"><ele>226.5</ele></trkpt>
   <trkpt lat="68.081275" lon="13.126100"><ele>226.4</ele></trkpt>
   <trkpt lat="68.081238" lon="13.126227"><ele>225.0</ele></trkpt>
   <trkpt lat="68.081221" lon="13.126370"><ele>224.5</ele></trkpt>
   <trkpt lat="68.081191" lon="13.126543"><ele>224.3</ele></trkpt>
   <trkpt lat="68.081168" lon="13.126736"><ele>224.3</ele></trkpt>
   <trkpt lat="68.081159" lon="13.126891"><ele>224.4</ele></trkpt>
   <trkpt lat="68.081160" lon="13.127050"><ele>225.3</ele></trkpt>
   <trkpt lat="68.081129" lon="13.127207"><ele>224.9</ele></trkpt>
   <trkpt lat="68.081117" lon="13.127344"><ele>224.3</ele></trkpt>
   <trkpt lat="68.081093" lon="13.127487"><ele>223.3</ele></trkpt>
   <trkpt lat="68.081092" lon="13.127681"><ele>221.8</ele></trkpt>
   <trkpt lat="68.081111" lon="13.127865"><ele>220.5</ele></trkpt>
   <trkpt lat="68.081136" lon="13.127982"><ele>220.1</ele></trkpt>
   <trkpt lat="68.081184" lon="13.128155"><ele>217.9</ele></trkpt>
   <trkpt lat="68.081216" lon="13.128306"><ele>216.5</ele></trkpt>
   <trkpt lat="68.081248" lon="13.128448"><ele>215.4</ele></trkpt>
   <trkpt lat="68.081267" lon="13.128580"><ele>213.3</ele></trkpt>
   <trkpt lat="68.081276" lon="13.128727"><ele>211.1</ele></trkpt>
   <trkpt lat="68.081285" lon="13.128898"><ele>211.5</ele></trkpt>
   <trkpt lat="68.081336" lon="13.129051"><ele>211.8</ele></trkpt>
   <trkpt lat="68.081351" lon="13.129191"><ele>211.8</ele></trkpt>
   <trkpt lat="68.081398" lon="13.129472"><ele>211.8</ele></trkpt>
   <trkpt lat="68.081424" lon="13.129621"><ele>212.3</ele></trkpt>
   <trkpt lat="68.081466" lon="13.129827"><ele>211.9</ele></trkpt>
   <trkpt lat="68.081485" lon="13.129958"><ele>211.6</ele></trkpt>
   <trkpt lat="68.081509" lon="13.130091"><ele>211.3</ele></trkpt>
   <trkpt lat="68.081539" lon="13.130186"><ele>211.0</ele></trkpt>
   <trkpt lat="68.081570" lon="13.130295"><ele>210.5</ele></trkpt>
   <trkpt lat="68.081627" lon="13.130434"><ele>211.1</ele></trkpt>
   <trkpt lat="68.081669" lon="13.130565"><ele>210.7</ele></trkpt>
   <trkpt lat="68.081672" lon="13.130722"><ele>210.2</ele></trkpt>
   <trkpt lat="68.081656" lon="13.130838"><ele>210.4</ele></trkpt>
   <trkpt lat="68.081640" lon="13.130996"><ele>209.3</ele></trkpt>
   <trkpt lat="68.081642" lon="13.131124"><ele>207.6</ele></trkpt>
   <trkpt lat="68.081617" lon="13.131232"><ele>206.1</ele></trkpt>
   <trkpt lat="68.081653" lon="13.131314"><ele>204.0</ele></trkpt>
   <trkpt lat="68.081687" lon="13.131425"><ele>202.7</ele></trkpt>
   <trkpt lat="68.081707" lon="13.131542"><ele>201.6</ele></trkpt>
   <trkpt lat="68.081731" lon="13.131666"><ele>199.2</ele></trkpt>
   <trkpt lat="68.081789" lon="13.131766"><ele>199.2</ele></trkpt>
   <trkpt lat="68.081841" lon="13.131865"><ele>196.2</ele></trkpt>
   <trkpt lat="68.081895" lon="13.132037"><ele>194.4</ele></trkpt>
   <trkpt lat="68.081935" lon="13.132143"><ele>193.9</ele></trkpt>
   <trkpt lat="68.081997" lon="13.132232"><ele>193.9</ele></trkpt>
   <trkpt lat="68.082070" lon="13.132337"><ele>192.8</ele></trkpt>
   <trkpt lat="68.082131" lon="13.132400"><ele>192.4</ele></trkpt>
   <trkpt lat="68.082215" lon="13.132537"><ele>191.8</ele></trkpt>
   <trkpt lat="68.082298" lon="13.132622"><ele>191.8</ele></trkpt>
   <trkpt lat="68.082386" lon="13.132694"><ele>192.0</ele></trkpt>
   <trkpt lat="68.082432" lon="13.132784"><ele>192.1</ele></trkpt>
   <trkpt lat="68.082475" lon="13.132857"><ele>191.8</ele></trkpt>
   <trkpt lat="68.082535" lon="13.132979"><ele>191.7</ele></trkpt>
   <trkpt lat="68.082597" lon="13.133151"><ele>191.1</ele></trkpt>
   <trkpt lat="68.082651" lon="13.133288"><ele>190.5</ele></trkpt>
   <trkpt lat="68.082704" lon="13.133406"><ele>189.5</ele></trkpt>
   <trkpt lat="68.082742" lon="13.133511"><ele>188.6</ele></trkpt>
   <trkpt lat="68.082772" lon="13.133630"><ele>187.3</ele></trkpt>
   <trkpt lat="68.082809" lon="13.133770"><ele>185.6</ele></trkpt>
   <trkpt lat="68.082848" lon="13.133895"><ele>184.2</ele></trkpt>
   <trkpt lat="68.082857" lon="13.134016"><ele>183.4</ele></trkpt>
   <trkpt lat="68.082831" lon="13.134153"><ele>182.1</ele></trkpt>
   <trkpt lat="68.082846" lon="13.134288"><ele>181.6</ele></trkpt>
   <trkpt lat="68.082845" lon="13.134424"><ele>180.2</ele></trkpt>
   <trkpt lat="68.082821" lon="13.134534"><ele>179.1</ele></trkpt>
   <trkpt lat="68.082819" lon="13.134681"><ele>177.7</ele></trkpt>
   <trkpt lat="68.082824" lon="13.134829"><ele>177.4</ele></trkpt>
   <trkpt lat="68.082810" lon="13.134958"><ele>176.6</ele></trkpt>
   <trkpt lat="68.082768" lon="13.135134"><ele>176.2</ele></trkpt>
   <trkpt lat="68.082733" lon="13.135227"><ele>175.3</ele></trkpt>
   <trkpt lat="68.082740" lon="13.135447"><ele>174.7</ele></trkpt>
   <trkpt lat="68.082722" lon="13.135596"><ele>173.3</ele></trkpt>
   <trkpt lat="68.082775" lon="13.135785"><ele>171.6</ele></trkpt>
   <trkpt lat="68.082755" lon="13.135918"><ele>170.4</ele></trkpt>
   <trkpt lat="68.082748" lon="13.136081"><ele>169.1</ele></trkpt>
   <trkpt lat="68.082730" lon="13.136240"><ele>164.8</ele></trkpt>
   <trkpt lat="68.082709" lon="13.136382"><ele>162.6</ele></trkpt>
   <trkpt lat="68.082670" lon="13.136525"><ele>160.1</ele></trkpt>
   <trkpt lat="68.082655" lon="13.136640"><ele>156.7</ele></trkpt>
   <trkpt lat="68.082614" lon="13.136724"><ele>154.7</ele></trkpt>
   <trkpt lat="68.082586" lon="13.136819"><ele>152.2</ele></trkpt>
   <trkpt lat="68.082556" lon="13.136959"><ele>148.5</ele></trkpt>
   <trkpt lat="68.082588" lon="13.137046"><ele>147.1</ele></trkpt>
   <trkpt lat="68.082530" lon="13.137173"><ele>141.9</ele></trkpt>
   <trkpt lat="68.082476" lon="13.137214"><ele>138.8</ele></trkpt>
   <trkpt lat="68.082452" lon="13.137345"><ele>135.3</ele></trkpt>
   <trkpt lat="68.082464" lon="13.137465"><ele>132.6</ele></trkpt>
   <trkpt lat="68.082429" lon="13.137604"><ele>130.7</ele></trkpt>
   <trkpt lat="68.082437" lon="13.137760"><ele>129.6</ele></trkpt>
   <trkpt lat="68.082432" lon="13.137901"><ele>129.7</ele></trkpt>
   <trkpt lat="68.082412" lon="13.138043"><ele>127.5</ele></trkpt>
   <trkpt lat="68.082425" lon="13.138212"><ele>124.8</ele></trkpt>
   <trkpt lat="68.082468" lon="13.138289"><ele>123.3</ele></trkpt>
   <trkpt lat="68.082502" lon="13.138434"><ele>122.1</ele></trkpt>
   <trkpt lat="68.082519" lon="13.138552"><ele>121.1</ele></trkpt>
   <trkpt lat="68.082528" lon="13.138727"><ele>120.1</ele></trkpt>
   <trkpt lat="68.082499" lon="13.138876"><ele>119.5</ele></trkpt>
   <trkpt lat="68.082550" lon="13.138899"><ele>119.4</ele></trkpt>
   <trkpt lat="68.082593" lon="13.138952"><ele>119.2</ele></trkpt>
   <trkpt lat="68.082621" lon="13.139105"><ele>118.9</ele></trkpt>
   <trkpt lat="68.082627" lon="13.139272"><ele>118.3</ele></trkpt>
   <trkpt lat="68.082639" lon="13.139406"><ele>117.0</ele></trkpt>
   <trkpt lat="68.082679" lon="13.139469"><ele>116.2</ele></trkpt>
   <trkpt lat="68.082732" lon="13.139526"><ele>115.4</ele></trkpt>
   <trkpt lat="68.082795" lon="13.139530"><ele>114.1</ele></trkpt>
   <trkpt lat="68.082852" lon="13.139571"><ele>112.0</ele></trkpt>
   <trkpt lat="68.082918" lon="13.139600"><ele>109.4</ele></trkpt>
   <trkpt lat="68.082966" lon="13.139593"><ele>107.8</ele></trkpt>
   <trkpt lat="68.083017" lon="13.139570"><ele>106.5</ele></trkpt>
   <trkpt lat="68.083077" lon="13.139597"><ele>105.3</ele></trkpt>
   <trkpt lat="68.083118" lon="13.139690"><ele>102.2</ele></trkpt>
   <trkpt lat="68.083165" lon="13.139701"><ele>99.7</ele></trkpt>
   <trkpt lat="68.083128" lon="13.139849"><ele>97.7</ele></trkpt>
   <trkpt lat="68.083117" lon="13.140043"><ele>95.2</ele></trkpt>
   <trkpt lat="68.083139" lon="13.140178"><ele>93.2</ele></trkpt>
   <trkpt lat="68.083145" lon="13.140335"><ele>91.2</ele></trkpt>
   <trkpt lat="68.083150" lon="13.140484"><ele>89.9</ele></trkpt>
   <trkpt lat="68.083178" lon="13.140628"><ele>87.0</ele></trkpt>
   <trkpt lat="68.083216" lon="13.140789"><ele>84.3</ele></trkpt>
   <trkpt lat="68.083237" lon="13.140911"><ele>82.5</ele></trkpt>
   <trkpt lat="68.083242" lon="13.141075"><ele>82.1</ele></trkpt>
   <trkpt lat="68.083268" lon="13.141176"><ele>81.0</ele></trkpt>
   <trkpt lat="68.083302" lon="13.141280"><ele>80.3</ele></trkpt>
   <trkpt lat="68.083291" lon="13.141411"><ele>81.5</ele></trkpt>
   <trkpt lat="68.083320" lon="13.141557"><ele>80.9</ele></trkpt>
   <trkpt lat="68.083359" lon="13.141666"><ele>79.5</ele></trkpt>
   <trkpt lat="68.083417" lon="13.141835"><ele>77.2</ele></trkpt>
   <trkpt lat="68.083454" lon="13.141912"><ele>75.9</ele></trkpt>
   <trkpt lat="68.083489" lon="13.141988"><ele>75.0</ele></trkpt>
   <trkpt lat="68.083535" lon="13.142039"><ele>73.6</ele></trkpt>
   <trkpt lat="68.083568" lon="13.142137"><ele>73.2</ele></trkpt>
   <trkpt lat="68.083617" lon="13.142250"><ele>73.3</ele></trkpt>
   <trkpt lat="68.083666" lon="13.142298"><ele>71.4</ele></trkpt>
   <trkpt lat="68.083708" lon="13.142370"><ele>71.0</ele></trkpt>
   <trkpt lat="68.083772" lon="13.142382"><ele>68.4</ele></trkpt>
   <trkpt lat="68.083815" lon="13.142484"><ele>67.8</ele></trkpt>
   <trkpt lat="68.083875" lon="13.142504"><ele>65.3</ele></trkpt>
   <trkpt lat="68.083932" lon="13.142567"><ele>64.6</ele></trkpt>
   <trkpt lat="68.083987" lon="13.142616"><ele>63.2</ele></trkpt>
   <trkpt lat="68.084061" lon="13.142662"><ele>60.3</ele></trkpt>
   <trkpt lat="68.084106" lon="13.142720"><ele>59.6</ele></trkpt>
   <trkpt lat="68.084160" lon="13.142787"><ele>58.2</ele></trkpt>
   <trkpt lat="68.084224" lon="13.142833"><ele>56.6</ele></trkpt>
   <trkpt lat="68.084296" lon="13.142863"><ele>54.7</ele></trkpt>
   <trkpt lat="68.084317" lon="13.142976"><ele>55.5</ele></trkpt>
   <trkpt lat="68.084371" lon="13.143018"><ele>53.8</ele></trkpt>
   <trkpt lat="68.084445" lon="13.142961"><ele>50.9</ele></trkpt>
   <trkpt lat="68.084490" lon="13.143007"><ele>50.1</ele></trkpt>
   <trkpt lat="68.084535" lon="13.143039"><ele>48.6</ele></trkpt>
   <trkpt lat="68.084585" lon="13.143067"><ele>47.6</ele></trkpt>
   <trkpt lat="68.084642" lon="13.143064"><ele>46.3</ele></trkpt>
   <trkpt lat="68.084692" lon="13.143036"><ele>44.7</ele></trkpt>
   <trkpt lat="68.084741" lon="13.143014"><ele>43.2</ele></trkpt>
   <trkpt lat="68.084790" lon="13.142991"><ele>42.1</ele></trkpt>
   <trkpt lat="68.084852" lon="13.142990"><ele>40.6</ele></trkpt>
   <trkpt lat="68.084894" lon="13.142930"><ele>38.9</ele></trkpt>
   <trkpt lat="68.084949" lon="13.142892"><ele>37.8</ele></trkpt>
   <trkpt lat="68.084997" lon="13.142800"><ele>36.4</ele></trkpt>
   <trkpt lat="68.085058" lon="13.142847"><ele>35.4</ele></trkpt>
   <trkpt lat="68.085107" lon="13.142833"><ele>33.2</ele></trkpt>
   <trkpt lat="68.085156" lon="13.142889"><ele>33.1</ele></trkpt>
   <trkpt lat="68.085199" lon="13.142832"><ele>29.8</ele></trkpt>
   <trkpt lat="68.085308" lon="13.142762"><ele>26.4</ele></trkpt>
   <trkpt lat="68.085383" lon="13.142710"><ele>26.4</ele></trkpt>
   <trkpt lat="68.085485" lon="13.142637"><ele>24.4</ele></trkpt>
   <trkpt lat="68.085547" lon="13.142604"><ele>23.9</ele></trkpt>
   <trkpt lat="68.085598" lon="13.142658"><ele>23.1</ele></trkpt>
   <trkpt lat="68.085642" lon="13.142741"><ele>22.7</ele></trkpt>
   <trkpt lat="68.085686" lon="13.142711"><ele>22.1</ele></trkpt>
   <trkpt lat="68.085740" lon="13.142607"><ele>21.0</ele></trkpt>
   <trkpt lat="68.085786" lon="13.142501"><ele>19.1</ele></trkpt>
   <trkpt lat="68.085792" lon="13.142378"><ele>18.7</ele></trkpt>
   <trkpt lat="68.085773" lon="13.142209"><ele>17.8</ele></trkpt>
   <trkpt lat="68.085753" lon="13.142088"><ele>17.3</ele></trkpt>
   <trkpt lat="68.085742" lon="13.141875"><ele>15.9</ele></trkpt>
   <trkpt lat="68.085742" lon="13.141724"><ele>15.7</ele></trkpt>
   <trkpt lat="68.085747" lon="13.141595"><ele>14.2</ele></trkpt>
   <trkpt lat="68.085752" lon="13.141410"><ele>11.9</ele></trkpt>
   <trkpt lat="68.085743" lon="13.141234"><ele>10.2</ele></trkpt>
   <trkpt lat="68.085745" lon="13.141048"><ele>8.6</ele></trkpt>
   <trkpt lat="68.085774" lon="13.140937"><ele>6.9</ele></trkpt>
   <trkpt lat="68.085801" lon="13.140745"><ele>3.5</ele></trkpt>
   <trkpt lat="68.085829" lon="13.140614"><ele>2.5</ele></trkpt>
   <trkpt lat="68.085868" lon="13.140451"><ele>2.3</ele></trkpt>
   <trkpt lat="68.085894" lon="13.140304"><ele>2.3</ele></trkpt>
   <trkpt lat="68.085926" lon="13.140124"><ele>2.2</ele></trkpt>
   <trkpt lat="68.085981" lon="13.139924"><ele>2.0</ele></trkpt>
   <trkpt lat="68.086027" lon="13.139613"><ele>1.8</ele></trkpt>
   <trkpt lat="68.086083" lon="13.139379"><ele>1.8</ele></trkpt>
   <trkpt lat="68.086137" lon="13.139131"><ele>1.6</ele></trkpt>
   <trkpt lat="68.086161" lon="13.139023"><ele>1.5</ele></trkpt>
   <trkpt lat="68.086197" lon="13.138899"><ele>1.4</ele></trkpt>
   <trkpt lat="68.086236" lon="13.138808"><ele>1.6</ele></trkpt>
   <trkpt lat="68.086294" lon="13.138696"><ele>1.5</ele></trkpt>
   <trkpt lat="68.086323" lon="13.138602"><ele>1.3</ele></trkpt>
   <trkpt lat="68.086298" lon="13.138388"><ele>1.2</ele></trkpt>
   <trkpt lat="68.086304" lon="13.138205"><ele>1.4</ele></trkpt>
   <trkpt lat="68.086365" lon="13.138193"><ele>1.8</ele></trkpt>
   <trkpt lat="68.086432" lon="13.138182"><ele>1.8</ele></trkpt>
   <trkpt lat="68.086510" lon="13.138230"><ele>1.9</ele></trkpt>
   <trkpt lat="68.086585" lon="13.138272"><ele>1.9</ele></trkpt>
   <trkpt lat="68.086651" lon="13.138303"><ele>1.9</ele></trkpt>
   <trkpt lat="68.086753" lon="13.138353"><ele>1.9</ele></trkpt>
   <trkpt lat="68.086837" lon="13.138388"><ele>1.8</ele></trkpt>
   <trkpt lat="68.086958" lon="13.138462"><ele>1.8</ele></trkpt>
   <trkpt lat="68.087005" lon="13.138490"><ele>1.8</ele></trkpt>
   <trkpt lat="68.087051" lon="13.138517"><ele>1.9</ele></trkpt>
   <trkpt lat="68.087162" lon="13.138537"><ele>1.8</ele></trkpt>
   <trkpt lat="68.087248" lon="13.138613"><ele>1.8</ele></trkpt>
   <trkpt lat="68.087357" lon="13.138705"><ele>2.0</ele></trkpt>
   <trkpt lat="68.087419" lon="13.138737"><ele>2.3</ele></trkpt>
   <trkpt lat="68.087523" lon="13.138807"><ele>2.8</ele></trkpt>
   <trkpt lat="68.087639" lon="13.138850"><ele>2.7</ele></trkpt>
   <trkpt lat="68.087722" lon="13.138912"><ele>2.7</ele></trkpt>
   <trkpt lat="68.087811" lon="13.138959"><ele>2.8</ele></trkpt>
   <trkpt lat="68.087922" lon="13.139055"><ele>2.8</ele></trkpt>
   <trkpt lat="68.088005" lon="13.139088"><ele>3.0</ele></trkpt>
   <trkpt lat="68.088077" lon="13.139135"><ele>3.0</ele></trkpt>
   <trkpt lat="68.088143" lon="13.139147"><ele>3.0</ele></trkpt>
   <trkpt lat="68.088195" lon="13.139118"><ele>2.9</ele></trkpt>
   <trkpt lat="68.088270" lon="13.139025"><ele>2.7</ele></trkpt>
   <trkpt lat="68.088340" lon="13.138991"><ele>2.6</ele></trkpt>
   <trkpt lat="68.088408" lon="13.138993"><ele>2.6</ele></trkpt>
   <trkpt lat="68.088510" lon="13.139048"><ele>2.8</ele></trkpt>
   <trkpt lat="68.088566" lon="13.139077"><ele>2.9</ele></trkpt>
   <trkpt lat="68.088612" lon="13.139084"><ele>3.0</ele></trkpt>
   <trkpt lat="68.088669" lon="13.139088"><ele>3.5</ele></trkpt>
  </trkseg>
 </trk>
</gpx>
