<?xml version="1.0" encoding="UTF-8"?>
<gpx version="1.1" creator="HPGT flysteder" xmlns="http://www.topografix.com/GPX/1/1">
 <trk>
  <name>Sætertinden – Hovedruta: parkering til start</name>
  <trkseg>
   <trkpt lat="68.565455" lon="16.428403"><ele>69.4</ele></trkpt>
   <trkpt lat="68.565569" lon="16.427894"><ele>67.8</ele></trkpt>
   <trkpt lat="68.565660" lon="16.427903"><ele>69.0</ele></trkpt>
   <trkpt lat="68.565685" lon="16.428642"><ele>71.0</ele></trkpt>
   <trkpt lat="68.565939" lon="16.429330"><ele>74.2</ele></trkpt>
   <trkpt lat="68.565684" lon="16.430310"><ele>75.6</ele></trkpt>
   <trkpt lat="68.565725" lon="16.430895"><ele>77.4</ele></trkpt>
   <trkpt lat="68.566129" lon="16.431829"><ele>81.6</ele></trkpt>
   <trkpt lat="68.566991" lon="16.432807"><ele>84.6</ele></trkpt>
   <trkpt lat="68.567571" lon="16.435629"><ele>90.0</ele></trkpt>
   <trkpt lat="68.568221" lon="16.437471"><ele>101.0</ele></trkpt>
   <trkpt lat="68.568446" lon="16.437982"><ele>104.6</ele></trkpt>
   <trkpt lat="68.568965" lon="16.438619"><ele>109.6</ele></trkpt>
   <trkpt lat="68.569372" lon="16.439623"><ele>114.2</ele></trkpt>
   <trkpt lat="68.569741" lon="16.439710"><ele>117.8</ele></trkpt>
   <trkpt lat="68.569803" lon="16.440227"><ele>120.2</ele></trkpt>
   <trkpt lat="68.570014" lon="16.440749"><ele>122.0</ele></trkpt>
   <trkpt lat="68.570368" lon="16.441255"><ele>124.2</ele></trkpt>
   <trkpt lat="68.570544" lon="16.440478"><ele>127.6</ele></trkpt>
   <trkpt lat="68.571703" lon="16.439644"><ele>140.4</ele></trkpt>
   <trkpt lat="68.572044" lon="16.439741"><ele>146.8</ele></trkpt>
   <trkpt lat="68.572948" lon="16.439179"><ele>170.8</ele></trkpt>
   <trkpt lat="68.573507" lon="16.439578"><ele>182.0</ele></trkpt>
   <trkpt lat="68.573679" lon="16.439421"><ele>186.8</ele></trkpt>
   <trkpt lat="68.573921" lon="16.438608"><ele>192.2</ele></trkpt>
   <trkpt lat="68.574135" lon="16.438540"><ele>193.6</ele></trkpt>
   <trkpt lat="68.574482" lon="16.438916"><ele>195.2</ele></trkpt>
   <trkpt lat="68.574799" lon="16.438799"><ele>199.0</ele></trkpt>
   <trkpt lat="68.575372" lon="16.437277"><ele>220.4</ele></trkpt>
   <trkpt lat="68.575562" lon="16.436430"><ele>223.4</ele></trkpt>
   <trkpt lat="68.576029" lon="16.435077"><ele>235.0</ele></trkpt>
   <trkpt lat="68.576223" lon="16.434091"><ele>239.2</ele></trkpt>
   <trkpt lat="68.576680" lon="16.433012"><ele>248.4</ele></trkpt>
   <trkpt lat="68.577345" lon="16.430412"><ele>272.8</ele></trkpt>
   <trkpt lat="68.577871" lon="16.428942"><ele>288.0</ele></trkpt>
   <trkpt lat="68.578692" lon="16.427326"><ele>299.2</ele></trkpt>
   <trkpt lat="68.578999" lon="16.426478"><ele>320.0</ele></trkpt>
   <trkpt lat="68.579169" lon="16.426385"><ele>328.2</ele></trkpt>
   <trkpt lat="68.579530" lon="16.425391"><ele>367.8</ele></trkpt>
   <trkpt lat="68.579794" lon="16.425316"><ele>387.4</ele></trkpt>
   <trkpt lat="68.579973" lon="16.424591"><ele>389.6</ele></trkpt>
   <trkpt lat="68.579785" lon="16.424063"><ele>407.8</ele></trkpt>
   <trkpt lat="68.579606" lon="16.421451"><ele>442.0</ele></trkpt>
   <trkpt lat="68.579310" lon="16.419319"><ele>463.8</ele></trkpt>
   <trkpt lat="68.579412" lon="16.418635"><ele>474.8</ele></trkpt>
   <trkpt lat="68.579297" lon="16.415913"><ele>501.2</ele></trkpt>
   <trkpt lat="68.579175" lon="16.415313"><ele>506.6</ele></trkpt>
   <trkpt lat="68.579204" lon="16.414103"><ele>517.2</ele></trkpt>
   <trkpt lat="68.579072" lon="16.413217"><ele>520.0</ele></trkpt>
   <trkpt lat="68.579503" lon="16.412422"><ele>524.6</ele></trkpt>
   <trkpt lat="68.579687" lon="16.407995"><ele>555.6</ele></trkpt>
   <trkpt lat="68.580028" lon="16.407725"><ele>559.8</ele></trkpt>
   <trkpt lat="68.580585" lon="16.407628"><ele>570.6</ele></trkpt>
   <trkpt lat="68.581111" lon="16.406977"><ele>591.8</ele></trkpt>
   <trkpt lat="68.581286" lon="16.406957"><ele>595.0</ele></trkpt>
   <trkpt lat="68.581473" lon="16.407276"><ele>602.2</ele></trkpt>
   <trkpt lat="68.581826" lon="16.405273"><ele>636.8</ele></trkpt>
   <trkpt lat="68.581964" lon="16.405275"><ele>648.0</ele></trkpt>
   <trkpt lat="68.582155" lon="16.404589"><ele>657.8</ele></trkpt>
   <trkpt lat="68.582551" lon="16.403930"><ele>667.4</ele></trkpt>
   <trkpt lat="68.582767" lon="16.402967"><ele>679.6</ele></trkpt>
   <trkpt lat="68.582885" lon="16.402883"><ele>682.2</ele></trkpt>
   <trkpt lat="68.583021" lon="16.402169"><ele>687.6</ele></trkpt>
   <trkpt lat="68.583056" lon="16.401402"><ele>693.8</ele></trkpt>
   <trkpt lat="68.583199" lon="16.400612"><ele>697.8</ele></trkpt>
   <trkpt lat="68.583286" lon="16.400507"><ele>697.4</ele></trkpt>
   <trkpt lat="68.583295" lon="16.399394"><ele>705.8</ele></trkpt>
   <trkpt lat="68.583083" lon="16.397349"><ele>724.0</ele></trkpt>
   <trkpt lat="68.583219" lon="16.396237"><ele>730.0</ele></trkpt>
   <trkpt lat="68.583287" lon="16.394250"><ele>733.2</ele></trkpt>
   <trkpt lat="68.583386" lon="16.393703"><ele>737.8</ele></trkpt>
   <trkpt lat="68.583165" lon="16.389934"><ele>766.0</ele></trkpt>
   <trkpt lat="68.583271" lon="16.389697"><ele>769.6</ele></trkpt>
   <trkpt lat="68.583328" lon="16.389093"><ele>775.4</ele></trkpt>
   <trkpt lat="68.583263" lon="16.388235"><ele>782.0</ele></trkpt>
   <trkpt lat="68.583385" lon="16.387473"><ele>788.0</ele></trkpt>
   <trkpt lat="68.583408" lon="16.386437"><ele>794.8</ele></trkpt>
   <trkpt lat="68.583719" lon="16.385547"><ele>808.6</ele></trkpt>
   <trkpt lat="68.583717" lon="16.384621"><ele>813.2</ele></trkpt>
   <trkpt lat="68.583854" lon="16.384741"><ele>812.8</ele></trkpt>
   <trkpt lat="68.583715" lon="16.384671"><ele>814.0</ele></trkpt>
   <trkpt lat="68.583723" lon="16.384250"><ele>816.4</ele></trkpt>
   <trkpt lat="68.584030" lon="16.382643"><ele>826.2</ele></trkpt>
   <trkpt lat="68.584054" lon="16.381941"><ele>834.4</ele></trkpt>
   <trkpt lat="68.584337" lon="16.380868"><ele>848.6</ele></trkpt>
   <trkpt lat="68.584520" lon="16.379225"><ele>864.4</ele></trkpt>
   <trkpt lat="68.584648" lon="16.378665"><ele>872.0</ele></trkpt>
   <trkpt lat="68.584672" lon="16.377943"><ele>883.8</ele></trkpt>
   <trkpt lat="68.584818" lon="16.376999"><ele>896.2</ele></trkpt>
   <trkpt lat="68.584787" lon="16.376575"><ele>901.4</ele></trkpt>
   <trkpt lat="68.584937" lon="16.376032"><ele>913.6</ele></trkpt>
   <trkpt lat="68.584891" lon="16.375311"><ele>930.0</ele></trkpt>
   <trkpt lat="68.585288" lon="16.374065"><ele>943.8</ele></trkpt>
   <trkpt lat="68.585339" lon="16.373381"><ele>951.4</ele></trkpt>
   <trkpt lat="68.585622" lon="16.372583"><ele>967.0</ele></trkpt>
   <trkpt lat="68.585931" lon="16.370660"><ele>1013.2</ele></trkpt>
   <trkpt lat="68.585906" lon="16.370316"><ele>1013.2</ele></trkpt>
   <trkpt lat="68.585995" lon="16.370281"><ele>1018.4</ele></trkpt>
   <trkpt lat="68.586175" lon="16.369530"><ele>1032.8</ele></trkpt>
   <trkpt lat="68.586118" lon="16.367629"><ele>1088.6</ele></trkpt>
   <trkpt lat="68.586200" lon="16.365280"><ele>1091.0</ele></trkpt>
   <trkpt lat="68.586773" lon="16.364428"><ele>1123.6</ele></trkpt>
   <trkpt lat="68.586683" lon="16.362471"><ele>1144.6</ele></trkpt>
   <trkpt lat="68.586573" lon="16.362075"><ele>1146.0</ele></trkpt>
   <trkpt lat="68.586725" lon="16.361908"><ele>1146.4</ele></trkpt>
   <trkpt lat="68.586493" lon="16.362112"><ele>1142.8</ele></trkpt>
   <trkpt lat="68.586078" lon="16.360032"><ele>1138.8</ele></trkpt>
   <trkpt lat="68.586254" lon="16.360653"><ele>1139.0</ele></trkpt>
   <trkpt lat="68.586437" lon="16.361942"><ele>1142.0</ele></trkpt>
   <trkpt lat="68.586621" lon="16.362025"><ele>1143.8</ele></trkpt>
   <trkpt lat="68.586532" lon="16.362242"><ele>1143.0</ele></trkpt>
   <trkpt lat="68.586601" lon="16.362131"><ele>1143.8</ele></trkpt>
  </trkseg>
 </trk>
</gpx>
