<?xml version="1.0" encoding="UTF-8"?>
<gpx version="1.1" creator="HPGT flysteder" xmlns="http://www.topografix.com/GPX/1/1">
 <trk>
  <name>Sætertinden – Sørsiden: parkering til start</name>
  <trkseg>
   <trkpt lat="68.569078" lon="16.397504"><ele>12.8</ele></trkpt>
   <trkpt lat="68.568858" lon="16.383012"><ele>13.4</ele></trkpt>
   <trkpt lat="68.568969" lon="16.377941"><ele>12.6</ele></trkpt>
   <trkpt lat="68.569061" lon="16.377322"><ele>11.8</ele></trkpt>
   <trkpt lat="68.569565" lon="16.377359"><ele>27.0</ele></trkpt>
   <trkpt lat="68.569623" lon="16.377644"><ele>29.6</ele></trkpt>
   <trkpt lat="68.569672" lon="16.377529"><ele>32.2</ele></trkpt>
   <trkpt lat="68.569730" lon="16.377677"><ele>36.0</ele></trkpt>
   <trkpt lat="68.569864" lon="16.377436"><ele>41.6</ele></trkpt>
   <trkpt lat="68.570322" lon="16.377482"><ele>52.6</ele></trkpt>
   <trkpt lat="68.570514" lon="16.377121"><ele>59.2</ele></trkpt>
   <trkpt lat="68.570886" lon="16.377455"><ele>72.6</ele></trkpt>
   <trkpt lat="68.571267" lon="16.377192"><ele>98.0</ele></trkpt>
   <trkpt lat="68.571636" lon="16.377400"><ele>112.2</ele></trkpt>
   <trkpt lat="68.571810" lon="16.377241"><ele>122.6</ele></trkpt>
   <trkpt lat="68.571949" lon="16.377387"><ele>128.2</ele></trkpt>
   <trkpt lat="68.572166" lon="16.377156"><ele>138.2</ele></trkpt>
   <trkpt lat="68.572248" lon="16.377365"><ele>149.2</ele></trkpt>
   <trkpt lat="68.572664" lon="16.377352"><ele>169.6</ele></trkpt>
   <trkpt lat="68.573064" lon="16.376707"><ele>184.4</ele></trkpt>
   <trkpt lat="68.573300" lon="16.376764"><ele>195.2</ele></trkpt>
   <trkpt lat="68.573280" lon="16.376508"><ele>201.4</ele></trkpt>
   <trkpt lat="68.573488" lon="16.376125"><ele>215.0</ele></trkpt>
   <trkpt lat="68.573702" lon="16.376092"><ele>227.6</ele></trkpt>
   <trkpt lat="68.573785" lon="16.375858"><ele>242.6</ele></trkpt>
   <trkpt lat="68.574194" lon="16.375559"><ele>265.0</ele></trkpt>
   <trkpt lat="68.574654" lon="16.374047"><ele>308.8</ele></trkpt>
   <trkpt lat="68.575404" lon="16.373905"><ele>350.6</ele></trkpt>
   <trkpt lat="68.575550" lon="16.374127"><ele>353.8</ele></trkpt>
   <trkpt lat="68.575724" lon="16.373757"><ele>364.2</ele></trkpt>
   <trkpt lat="68.576053" lon="16.373505"><ele>382.6</ele></trkpt>
   <trkpt lat="68.576335" lon="16.373659"><ele>392.4</ele></trkpt>
   <trkpt lat="68.576607" lon="16.373538"><ele>397.6</ele></trkpt>
   <trkpt lat="68.576671" lon="16.373345"><ele>402.0</ele></trkpt>
   <trkpt lat="68.576853" lon="16.373477"><ele>417.0</ele></trkpt>
   <trkpt lat="68.577097" lon="16.373189"><ele>438.4</ele></trkpt>
   <trkpt lat="68.577299" lon="16.372197"><ele>446.4</ele></trkpt>
   <trkpt lat="68.577394" lon="16.372262"><ele>450.4</ele></trkpt>
   <trkpt lat="68.577323" lon="16.372353"><ele>449.8</ele></trkpt>
   <trkpt lat="68.577545" lon="16.372023"><ele>468.4</ele></trkpt>
   <trkpt lat="68.577891" lon="16.372060"><ele>496.4</ele></trkpt>
   <trkpt lat="68.577980" lon="16.371988"><ele>498.6</ele></trkpt>
   <trkpt lat="68.577930" lon="16.371974"><ele>502.8</ele></trkpt>
   <trkpt lat="68.577955" lon="16.371802"><ele>506.6</ele></trkpt>
   <trkpt lat="68.578110" lon="16.371691"><ele>515.8</ele></trkpt>
   <trkpt lat="68.578480" lon="16.371993"><ele>529.2</ele></trkpt>
   <trkpt lat="68.578869" lon="16.370957"><ele>551.6</ele></trkpt>
   <trkpt lat="68.579350" lon="16.371056"><ele>568.6</ele></trkpt>
   <trkpt lat="68.579483" lon="16.370896"><ele>569.4</ele></trkpt>
   <trkpt lat="68.579579" lon="16.371217"><ele>574.0</ele></trkpt>
   <trkpt lat="68.579823" lon="16.371390"><ele>579.4</ele></trkpt>
   <trkpt lat="68.579924" lon="16.371274"><ele>581.6</ele></trkpt>
   <trkpt lat="68.580196" lon="16.371758"><ele>597.4</ele></trkpt>
   <trkpt lat="68.580248" lon="16.371590"><ele>604.2</ele></trkpt>
   <trkpt lat="68.580685" lon="16.371452"><ele>624.2</ele></trkpt>
   <trkpt lat="68.581012" lon="16.371657"><ele>655.4</ele></trkpt>
   <trkpt lat="68.581374" lon="16.371372"><ele>674.6</ele></trkpt>
   <trkpt lat="68.581304" lon="16.371518"><ele>674.4</ele></trkpt>
   <trkpt lat="68.581595" lon="16.371448"><ele>674.4</ele></trkpt>
   <trkpt lat="68.581832" lon="16.371043"><ele>671.0</ele></trkpt>
   <trkpt lat="68.582218" lon="16.371030"><ele>682.0</ele></trkpt>
   <trkpt lat="68.582387" lon="16.370727"><ele>689.0</ele></trkpt>
   <trkpt lat="68.582623" lon="16.370710"><ele>701.6</ele></trkpt>
   <trkpt lat="68.583133" lon="16.369403"><ele>753.4</ele></trkpt>
   <trkpt lat="68.583288" lon="16.369450"><ele>763.6</ele></trkpt>
   <trkpt lat="68.583405" lon="16.369098"><ele>768.2</ele></trkpt>
   <trkpt lat="68.583426" lon="16.368465"><ele>777.4</ele></trkpt>
   <trkpt lat="68.583864" lon="16.368055"><ele>787.0</ele></trkpt>
   <trkpt lat="68.583886" lon="16.367870"><ele>788.0</ele></trkpt>
   <trkpt lat="68.584128" lon="16.367991"><ele>796.6</ele></trkpt>
   <trkpt lat="68.584345" lon="16.367484"><ele>810.8</ele></trkpt>
   <trkpt lat="68.584465" lon="16.367527"><ele>817.6</ele></trkpt>
   <trkpt lat="68.584467" lon="16.367676"><ele>817.8</ele></trkpt>
   <trkpt lat="68.584571" lon="16.367599"><ele>820.8</ele></trkpt>
   <trkpt lat="68.585166" lon="16.369110"><ele>885.2</ele></trkpt>
   <trkpt lat="68.584948" lon="16.368675"><ele>891.4</ele></trkpt>
   <trkpt lat="68.585050" lon="16.368703"><ele>894.2</ele></trkpt>
   <trkpt lat="68.584943" lon="16.368608"><ele>900.2</ele></trkpt>
   <trkpt lat="68.585036" lon="16.368874"><ele>907.6</ele></trkpt>
   <trkpt lat="68.584853" lon="16.368559"><ele>918.2</ele></trkpt>
   <trkpt lat="68.585040" lon="16.368701"><ele>918.6</ele></trkpt>
   <trkpt lat="68.585079" lon="16.368546"><ele>918.2</ele></trkpt>
   <trkpt lat="68.585044" lon="16.368675"><ele>918.4</ele></trkpt>
   <trkpt lat="68.585105" lon="16.368820"><ele>918.4</ele></trkpt>
   <trkpt lat="68.584977" lon="16.368601"><ele>919.0</ele></trkpt>
   <trkpt lat="68.585209" lon="16.368810"><ele>920.0</ele></trkpt>
   <trkpt lat="68.585058" lon="16.368482"><ele>920.4</ele></trkpt>
   <trkpt lat="68.585236" lon="16.368568"><ele>919.8</ele></trkpt>
   <trkpt lat="68.584915" lon="16.368414"><ele>920.4</ele></trkpt>
   <trkpt lat="68.584807" lon="16.368155"><ele>919.6</ele></trkpt>
   <trkpt lat="68.585029" lon="16.368455"><ele>918.0</ele></trkpt>
   <trkpt lat="68.584842" lon="16.368288"><ele>918.0</ele></trkpt>
   <trkpt lat="68.585047" lon="16.368707"><ele>913.4</ele></trkpt>
   <trkpt lat="68.585004" lon="16.368763"><ele>913.2</ele></trkpt>
   <trkpt lat="68.585121" lon="16.368791"><ele>912.0</ele></trkpt>
   <trkpt lat="68.584953" lon="16.368834"><ele>910.2</ele></trkpt>
   <trkpt lat="68.585009" lon="16.368644"><ele>909.6</ele></trkpt>
   <trkpt lat="68.585082" lon="16.368718"><ele>910.4</ele></trkpt>
   <trkpt lat="68.585046" lon="16.368869"><ele>910.4</ele></trkpt>
   <trkpt lat="68.584931" lon="16.368266"><ele>909.4</ele></trkpt>
   <trkpt lat="68.585185" lon="16.368753"><ele>908.4</ele></trkpt>
   <trkpt lat="68.585167" lon="16.368889"><ele>907.0</ele></trkpt>
   <trkpt lat="68.585040" lon="16.368745"><ele>906.2</ele></trkpt>
   <trkpt lat="68.585099" lon="16.368926"><ele>905.6</ele></trkpt>
   <trkpt lat="68.584985" lon="16.368855"><ele>905.6</ele></trkpt>
   <trkpt lat="68.585132" lon="16.368939"><ele>905.8</ele></trkpt>
   <trkpt lat="68.584935" lon="16.368646"><ele>905.4</ele></trkpt>
   <trkpt lat="68.585242" lon="16.369052"><ele>905.6</ele></trkpt>
   <trkpt lat="68.585360" lon="16.369450"><ele>905.8</ele></trkpt>
   <trkpt lat="68.585430" lon="16.369517"><ele>907.6</ele></trkpt>
   <trkpt lat="68.585380" lon="16.369308"><ele>904.6</ele></trkpt>
   <trkpt lat="68.585500" lon="16.369203"><ele>907.4</ele></trkpt>
   <trkpt lat="68.585352" lon="16.369402"><ele>906.0</ele></trkpt>
   <trkpt lat="68.585393" lon="16.369567"><ele>906.2</ele></trkpt>
   <trkpt lat="68.585346" lon="16.369107"><ele>912.6</ele></trkpt>
   <trkpt lat="68.585399" lon="16.369139"><ele>915.4</ele></trkpt>
   <trkpt lat="68.585299" lon="16.369307"><ele>907.4</ele></trkpt>
   <trkpt lat="68.585183" lon="16.368923"><ele>897.2</ele></trkpt>
   <trkpt lat="68.585193" lon="16.369053"><ele>897.2</ele></trkpt>
   <trkpt lat="68.585109" lon="16.368958"><ele>896.8</ele></trkpt>
   <trkpt lat="68.585142" lon="16.369178"><ele>891.4</ele></trkpt>
   <trkpt lat="68.585096" lon="16.369013"><ele>889.4</ele></trkpt>
   <trkpt lat="68.585004" lon="16.369140"><ele>884.6</ele></trkpt>
   <trkpt lat="68.585009" lon="16.369310"><ele>883.0</ele></trkpt>
   <trkpt lat="68.584943" lon="16.369065"><ele>879.8</ele></trkpt>
   <trkpt lat="68.584888" lon="16.370491"><ele>866.8</ele></trkpt>
   <trkpt lat="68.584764" lon="16.370645"><ele>862.6</ele></trkpt>
   <trkpt lat="68.584814" lon="16.371827"><ele>865.6</ele></trkpt>
   <trkpt lat="68.584669" lon="16.373122"><ele>873.0</ele></trkpt>
   <trkpt lat="68.584860" lon="16.373833"><ele>901.2</ele></trkpt>
   <trkpt lat="68.584866" lon="16.374497"><ele>916.2</ele></trkpt>
   <trkpt lat="68.584991" lon="16.374539"><ele>918.0</ele></trkpt>
   <trkpt lat="68.585255" lon="16.373660"><ele>933.0</ele></trkpt>
   <trkpt lat="68.585440" lon="16.372136"><ele>952.8</ele></trkpt>
   <trkpt lat="68.585666" lon="16.371995"><ele>960.0</ele></trkpt>
   <trkpt lat="68.585924" lon="16.370976"><ele>979.6</ele></trkpt>
   <trkpt lat="68.585919" lon="16.370574"><ele>985.4</ele></trkpt>
   <trkpt lat="68.585749" lon="16.370162"><ele>989.4</ele></trkpt>
   <trkpt lat="68.585963" lon="16.370309"><ele>985.4</ele></trkpt>
   <trkpt lat="68.586062" lon="16.369845"><ele>993.2</ele></trkpt>
   <trkpt lat="68.586027" lon="16.369028"><ele>1005.4</ele></trkpt>
   <trkpt lat="68.586160" lon="16.366869"><ele>1036.0</ele></trkpt>
   <trkpt lat="68.586255" lon="16.366677"><ele>1039.4</ele></trkpt>
   <trkpt lat="68.586503" lon="16.366734"><ele>1044.4</ele></trkpt>
   <trkpt lat="68.586993" lon="16.364811"><ele>1089.0</ele></trkpt>
   <trkpt lat="68.586967" lon="16.363991"><ele>1098.4</ele></trkpt>
   <trkpt lat="68.586799" lon="16.362909"><ele>1111.4</ele></trkpt>
   <trkpt lat="68.586420" lon="16.362010"><ele>1113.6</ele></trkpt>
   <trkpt lat="68.586297" lon="16.361288"><ele>1111.2</ele></trkpt>
   <trkpt lat="68.586139" lon="16.360981"><ele>1110.6</ele></trkpt>
   <trkpt lat="68.586117" lon="16.361183"><ele>1111.0</ele></trkpt>
   <trkpt lat="68.586172" lon="16.361100"><ele>1097.6</ele></trkpt>
  </trkseg>
 </trk>
</gpx>
