<?xml version="1.0" encoding="UTF-8"?>
<gpx version="1.1" creator="HPGT flysteder" xmlns="http://www.topografix.com/GPX/1/1">
 <trk>
  <name>Storlitinden – vinterparkering til start</name>
  <trkseg>
   <trkpt lat="68.779472" lon="16.337579"><ele>57.8</ele></trkpt>
   <trkpt lat="68.779472" lon="16.337579"><ele>57.8</ele></trkpt>
   <trkpt lat="68.779472" lon="16.337579"><ele>58.4</ele></trkpt>
   <trkpt lat="68.779472" lon="16.337579"><ele>58.8</ele></trkpt>
   <trkpt lat="68.779472" lon="16.337579"><ele>59.8</ele></trkpt>
   <trkpt lat="68.779472" lon="16.337579"><ele>60.8</ele></trkpt>
   <trkpt lat="68.779468" lon="16.337584"><ele>61.0</ele></trkpt>
   <trkpt lat="68.779477" lon="16.337586"><ele>61.2</ele></trkpt>
   <trkpt lat="68.779477" lon="16.337494"><ele>59.8</ele></trkpt>
   <trkpt lat="68.779488" lon="16.337406"><ele>59.8</ele></trkpt>
   <trkpt lat="68.779491" lon="16.337395"><ele>59.8</ele></trkpt>
   <trkpt lat="68.779516" lon="16.337348"><ele>60.2</ele></trkpt>
   <trkpt lat="68.779535" lon="16.337319"><ele>60.4</ele></trkpt>
   <trkpt lat="68.779543" lon="16.337246"><ele>61.0</ele></trkpt>
   <trkpt lat="68.779549" lon="16.337179"><ele>61.6</ele></trkpt>
   <trkpt lat="68.779563" lon="16.337116"><ele>61.8</ele></trkpt>
   <trkpt lat="68.779580" lon="16.337071"><ele>62.2</ele></trkpt>
   <trkpt lat="68.779587" lon="16.337071"><ele>62.6</ele></trkpt>
   <trkpt lat="68.779596" lon="16.337044"><ele>62.6</ele></trkpt>
   <trkpt lat="68.779621" lon="16.336960"><ele>63.0</ele></trkpt>
   <trkpt lat="68.779626" lon="16.336949"><ele>63.0</ele></trkpt>
   <trkpt lat="68.779635" lon="16.336914"><ele>63.4</ele></trkpt>
   <trkpt lat="68.779654" lon="16.336831"><ele>63.8</ele></trkpt>
   <trkpt lat="68.779669" lon="16.336791"><ele>64.2</ele></trkpt>
   <trkpt lat="68.779695" lon="16.336724"><ele>64.6</ele></trkpt>
   <trkpt lat="68.779729" lon="16.336601"><ele>65.4</ele></trkpt>
   <trkpt lat="68.779742" lon="16.336529"><ele>65.6</ele></trkpt>
   <trkpt lat="68.779771" lon="16.336403"><ele>66.2</ele></trkpt>
   <trkpt lat="68.779785" lon="16.336357"><ele>66.4</ele></trkpt>
   <trkpt lat="68.779790" lon="16.336339"><ele>66.4</ele></trkpt>
   <trkpt lat="68.779796" lon="16.336317"><ele>66.8</ele></trkpt>
   <trkpt lat="68.779819" lon="16.336257"><ele>67.2</ele></trkpt>
   <trkpt lat="68.779851" lon="16.336161"><ele>67.6</ele></trkpt>
   <trkpt lat="68.779870" lon="16.336070"><ele>67.8</ele></trkpt>
   <trkpt lat="68.779909" lon="16.335938"><ele>68.8</ele></trkpt>
   <trkpt lat="68.779928" lon="16.335894"><ele>69.2</ele></trkpt>
   <trkpt lat="68.779965" lon="16.335771"><ele>69.8</ele></trkpt>
   <trkpt lat="68.779972" lon="16.335749"><ele>70.0</ele></trkpt>
   <trkpt lat="68.779980" lon="16.335728"><ele>70.0</ele></trkpt>
   <trkpt lat="68.780003" lon="16.335662"><ele>70.6</ele></trkpt>
   <trkpt lat="68.780035" lon="16.335580"><ele>71.0</ele></trkpt>
   <trkpt lat="68.780050" lon="16.335514"><ele>71.4</ele></trkpt>
   <trkpt lat="68.780081" lon="16.335407"><ele>72.2</ele></trkpt>
   <trkpt lat="68.780127" lon="16.335282"><ele>72.6</ele></trkpt>
   <trkpt lat="68.780133" lon="16.335250"><ele>72.6</ele></trkpt>
   <trkpt lat="68.780163" lon="16.335157"><ele>73.2</ele></trkpt>
   <trkpt lat="68.780206" lon="16.335026"><ele>73.6</ele></trkpt>
   <trkpt lat="68.780211" lon="16.334999"><ele>73.8</ele></trkpt>
   <trkpt lat="68.780257" lon="16.334852"><ele>73.6</ele></trkpt>
   <trkpt lat="68.780304" lon="16.334693"><ele>73.6</ele></trkpt>
   <trkpt lat="68.780320" lon="16.334646"><ele>73.6</ele></trkpt>
   <trkpt lat="68.780350" lon="16.334573"><ele>73.6</ele></trkpt>
   <trkpt lat="68.780393" lon="16.334458"><ele>74.0</ele></trkpt>
   <trkpt lat="68.780426" lon="16.334361"><ele>74.2</ele></trkpt>
   <trkpt lat="68.780444" lon="16.334320"><ele>74.6</ele></trkpt>
   <trkpt lat="68.780481" lon="16.334153"><ele>75.2</ele></trkpt>
   <trkpt lat="68.780511" lon="16.334059"><ele>75.4</ele></trkpt>
   <trkpt lat="68.780521" lon="16.334011"><ele>75.6</ele></trkpt>
   <trkpt lat="68.780552" lon="16.333860"><ele>76.4</ele></trkpt>
   <trkpt lat="68.780558" lon="16.333838"><ele>76.4</ele></trkpt>
   <trkpt lat="68.780566" lon="16.333808"><ele>76.4</ele></trkpt>
   <trkpt lat="68.780585" lon="16.333732"><ele>76.6</ele></trkpt>
   <trkpt lat="68.780610" lon="16.333675"><ele>77.2</ele></trkpt>
   <trkpt lat="68.780626" lon="16.333643"><ele>77.4</ele></trkpt>
   <trkpt lat="68.780635" lon="16.333620"><ele>77.6</ele></trkpt>
   <trkpt lat="68.780676" lon="16.333458"><ele>78.4</ele></trkpt>
   <trkpt lat="68.780687" lon="16.333404"><ele>78.8</ele></trkpt>
   <trkpt lat="68.780693" lon="16.333381"><ele>79.0</ele></trkpt>
   <trkpt lat="68.780712" lon="16.333315"><ele>79.2</ele></trkpt>
   <trkpt lat="68.780741" lon="16.333230"><ele>79.4</ele></trkpt>
   <trkpt lat="68.780751" lon="16.333208"><ele>79.6</ele></trkpt>
   <trkpt lat="68.780765" lon="16.333173"><ele>80.0</ele></trkpt>
   <trkpt lat="68.780799" lon="16.333093"><ele>80.6</ele></trkpt>
   <trkpt lat="68.780817" lon="16.333053"><ele>80.6</ele></trkpt>
   <trkpt lat="68.780843" lon="16.332991"><ele>81.2</ele></trkpt>
   <trkpt lat="68.780858" lon="16.332956"><ele>81.4</ele></trkpt>
   <trkpt lat="68.780899" lon="16.332851"><ele>82.2</ele></trkpt>
   <trkpt lat="68.780948" lon="16.332737"><ele>83.2</ele></trkpt>
   <trkpt lat="68.780955" lon="16.332721"><ele>83.4</ele></trkpt>
   <trkpt lat="68.780988" lon="16.332636"><ele>83.6</ele></trkpt>
   <trkpt lat="68.781007" lon="16.332593"><ele>83.8</ele></trkpt>
   <trkpt lat="68.781071" lon="16.332486"><ele>83.8</ele></trkpt>
   <trkpt lat="68.781107" lon="16.332415"><ele>83.8</ele></trkpt>
   <trkpt lat="68.781164" lon="16.332347"><ele>84.4</ele></trkpt>
   <trkpt lat="68.781194" lon="16.332312"><ele>84.6</ele></trkpt>
   <trkpt lat="68.781212" lon="16.332293"><ele>84.6</ele></trkpt>
   <trkpt lat="68.781220" lon="16.332281"><ele>84.6</ele></trkpt>
   <trkpt lat="68.781285" lon="16.332182"><ele>85.0</ele></trkpt>
   <trkpt lat="68.781333" lon="16.332123"><ele>85.2</ele></trkpt>
   <trkpt lat="68.781345" lon="16.332113"><ele>85.4</ele></trkpt>
   <trkpt lat="68.781414" lon="16.332055"><ele>85.8</ele></trkpt>
   <trkpt lat="68.781446" lon="16.332037"><ele>85.4</ele></trkpt>
   <trkpt lat="68.781512" lon="16.332023"><ele>85.8</ele></trkpt>
   <trkpt lat="68.781550" lon="16.332013"><ele>86.0</ele></trkpt>
   <trkpt lat="68.781619" lon="16.332033"><ele>86.2</ele></trkpt>
   <trkpt lat="68.781643" lon="16.332042"><ele>86.2</ele></trkpt>
   <trkpt lat="68.781666" lon="16.332059"><ele>86.6</ele></trkpt>
   <trkpt lat="68.781679" lon="16.332067"><ele>86.6</ele></trkpt>
   <trkpt lat="68.781716" lon="16.332089"><ele>86.6</ele></trkpt>
   <trkpt lat="68.781789" lon="16.332129"><ele>87.2</ele></trkpt>
   <trkpt lat="68.781801" lon="16.332135"><ele>87.4</ele></trkpt>
   <trkpt lat="68.781820" lon="16.332161"><ele>87.6</ele></trkpt>
   <trkpt lat="68.781832" lon="16.332172"><ele>87.8</ele></trkpt>
   <trkpt lat="68.781883" lon="16.332221"><ele>88.2</ele></trkpt>
   <trkpt lat="68.781900" lon="16.332241"><ele>88.8</ele></trkpt>
   <trkpt lat="68.781950" lon="16.332313"><ele>89.8</ele></trkpt>
   <trkpt lat="68.781958" lon="16.332325"><ele>89.8</ele></trkpt>
   <trkpt lat="68.781983" lon="16.332349"><ele>90.6</ele></trkpt>
   <trkpt lat="68.782011" lon="16.332370"><ele>90.8</ele></trkpt>
   <trkpt lat="68.782039" lon="16.332423"><ele>91.2</ele></trkpt>
   <trkpt lat="68.782051" lon="16.332431"><ele>91.6</ele></trkpt>
   <trkpt lat="68.782069" lon="16.332450"><ele>91.8</ele></trkpt>
   <trkpt lat="68.782081" lon="16.332468"><ele>92.0</ele></trkpt>
   <trkpt lat="68.782091" lon="16.332486"><ele>92.2</ele></trkpt>
   <trkpt lat="68.782128" lon="16.332543"><ele>92.8</ele></trkpt>
   <trkpt lat="68.782150" lon="16.332561"><ele>93.0</ele></trkpt>
   <trkpt lat="68.782181" lon="16.332592"><ele>93.2</ele></trkpt>
   <trkpt lat="68.782247" lon="16.332665"><ele>94.0</ele></trkpt>
   <trkpt lat="68.782255" lon="16.332676"><ele>94.2</ele></trkpt>
   <trkpt lat="68.782295" lon="16.332714"><ele>94.6</ele></trkpt>
   <trkpt lat="68.782358" lon="16.332745"><ele>95.2</ele></trkpt>
   <trkpt lat="68.782379" lon="16.332754"><ele>95.2</ele></trkpt>
   <trkpt lat="68.782427" lon="16.332789"><ele>95.6</ele></trkpt>
   <trkpt lat="68.782438" lon="16.332792"><ele>95.6</ele></trkpt>
   <trkpt lat="68.782450" lon="16.332790"><ele>95.8</ele></trkpt>
   <trkpt lat="68.782488" lon="16.332790"><ele>96.2</ele></trkpt>
   <trkpt lat="68.782500" lon="16.332790"><ele>96.4</ele></trkpt>
   <trkpt lat="68.782529" lon="16.332794"><ele>96.4</ele></trkpt>
   <trkpt lat="68.782611" lon="16.332802"><ele>96.4</ele></trkpt>
   <trkpt lat="68.782625" lon="16.332799"><ele>96.4</ele></trkpt>
   <trkpt lat="68.782705" lon="16.332800"><ele>96.8</ele></trkpt>
   <trkpt lat="68.782720" lon="16.332796"><ele>96.6</ele></trkpt>
   <trkpt lat="68.782734" lon="16.332792"><ele>96.8</ele></trkpt>
   <trkpt lat="68.782785" lon="16.332779"><ele>96.8</ele></trkpt>
   <trkpt lat="68.782806" lon="16.332765"><ele>96.8</ele></trkpt>
   <trkpt lat="68.782832" lon="16.332756"><ele>96.6</ele></trkpt>
   <trkpt lat="68.782871" lon="16.332759"><ele>96.8</ele></trkpt>
   <trkpt lat="68.782949" lon="16.332741"><ele>97.2</ele></trkpt>
   <trkpt lat="68.782960" lon="16.332744"><ele>97.4</ele></trkpt>
   <trkpt lat="68.782995" lon="16.332728"><ele>97.4</ele></trkpt>
   <trkpt lat="68.783039" lon="16.332687"><ele>97.6</ele></trkpt>
   <trkpt lat="68.783058" lon="16.332682"><ele>97.8</ele></trkpt>
   <trkpt lat="68.783084" lon="16.332657"><ele>98.2</ele></trkpt>
   <trkpt lat="68.783091" lon="16.332657"><ele>98.4</ele></trkpt>
   <trkpt lat="68.783098" lon="16.332654"><ele>98.6</ele></trkpt>
   <trkpt lat="68.783135" lon="16.332626"><ele>99.2</ele></trkpt>
   <trkpt lat="68.783163" lon="16.332631"><ele>99.8</ele></trkpt>
   <trkpt lat="68.783180" lon="16.332636"><ele>99.8</ele></trkpt>
   <trkpt lat="68.783196" lon="16.332630"><ele>100.0</ele></trkpt>
   <trkpt lat="68.783211" lon="16.332613"><ele>100.6</ele></trkpt>
   <trkpt lat="68.783242" lon="16.332577"><ele>101.2</ele></trkpt>
   <trkpt lat="68.783268" lon="16.332562"><ele>101.6</ele></trkpt>
   <trkpt lat="68.783306" lon="16.332542"><ele>102.2</ele></trkpt>
   <trkpt lat="68.783327" lon="16.332535"><ele>102.8</ele></trkpt>
   <trkpt lat="68.783377" lon="16.332523"><ele>103.6</ele></trkpt>
   <trkpt lat="68.783384" lon="16.332511"><ele>103.8</ele></trkpt>
   <trkpt lat="68.783414" lon="16.332525"><ele>104.0</ele></trkpt>
   <trkpt lat="68.783451" lon="16.332511"><ele>104.2</ele></trkpt>
   <trkpt lat="68.783452" lon="16.332512"><ele>104.2</ele></trkpt>
   <trkpt lat="68.783449" lon="16.332526"><ele>104.4</ele></trkpt>
   <trkpt lat="68.783448" lon="16.332527"><ele>104.6</ele></trkpt>
   <trkpt lat="68.783448" lon="16.332527"><ele>104.6</ele></trkpt>
   <trkpt lat="68.783448" lon="16.332527"><ele>104.4</ele></trkpt>
   <trkpt lat="68.783448" lon="16.332526"><ele>104.4</ele></trkpt>
   <trkpt lat="68.783447" lon="16.332526"><ele>104.0</ele></trkpt>
   <trkpt lat="68.783445" lon="16.332527"><ele>103.8</ele></trkpt>
   <trkpt lat="68.783440" lon="16.332526"><ele>104.2</ele></trkpt>
   <trkpt lat="68.783440" lon="16.332525"><ele>104.2</ele></trkpt>
   <trkpt lat="68.783440" lon="16.332524"><ele>103.8</ele></trkpt>
   <trkpt lat="68.783438" lon="16.332523"><ele>103.2</ele></trkpt>
   <trkpt lat="68.783438" lon="16.332523"><ele>103.4</ele></trkpt>
   <trkpt lat="68.783438" lon="16.332523"><ele>103.6</ele></trkpt>
   <trkpt lat="68.783437" lon="16.332525"><ele>103.8</ele></trkpt>
   <trkpt lat="68.783436" lon="16.332527"><ele>103.8</ele></trkpt>
   <trkpt lat="68.783433" lon="16.332531"><ele>104.8</ele></trkpt>
   <trkpt lat="68.783466" lon="16.332541"><ele>105.2</ele></trkpt>
   <trkpt lat="68.783495" lon="16.332541"><ele>105.4</ele></trkpt>
   <trkpt lat="68.783554" lon="16.332526"><ele>104.2</ele></trkpt>
   <trkpt lat="68.783586" lon="16.332538"><ele>104.4</ele></trkpt>
   <trkpt lat="68.783630" lon="16.332555"><ele>105.0</ele></trkpt>
   <trkpt lat="68.783663" lon="16.332542"><ele>105.4</ele></trkpt>
   <trkpt lat="68.783672" lon="16.332539"><ele>105.6</ele></trkpt>
   <trkpt lat="68.783691" lon="16.332539"><ele>106.0</ele></trkpt>
   <trkpt lat="68.783703" lon="16.332536"><ele>106.0</ele></trkpt>
   <trkpt lat="68.783768" lon="16.332515"><ele>106.4</ele></trkpt>
   <trkpt lat="68.783816" lon="16.332526"><ele>106.6</ele></trkpt>
   <trkpt lat="68.783898" lon="16.332515"><ele>106.6</ele></trkpt>
   <trkpt lat="68.783941" lon="16.332523"><ele>106.8</ele></trkpt>
   <trkpt lat="68.783989" lon="16.332520"><ele>107.0</ele></trkpt>
   <trkpt lat="68.784047" lon="16.332525"><ele>107.6</ele></trkpt>
   <trkpt lat="68.784056" lon="16.332522"><ele>107.8</ele></trkpt>
   <trkpt lat="68.784067" lon="16.332516"><ele>108.0</ele></trkpt>
   <trkpt lat="68.784078" lon="16.332511"><ele>108.0</ele></trkpt>
   <trkpt lat="68.784122" lon="16.332512"><ele>109.0</ele></trkpt>
   <trkpt lat="68.784134" lon="16.332511"><ele>109.2</ele></trkpt>
   <trkpt lat="68.784174" lon="16.332522"><ele>110.4</ele></trkpt>
   <trkpt lat="68.784184" lon="16.332528"><ele>110.8</ele></trkpt>
   <trkpt lat="68.784216" lon="16.332540"><ele>111.6</ele></trkpt>
   <trkpt lat="68.784236" lon="16.332543"><ele>112.2</ele></trkpt>
   <trkpt lat="68.784255" lon="16.332545"><ele>112.8</ele></trkpt>
   <trkpt lat="68.784272" lon="16.332545"><ele>113.2</ele></trkpt>
   <trkpt lat="68.784283" lon="16.332548"><ele>113.6</ele></trkpt>
   <trkpt lat="68.784304" lon="16.332564"><ele>114.0</ele></trkpt>
   <trkpt lat="68.784330" lon="16.332575"><ele>115.0</ele></trkpt>
   <trkpt lat="68.784351" lon="16.332575"><ele>116.2</ele></trkpt>
   <trkpt lat="68.784358" lon="16.332579"><ele>116.4</ele></trkpt>
   <trkpt lat="68.784380" lon="16.332578"><ele>117.2</ele></trkpt>
   <trkpt lat="68.784405" lon="16.332583"><ele>118.2</ele></trkpt>
   <trkpt lat="68.784429" lon="16.332596"><ele>119.2</ele></trkpt>
   <trkpt lat="68.784437" lon="16.332601"><ele>119.8</ele></trkpt>
   <trkpt lat="68.784458" lon="16.332620"><ele>120.8</ele></trkpt>
   <trkpt lat="68.784478" lon="16.332645"><ele>121.8</ele></trkpt>
   <trkpt lat="68.784483" lon="16.332648"><ele>122.2</ele></trkpt>
   <trkpt lat="68.784491" lon="16.332650"><ele>122.6</ele></trkpt>
   <trkpt lat="68.784499" lon="16.332656"><ele>122.8</ele></trkpt>
   <trkpt lat="68.784507" lon="16.332660"><ele>123.2</ele></trkpt>
   <trkpt lat="68.784525" lon="16.332678"><ele>124.4</ele></trkpt>
   <trkpt lat="68.784554" lon="16.332674"><ele>125.2</ele></trkpt>
   <trkpt lat="68.784559" lon="16.332681"><ele>125.4</ele></trkpt>
   <trkpt lat="68.784596" lon="16.332704"><ele>126.4</ele></trkpt>
   <trkpt lat="68.784618" lon="16.332715"><ele>127.0</ele></trkpt>
   <trkpt lat="68.784643" lon="16.332720"><ele>127.6</ele></trkpt>
   <trkpt lat="68.784662" lon="16.332721"><ele>128.0</ele></trkpt>
   <trkpt lat="68.784686" lon="16.332736"><ele>128.4</ele></trkpt>
   <trkpt lat="68.784696" lon="16.332743"><ele>128.6</ele></trkpt>
   <trkpt lat="68.784716" lon="16.332766"><ele>129.2</ele></trkpt>
   <trkpt lat="68.784743" lon="16.332797"><ele>130.0</ele></trkpt>
   <trkpt lat="68.784754" lon="16.332807"><ele>130.2</ele></trkpt>
   <trkpt lat="68.784774" lon="16.332824"><ele>130.6</ele></trkpt>
   <trkpt lat="68.784788" lon="16.332836"><ele>131.2</ele></trkpt>
   <trkpt lat="68.784796" lon="16.332832"><ele>131.4</ele></trkpt>
   <trkpt lat="68.784839" lon="16.332819"><ele>132.2</ele></trkpt>
   <trkpt lat="68.784889" lon="16.332858"><ele>133.2</ele></trkpt>
   <trkpt lat="68.784899" lon="16.332866"><ele>133.4</ele></trkpt>
   <trkpt lat="68.784955" lon="16.332920"><ele>134.0</ele></trkpt>
   <trkpt lat="68.784980" lon="16.332932"><ele>134.4</ele></trkpt>
   <trkpt lat="68.785005" lon="16.332957"><ele>135.0</ele></trkpt>
   <trkpt lat="68.785014" lon="16.332970"><ele>135.2</ele></trkpt>
   <trkpt lat="68.785024" lon="16.332980"><ele>135.4</ele></trkpt>
   <trkpt lat="68.785070" lon="16.332988"><ele>136.6</ele></trkpt>
   <trkpt lat="68.785108" lon="16.333014"><ele>137.0</ele></trkpt>
   <trkpt lat="68.785148" lon="16.333032"><ele>137.8</ele></trkpt>
   <trkpt lat="68.785171" lon="16.333041"><ele>138.4</ele></trkpt>
   <trkpt lat="68.785203" lon="16.333051"><ele>139.0</ele></trkpt>
   <trkpt lat="68.785259" lon="16.333081"><ele>140.2</ele></trkpt>
   <trkpt lat="68.785325" lon="16.333099"><ele>141.4</ele></trkpt>
   <trkpt lat="68.785331" lon="16.333100"><ele>141.6</ele></trkpt>
   <trkpt lat="68.785371" lon="16.333108"><ele>142.4</ele></trkpt>
   <trkpt lat="68.785410" lon="16.333131"><ele>143.6</ele></trkpt>
   <trkpt lat="68.785419" lon="16.333130"><ele>143.6</ele></trkpt>
   <trkpt lat="68.785481" lon="16.333142"><ele>144.4</ele></trkpt>
   <trkpt lat="68.785491" lon="16.333150"><ele>144.8</ele></trkpt>
   <trkpt lat="68.785555" lon="16.333195"><ele>145.4</ele></trkpt>
   <trkpt lat="68.785576" lon="16.333207"><ele>145.8</ele></trkpt>
   <trkpt lat="68.785618" lon="16.333246"><ele>146.4</ele></trkpt>
   <trkpt lat="68.785623" lon="16.333244"><ele>146.4</ele></trkpt>
   <trkpt lat="68.785634" lon="16.333230"><ele>147.0</ele></trkpt>
   <trkpt lat="68.785644" lon="16.333200"><ele>148.0</ele></trkpt>
   <trkpt lat="68.785644" lon="16.333199"><ele>148.2</ele></trkpt>
   <trkpt lat="68.785658" lon="16.333184"><ele>148.4</ele></trkpt>
   <trkpt lat="68.785674" lon="16.333180"><ele>148.2</ele></trkpt>
   <trkpt lat="68.785707" lon="16.333151"><ele>148.2</ele></trkpt>
   <trkpt lat="68.785735" lon="16.333138"><ele>148.4</ele></trkpt>
   <trkpt lat="68.785762" lon="16.333133"><ele>148.8</ele></trkpt>
   <trkpt lat="68.785784" lon="16.333111"><ele>149.2</ele></trkpt>
   <trkpt lat="68.785819" lon="16.333102"><ele>149.6</ele></trkpt>
   <trkpt lat="68.785827" lon="16.333092"><ele>149.8</ele></trkpt>
   <trkpt lat="68.785847" lon="16.333078"><ele>150.2</ele></trkpt>
   <trkpt lat="68.785893" lon="16.333057"><ele>150.4</ele></trkpt>
   <trkpt lat="68.785963" lon="16.333046"><ele>151.2</ele></trkpt>
   <trkpt lat="68.786008" lon="16.333019"><ele>151.8</ele></trkpt>
   <trkpt lat="68.786037" lon="16.332996"><ele>152.4</ele></trkpt>
   <trkpt lat="68.786063" lon="16.332974"><ele>153.0</ele></trkpt>
   <trkpt lat="68.786108" lon="16.332951"><ele>153.6</ele></trkpt>
   <trkpt lat="68.786159" lon="16.332901"><ele>154.6</ele></trkpt>
   <trkpt lat="68.786195" lon="16.332890"><ele>155.8</ele></trkpt>
   <trkpt lat="68.786229" lon="16.332871"><ele>156.8</ele></trkpt>
   <trkpt lat="68.786239" lon="16.332869"><ele>157.0</ele></trkpt>
   <trkpt lat="68.786256" lon="16.332855"><ele>157.4</ele></trkpt>
   <trkpt lat="68.786290" lon="16.332830"><ele>157.8</ele></trkpt>
   <trkpt lat="68.786319" lon="16.332797"><ele>158.4</ele></trkpt>
   <trkpt lat="68.786364" lon="16.332771"><ele>159.2</ele></trkpt>
   <trkpt lat="68.786400" lon="16.332763"><ele>160.2</ele></trkpt>
   <trkpt lat="68.786431" lon="16.332750"><ele>161.0</ele></trkpt>
   <trkpt lat="68.786440" lon="16.332744"><ele>161.4</ele></trkpt>
   <trkpt lat="68.786478" lon="16.332731"><ele>162.4</ele></trkpt>
   <trkpt lat="68.786510" lon="16.332716"><ele>163.4</ele></trkpt>
   <trkpt lat="68.786517" lon="16.332712"><ele>163.6</ele></trkpt>
   <trkpt lat="68.786525" lon="16.332713"><ele>163.8</ele></trkpt>
   <trkpt lat="68.786576" lon="16.332706"><ele>164.6</ele></trkpt>
   <trkpt lat="68.786640" lon="16.332701"><ele>165.6</ele></trkpt>
   <trkpt lat="68.786661" lon="16.332706"><ele>165.8</ele></trkpt>
   <trkpt lat="68.786693" lon="16.332722"><ele>165.6</ele></trkpt>
   <trkpt lat="68.786736" lon="16.332690"><ele>165.4</ele></trkpt>
   <trkpt lat="68.786805" lon="16.332686"><ele>166.6</ele></trkpt>
   <trkpt lat="68.786816" lon="16.332688"><ele>166.8</ele></trkpt>
   <trkpt lat="68.786839" lon="16.332698"><ele>167.2</ele></trkpt>
   <trkpt lat="68.786867" lon="16.332690"><ele>167.4</ele></trkpt>
   <trkpt lat="68.786912" lon="16.332725"><ele>167.8</ele></trkpt>
   <trkpt lat="68.786923" lon="16.332728"><ele>168.0</ele></trkpt>
   <trkpt lat="68.786990" lon="16.332695"><ele>168.2</ele></trkpt>
   <trkpt lat="68.787024" lon="16.332704"><ele>168.6</ele></trkpt>
   <trkpt lat="68.787092" lon="16.332688"><ele>169.0</ele></trkpt>
   <trkpt lat="68.787102" lon="16.332687"><ele>169.0</ele></trkpt>
   <trkpt lat="68.787148" lon="16.332673"><ele>169.2</ele></trkpt>
   <trkpt lat="68.787216" lon="16.332664"><ele>169.4</ele></trkpt>
   <trkpt lat="68.787251" lon="16.332668"><ele>169.6</ele></trkpt>
   <trkpt lat="68.787272" lon="16.332666"><ele>169.6</ele></trkpt>
   <trkpt lat="68.787281" lon="16.332658"><ele>169.6</ele></trkpt>
   <trkpt lat="68.787291" lon="16.332647"><ele>169.8</ele></trkpt>
   <trkpt lat="68.787300" lon="16.332631"><ele>170.0</ele></trkpt>
   <trkpt lat="68.787337" lon="16.332602"><ele>170.4</ele></trkpt>
   <trkpt lat="68.787346" lon="16.332595"><ele>170.4</ele></trkpt>
   <trkpt lat="68.787365" lon="16.332561"><ele>170.0</ele></trkpt>
   <trkpt lat="68.787365" lon="16.332552"><ele>170.0</ele></trkpt>
   <trkpt lat="68.787362" lon="16.332552"><ele>169.0</ele></trkpt>
   <trkpt lat="68.787362" lon="16.332552"><ele>167.6</ele></trkpt>
   <trkpt lat="68.787377" lon="16.332525"><ele>167.2</ele></trkpt>
   <trkpt lat="68.787426" lon="16.332449"><ele>167.4</ele></trkpt>
   <trkpt lat="68.787486" lon="16.332332"><ele>167.8</ele></trkpt>
   <trkpt lat="68.787495" lon="16.332317"><ele>167.8</ele></trkpt>
   <trkpt lat="68.787511" lon="16.332295"><ele>167.8</ele></trkpt>
   <trkpt lat="68.787545" lon="16.332277"><ele>168.2</ele></trkpt>
   <trkpt lat="68.787600" lon="16.332203"><ele>168.4</ele></trkpt>
   <trkpt lat="68.787633" lon="16.332163"><ele>168.6</ele></trkpt>
   <trkpt lat="68.787640" lon="16.332149"><ele>168.8</ele></trkpt>
   <trkpt lat="68.787667" lon="16.332102"><ele>169.0</ele></trkpt>
   <trkpt lat="68.787680" lon="16.332055"><ele>169.2</ele></trkpt>
   <trkpt lat="68.787717" lon="16.331977"><ele>169.6</ele></trkpt>
   <trkpt lat="68.787736" lon="16.331964"><ele>169.8</ele></trkpt>
   <trkpt lat="68.787775" lon="16.331976"><ele>170.6</ele></trkpt>
   <trkpt lat="68.787801" lon="16.331982"><ele>170.8</ele></trkpt>
   <trkpt lat="68.787812" lon="16.331984"><ele>171.0</ele></trkpt>
   <trkpt lat="68.787873" lon="16.331984"><ele>171.6</ele></trkpt>
   <trkpt lat="68.787894" lon="16.331978"><ele>172.0</ele></trkpt>
   <trkpt lat="68.787907" lon="16.331980"><ele>172.0</ele></trkpt>
   <trkpt lat="68.787930" lon="16.331987"><ele>172.2</ele></trkpt>
   <trkpt lat="68.787958" lon="16.331999"><ele>172.4</ele></trkpt>
   <trkpt lat="68.788021" lon="16.332015"><ele>173.0</ele></trkpt>
   <trkpt lat="68.788047" lon="16.331979"><ele>173.4</ele></trkpt>
   <trkpt lat="68.788074" lon="16.331954"><ele>174.0</ele></trkpt>
   <trkpt lat="68.788134" lon="16.331925"><ele>174.6</ele></trkpt>
   <trkpt lat="68.788139" lon="16.331927"><ele>174.6</ele></trkpt>
   <trkpt lat="68.788151" lon="16.331913"><ele>174.6</ele></trkpt>
   <trkpt lat="68.788207" lon="16.331878"><ele>174.6</ele></trkpt>
   <trkpt lat="68.788228" lon="16.331866"><ele>174.6</ele></trkpt>
   <trkpt lat="68.788258" lon="16.331849"><ele>174.8</ele></trkpt>
   <trkpt lat="68.788287" lon="16.331851"><ele>175.0</ele></trkpt>
   <trkpt lat="68.788296" lon="16.331851"><ele>175.2</ele></trkpt>
   <trkpt lat="68.788319" lon="16.331858"><ele>175.4</ele></trkpt>
   <trkpt lat="68.788354" lon="16.331856"><ele>176.2</ele></trkpt>
   <trkpt lat="68.788364" lon="16.331857"><ele>176.4</ele></trkpt>
   <trkpt lat="68.788418" lon="16.331854"><ele>177.4</ele></trkpt>
   <trkpt lat="68.788439" lon="16.331855"><ele>177.6</ele></trkpt>
   <trkpt lat="68.788468" lon="16.331856"><ele>178.0</ele></trkpt>
   <trkpt lat="68.788480" lon="16.331866"><ele>178.2</ele></trkpt>
   <trkpt lat="68.788492" lon="16.331872"><ele>178.4</ele></trkpt>
   <trkpt lat="68.788542" lon="16.331886"><ele>179.4</ele></trkpt>
   <trkpt lat="68.788547" lon="16.331887"><ele>179.4</ele></trkpt>
   <trkpt lat="68.788589" lon="16.331879"><ele>180.6</ele></trkpt>
   <trkpt lat="68.788597" lon="16.331875"><ele>181.0</ele></trkpt>
   <trkpt lat="68.788632" lon="16.331843"><ele>181.8</ele></trkpt>
   <trkpt lat="68.788652" lon="16.331808"><ele>182.2</ele></trkpt>
   <trkpt lat="68.788670" lon="16.331788"><ele>182.8</ele></trkpt>
   <trkpt lat="68.788687" lon="16.331792"><ele>183.4</ele></trkpt>
   <trkpt lat="68.788702" lon="16.331782"><ele>184.0</ele></trkpt>
   <trkpt lat="68.788740" lon="16.331742"><ele>184.8</ele></trkpt>
   <trkpt lat="68.788749" lon="16.331734"><ele>185.0</ele></trkpt>
   <trkpt lat="68.788766" lon="16.331663"><ele>185.6</ele></trkpt>
   <trkpt lat="68.788779" lon="16.331623"><ele>186.2</ele></trkpt>
   <trkpt lat="68.788797" lon="16.331502"><ele>186.8</ele></trkpt>
   <trkpt lat="68.788809" lon="16.331462"><ele>187.2</ele></trkpt>
   <trkpt lat="68.788812" lon="16.331442"><ele>187.6</ele></trkpt>
   <trkpt lat="68.788810" lon="16.331441"><ele>186.8</ele></trkpt>
   <trkpt lat="68.788809" lon="16.331439"><ele>186.2</ele></trkpt>
   <trkpt lat="68.788809" lon="16.331439"><ele>185.6</ele></trkpt>
   <trkpt lat="68.788809" lon="16.331439"><ele>185.4</ele></trkpt>
   <trkpt lat="68.788811" lon="16.331440"><ele>185.0</ele></trkpt>
   <trkpt lat="68.788813" lon="16.331442"><ele>184.2</ele></trkpt>
   <trkpt lat="68.788817" lon="16.331443"><ele>184.0</ele></trkpt>
   <trkpt lat="68.788819" lon="16.331442"><ele>183.6</ele></trkpt>
   <trkpt lat="68.788832" lon="16.331417"><ele>183.6</ele></trkpt>
   <trkpt lat="68.788832" lon="16.331417"><ele>183.6</ele></trkpt>
   <trkpt lat="68.788837" lon="16.331393"><ele>183.4</ele></trkpt>
   <trkpt lat="68.788855" lon="16.331364"><ele>184.0</ele></trkpt>
   <trkpt lat="68.788898" lon="16.331191"><ele>184.6</ele></trkpt>
   <trkpt lat="68.788907" lon="16.331154"><ele>184.8</ele></trkpt>
   <trkpt lat="68.788926" lon="16.331073"><ele>185.2</ele></trkpt>
   <trkpt lat="68.788936" lon="16.331024"><ele>185.2</ele></trkpt>
   <trkpt lat="68.788959" lon="16.330911"><ele>185.4</ele></trkpt>
   <trkpt lat="68.788968" lon="16.330892"><ele>185.6</ele></trkpt>
   <trkpt lat="68.788980" lon="16.330855"><ele>186.0</ele></trkpt>
   <trkpt lat="68.788988" lon="16.330835"><ele>186.2</ele></trkpt>
   <trkpt lat="68.789042" lon="16.330764"><ele>187.2</ele></trkpt>
   <trkpt lat="68.789050" lon="16.330752"><ele>187.4</ele></trkpt>
   <trkpt lat="68.789068" lon="16.330719"><ele>187.6</ele></trkpt>
   <trkpt lat="68.789087" lon="16.330684"><ele>187.8</ele></trkpt>
   <trkpt lat="68.789141" lon="16.330636"><ele>188.0</ele></trkpt>
   <trkpt lat="68.789156" lon="16.330614"><ele>188.2</ele></trkpt>
   <trkpt lat="68.789207" lon="16.330519"><ele>188.2</ele></trkpt>
   <trkpt lat="68.789233" lon="16.330473"><ele>188.4</ele></trkpt>
   <trkpt lat="68.789261" lon="16.330429"><ele>188.4</ele></trkpt>
   <trkpt lat="68.789318" lon="16.330329"><ele>188.4</ele></trkpt>
   <trkpt lat="68.789374" lon="16.330232"><ele>188.2</ele></trkpt>
   <trkpt lat="68.789418" lon="16.330138"><ele>187.8</ele></trkpt>
   <trkpt lat="68.789468" lon="16.330051"><ele>187.4</ele></trkpt>
   <trkpt lat="68.789536" lon="16.329962"><ele>187.0</ele></trkpt>
   <trkpt lat="68.789545" lon="16.329950"><ele>187.0</ele></trkpt>
   <trkpt lat="68.789586" lon="16.329865"><ele>186.6</ele></trkpt>
   <trkpt lat="68.789608" lon="16.329818"><ele>186.8</ele></trkpt>
   <trkpt lat="68.789668" lon="16.329757"><ele>187.2</ele></trkpt>
   <trkpt lat="68.789690" lon="16.329751"><ele>187.6</ele></trkpt>
   <trkpt lat="68.789742" lon="16.329808"><ele>188.2</ele></trkpt>
   <trkpt lat="68.789752" lon="16.329820"><ele>188.4</ele></trkpt>
   <trkpt lat="68.789761" lon="16.329829"><ele>188.6</ele></trkpt>
   <trkpt lat="68.789792" lon="16.329858"><ele>189.6</ele></trkpt>
   <trkpt lat="68.789817" lon="16.329874"><ele>190.2</ele></trkpt>
   <trkpt lat="68.789838" lon="16.329917"><ele>190.8</ele></trkpt>
   <trkpt lat="68.789853" lon="16.329939"><ele>191.2</ele></trkpt>
   <trkpt lat="68.789874" lon="16.329984"><ele>191.6</ele></trkpt>
   <trkpt lat="68.789881" lon="16.329999"><ele>191.8</ele></trkpt>
   <trkpt lat="68.789899" lon="16.330029"><ele>192.4</ele></trkpt>
   <trkpt lat="68.789916" lon="16.330051"><ele>193.0</ele></trkpt>
   <trkpt lat="68.789926" lon="16.330059"><ele>193.6</ele></trkpt>
   <trkpt lat="68.789953" lon="16.330054"><ele>194.4</ele></trkpt>
   <trkpt lat="68.789973" lon="16.330053"><ele>194.6</ele></trkpt>
   <trkpt lat="68.790006" lon="16.330081"><ele>195.4</ele></trkpt>
   <trkpt lat="68.790051" lon="16.330106"><ele>196.6</ele></trkpt>
   <trkpt lat="68.790080" lon="16.330112"><ele>197.6</ele></trkpt>
   <trkpt lat="68.790126" lon="16.330106"><ele>198.8</ele></trkpt>
   <trkpt lat="68.790151" lon="16.330114"><ele>199.2</ele></trkpt>
   <trkpt lat="68.790175" lon="16.330114"><ele>199.8</ele></trkpt>
   <trkpt lat="68.790212" lon="16.330097"><ele>200.8</ele></trkpt>
   <trkpt lat="68.790221" lon="16.330092"><ele>201.0</ele></trkpt>
   <trkpt lat="68.790231" lon="16.330070"><ele>201.4</ele></trkpt>
   <trkpt lat="68.790239" lon="16.330030"><ele>202.2</ele></trkpt>
   <trkpt lat="68.790235" lon="16.329954"><ele>202.6</ele></trkpt>
   <trkpt lat="68.790254" lon="16.329877"><ele>203.0</ele></trkpt>
   <trkpt lat="68.790266" lon="16.329834"><ele>203.2</ele></trkpt>
   <trkpt lat="68.790292" lon="16.329774"><ele>203.6</ele></trkpt>
   <trkpt lat="68.790303" lon="16.329718"><ele>204.6</ele></trkpt>
   <trkpt lat="68.790318" lon="16.329654"><ele>205.8</ele></trkpt>
   <trkpt lat="68.790330" lon="16.329633"><ele>206.2</ele></trkpt>
   <trkpt lat="68.790358" lon="16.329656"><ele>206.8</ele></trkpt>
   <trkpt lat="68.790385" lon="16.329704"><ele>207.6</ele></trkpt>
   <trkpt lat="68.790393" lon="16.329714"><ele>207.8</ele></trkpt>
   <trkpt lat="68.790428" lon="16.329703"><ele>209.0</ele></trkpt>
   <trkpt lat="68.790433" lon="16.329698"><ele>209.2</ele></trkpt>
   <trkpt lat="68.790466" lon="16.329735"><ele>210.2</ele></trkpt>
   <trkpt lat="68.790480" lon="16.329742"><ele>210.6</ele></trkpt>
   <trkpt lat="68.790520" lon="16.329771"><ele>211.2</ele></trkpt>
   <trkpt lat="68.790526" lon="16.329783"><ele>211.2</ele></trkpt>
   <trkpt lat="68.790532" lon="16.329789"><ele>211.4</ele></trkpt>
   <trkpt lat="68.790576" lon="16.329840"><ele>212.4</ele></trkpt>
   <trkpt lat="68.790586" lon="16.329857"><ele>212.4</ele></trkpt>
   <trkpt lat="68.790601" lon="16.329900"><ele>213.0</ele></trkpt>
   <trkpt lat="68.790622" lon="16.329964"><ele>213.4</ele></trkpt>
   <trkpt lat="68.790642" lon="16.330001"><ele>214.0</ele></trkpt>
   <trkpt lat="68.790668" lon="16.330058"><ele>214.4</ele></trkpt>
   <trkpt lat="68.790685" lon="16.330101"><ele>215.0</ele></trkpt>
   <trkpt lat="68.790703" lon="16.330136"><ele>215.4</ele></trkpt>
   <trkpt lat="68.790724" lon="16.330134"><ele>216.6</ele></trkpt>
   <trkpt lat="68.790729" lon="16.330132"><ele>216.6</ele></trkpt>
   <trkpt lat="68.790747" lon="16.330125"><ele>217.6</ele></trkpt>
   <trkpt lat="68.790774" lon="16.330127"><ele>218.6</ele></trkpt>
   <trkpt lat="68.790778" lon="16.330129"><ele>218.6</ele></trkpt>
   <trkpt lat="68.790803" lon="16.330124"><ele>219.8</ele></trkpt>
   <trkpt lat="68.790806" lon="16.330124"><ele>220.0</ele></trkpt>
   <trkpt lat="68.790825" lon="16.330123"><ele>220.8</ele></trkpt>
   <trkpt lat="68.790866" lon="16.330130"><ele>222.0</ele></trkpt>
   <trkpt lat="68.790897" lon="16.330110"><ele>222.8</ele></trkpt>
   <trkpt lat="68.790903" lon="16.330096"><ele>223.0</ele></trkpt>
   <trkpt lat="68.790913" lon="16.330075"><ele>223.4</ele></trkpt>
   <trkpt lat="68.790925" lon="16.330070"><ele>224.2</ele></trkpt>
   <trkpt lat="68.790964" lon="16.330039"><ele>225.2</ele></trkpt>
   <trkpt lat="68.790968" lon="16.330034"><ele>225.4</ele></trkpt>
   <trkpt lat="68.790994" lon="16.329996"><ele>226.2</ele></trkpt>
   <trkpt lat="68.791012" lon="16.329953"><ele>227.0</ele></trkpt>
   <trkpt lat="68.791028" lon="16.329931"><ele>227.4</ele></trkpt>
   <trkpt lat="68.791061" lon="16.329887"><ele>228.4</ele></trkpt>
   <trkpt lat="68.791101" lon="16.329810"><ele>229.2</ele></trkpt>
   <trkpt lat="68.791108" lon="16.329799"><ele>229.4</ele></trkpt>
   <trkpt lat="68.791128" lon="16.329760"><ele>230.2</ele></trkpt>
   <trkpt lat="68.791139" lon="16.329722"><ele>230.6</ele></trkpt>
   <trkpt lat="68.791167" lon="16.329632"><ele>231.8</ele></trkpt>
   <trkpt lat="68.791174" lon="16.329622"><ele>232.0</ele></trkpt>
   <trkpt lat="68.791201" lon="16.329529"><ele>232.8</ele></trkpt>
   <trkpt lat="68.791209" lon="16.329516"><ele>233.4</ele></trkpt>
   <trkpt lat="68.791215" lon="16.329517"><ele>233.6</ele></trkpt>
   <trkpt lat="68.791218" lon="16.329496"><ele>233.6</ele></trkpt>
   <trkpt lat="68.791234" lon="16.329459"><ele>233.6</ele></trkpt>
   <trkpt lat="68.791250" lon="16.329425"><ele>233.8</ele></trkpt>
   <trkpt lat="68.791283" lon="16.329340"><ele>235.0</ele></trkpt>
   <trkpt lat="68.791294" lon="16.329306"><ele>235.4</ele></trkpt>
   <trkpt lat="68.791297" lon="16.329281"><ele>236.2</ele></trkpt>
   <trkpt lat="68.791302" lon="16.329276"><ele>236.4</ele></trkpt>
   <trkpt lat="68.791326" lon="16.329237"><ele>236.4</ele></trkpt>
   <trkpt lat="68.791330" lon="16.329224"><ele>236.4</ele></trkpt>
   <trkpt lat="68.791359" lon="16.329141"><ele>237.4</ele></trkpt>
   <trkpt lat="68.791375" lon="16.329070"><ele>237.8</ele></trkpt>
   <trkpt lat="68.791391" lon="16.329024"><ele>238.4</ele></trkpt>
   <trkpt lat="68.791414" lon="16.328962"><ele>239.2</ele></trkpt>
   <trkpt lat="68.791415" lon="16.328958"><ele>239.4</ele></trkpt>
   <trkpt lat="68.791413" lon="16.328950"><ele>239.6</ele></trkpt>
   <trkpt lat="68.791412" lon="16.328950"><ele>239.2</ele></trkpt>
   <trkpt lat="68.791412" lon="16.328950"><ele>239.2</ele></trkpt>
   <trkpt lat="68.791412" lon="16.328950"><ele>239.0</ele></trkpt>
   <trkpt lat="68.791412" lon="16.328950"><ele>238.8</ele></trkpt>
   <trkpt lat="68.791412" lon="16.328951"><ele>238.6</ele></trkpt>
   <trkpt lat="68.791448" lon="16.328876"><ele>239.4</ele></trkpt>
   <trkpt lat="68.791466" lon="16.328828"><ele>239.8</ele></trkpt>
   <trkpt lat="68.791515" lon="16.328715"><ele>239.0</ele></trkpt>
   <trkpt lat="68.791532" lon="16.328684"><ele>239.0</ele></trkpt>
   <trkpt lat="68.791570" lon="16.328583"><ele>240.2</ele></trkpt>
   <trkpt lat="68.791583" lon="16.328563"><ele>240.4</ele></trkpt>
   <trkpt lat="68.791597" lon="16.328536"><ele>240.8</ele></trkpt>
   <trkpt lat="68.791613" lon="16.328486"><ele>241.6</ele></trkpt>
   <trkpt lat="68.791635" lon="16.328436"><ele>242.2</ele></trkpt>
   <trkpt lat="68.791647" lon="16.328408"><ele>242.6</ele></trkpt>
   <trkpt lat="68.791679" lon="16.328332"><ele>243.2</ele></trkpt>
   <trkpt lat="68.791686" lon="16.328301"><ele>243.6</ele></trkpt>
   <trkpt lat="68.791693" lon="16.328283"><ele>244.0</ele></trkpt>
   <trkpt lat="68.791728" lon="16.328207"><ele>244.8</ele></trkpt>
   <trkpt lat="68.791746" lon="16.328157"><ele>245.6</ele></trkpt>
   <trkpt lat="68.791757" lon="16.328122"><ele>246.0</ele></trkpt>
   <trkpt lat="68.791783" lon="16.328039"><ele>247.2</ele></trkpt>
   <trkpt lat="68.791805" lon="16.327998"><ele>248.2</ele></trkpt>
   <trkpt lat="68.791811" lon="16.327988"><ele>248.6</ele></trkpt>
   <trkpt lat="68.791826" lon="16.327948"><ele>249.2</ele></trkpt>
   <trkpt lat="68.791865" lon="16.327900"><ele>250.4</ele></trkpt>
   <trkpt lat="68.791876" lon="16.327873"><ele>250.8</ele></trkpt>
   <trkpt lat="68.791889" lon="16.327848"><ele>251.4</ele></trkpt>
   <trkpt lat="68.791905" lon="16.327767"><ele>252.6</ele></trkpt>
   <trkpt lat="68.791907" lon="16.327714"><ele>253.4</ele></trkpt>
   <trkpt lat="68.791908" lon="16.327700"><ele>253.6</ele></trkpt>
   <trkpt lat="68.791916" lon="16.327647"><ele>254.8</ele></trkpt>
   <trkpt lat="68.791926" lon="16.327629"><ele>255.8</ele></trkpt>
   <trkpt lat="68.791928" lon="16.327602"><ele>256.2</ele></trkpt>
   <trkpt lat="68.791923" lon="16.327518"><ele>257.0</ele></trkpt>
   <trkpt lat="68.791931" lon="16.327442"><ele>257.8</ele></trkpt>
   <trkpt lat="68.791933" lon="16.327429"><ele>258.0</ele></trkpt>
   <trkpt lat="68.791944" lon="16.327380"><ele>259.0</ele></trkpt>
   <trkpt lat="68.791957" lon="16.327338"><ele>259.8</ele></trkpt>
   <trkpt lat="68.791959" lon="16.327323"><ele>260.0</ele></trkpt>
   <trkpt lat="68.791959" lon="16.327247"><ele>261.2</ele></trkpt>
   <trkpt lat="68.791958" lon="16.327212"><ele>261.8</ele></trkpt>
   <trkpt lat="68.791963" lon="16.327179"><ele>262.2</ele></trkpt>
   <trkpt lat="68.791967" lon="16.327105"><ele>263.4</ele></trkpt>
   <trkpt lat="68.791974" lon="16.327078"><ele>264.0</ele></trkpt>
   <trkpt lat="68.791980" lon="16.327026"><ele>264.4</ele></trkpt>
   <trkpt lat="68.791994" lon="16.327007"><ele>265.2</ele></trkpt>
   <trkpt lat="68.792022" lon="16.326969"><ele>265.4</ele></trkpt>
   <trkpt lat="68.792031" lon="16.326962"><ele>265.8</ele></trkpt>
   <trkpt lat="68.792060" lon="16.326930"><ele>266.8</ele></trkpt>
   <trkpt lat="68.792077" lon="16.326907"><ele>267.2</ele></trkpt>
   <trkpt lat="68.792095" lon="16.326889"><ele>267.8</ele></trkpt>
   <trkpt lat="68.792124" lon="16.326860"><ele>269.0</ele></trkpt>
   <trkpt lat="68.792141" lon="16.326855"><ele>269.6</ele></trkpt>
   <trkpt lat="68.792152" lon="16.326832"><ele>270.0</ele></trkpt>
   <trkpt lat="68.792182" lon="16.326808"><ele>271.0</ele></trkpt>
   <trkpt lat="68.792193" lon="16.326786"><ele>271.2</ele></trkpt>
   <trkpt lat="68.792218" lon="16.326727"><ele>272.0</ele></trkpt>
   <trkpt lat="68.792232" lon="16.326679"><ele>272.6</ele></trkpt>
   <trkpt lat="68.792243" lon="16.326665"><ele>273.0</ele></trkpt>
   <trkpt lat="68.792267" lon="16.326624"><ele>274.2</ele></trkpt>
   <trkpt lat="68.792281" lon="16.326597"><ele>274.8</ele></trkpt>
   <trkpt lat="68.792303" lon="16.326602"><ele>275.4</ele></trkpt>
   <trkpt lat="68.792345" lon="16.326613"><ele>276.0</ele></trkpt>
   <trkpt lat="68.792360" lon="16.326601"><ele>276.2</ele></trkpt>
   <trkpt lat="68.792366" lon="16.326593"><ele>276.4</ele></trkpt>
   <trkpt lat="68.792390" lon="16.326559"><ele>277.4</ele></trkpt>
   <trkpt lat="68.792416" lon="16.326531"><ele>278.6</ele></trkpt>
   <trkpt lat="68.792419" lon="16.326523"><ele>278.8</ele></trkpt>
   <trkpt lat="68.792443" lon="16.326499"><ele>279.8</ele></trkpt>
   <trkpt lat="68.792465" lon="16.326500"><ele>280.4</ele></trkpt>
   <trkpt lat="68.792486" lon="16.326481"><ele>280.8</ele></trkpt>
   <trkpt lat="68.792512" lon="16.326463"><ele>281.8</ele></trkpt>
   <trkpt lat="68.792539" lon="16.326462"><ele>283.0</ele></trkpt>
   <trkpt lat="68.792572" lon="16.326437"><ele>284.0</ele></trkpt>
   <trkpt lat="68.792596" lon="16.326405"><ele>285.2</ele></trkpt>
   <trkpt lat="68.792613" lon="16.326383"><ele>285.8</ele></trkpt>
   <trkpt lat="68.792618" lon="16.326383"><ele>286.2</ele></trkpt>
   <trkpt lat="68.792637" lon="16.326383"><ele>286.8</ele></trkpt>
   <trkpt lat="68.792645" lon="16.326391"><ele>287.4</ele></trkpt>
   <trkpt lat="68.792658" lon="16.326401"><ele>287.6</ele></trkpt>
   <trkpt lat="68.792673" lon="16.326414"><ele>288.4</ele></trkpt>
   <trkpt lat="68.792676" lon="16.326422"><ele>288.6</ele></trkpt>
   <trkpt lat="68.792687" lon="16.326439"><ele>289.0</ele></trkpt>
   <trkpt lat="68.792698" lon="16.326453"><ele>289.6</ele></trkpt>
   <trkpt lat="68.792723" lon="16.326472"><ele>290.2</ele></trkpt>
   <trkpt lat="68.792730" lon="16.326474"><ele>290.6</ele></trkpt>
   <trkpt lat="68.792771" lon="16.326487"><ele>291.8</ele></trkpt>
   <trkpt lat="68.792772" lon="16.326477"><ele>292.2</ele></trkpt>
   <trkpt lat="68.792776" lon="16.326491"><ele>292.0</ele></trkpt>
   <trkpt lat="68.792776" lon="16.326491"><ele>292.0</ele></trkpt>
   <trkpt lat="68.792776" lon="16.326491"><ele>291.8</ele></trkpt>
   <trkpt lat="68.792773" lon="16.326489"><ele>291.6</ele></trkpt>
   <trkpt lat="68.792773" lon="16.326488"><ele>291.6</ele></trkpt>
   <trkpt lat="68.792772" lon="16.326488"><ele>291.4</ele></trkpt>
   <trkpt lat="68.792772" lon="16.326486"><ele>290.8</ele></trkpt>
   <trkpt lat="68.792772" lon="16.326485"><ele>290.8</ele></trkpt>
   <trkpt lat="68.792771" lon="16.326483"><ele>290.4</ele></trkpt>
   <trkpt lat="68.792771" lon="16.326482"><ele>289.8</ele></trkpt>
   <trkpt lat="68.792772" lon="16.326480"><ele>290.0</ele></trkpt>
   <trkpt lat="68.792774" lon="16.326477"><ele>290.6</ele></trkpt>
   <trkpt lat="68.792775" lon="16.326475"><ele>290.8</ele></trkpt>
   <trkpt lat="68.792781" lon="16.326464"><ele>291.0</ele></trkpt>
   <trkpt lat="68.792793" lon="16.326461"><ele>291.8</ele></trkpt>
   <trkpt lat="68.792815" lon="16.326452"><ele>292.8</ele></trkpt>
   <trkpt lat="68.792860" lon="16.326442"><ele>293.8</ele></trkpt>
   <trkpt lat="68.792875" lon="16.326442"><ele>294.0</ele></trkpt>
   <trkpt lat="68.792933" lon="16.326449"><ele>294.8</ele></trkpt>
   <trkpt lat="68.792964" lon="16.326446"><ele>295.2</ele></trkpt>
   <trkpt lat="68.793001" lon="16.326435"><ele>296.4</ele></trkpt>
   <trkpt lat="68.793027" lon="16.326401"><ele>297.4</ele></trkpt>
   <trkpt lat="68.793043" lon="16.326367"><ele>298.0</ele></trkpt>
   <trkpt lat="68.793048" lon="16.326357"><ele>298.6</ele></trkpt>
   <trkpt lat="68.793074" lon="16.326331"><ele>299.6</ele></trkpt>
   <trkpt lat="68.793096" lon="16.326311"><ele>300.8</ele></trkpt>
   <trkpt lat="68.793103" lon="16.326304"><ele>301.0</ele></trkpt>
   <trkpt lat="68.793132" lon="16.326291"><ele>301.8</ele></trkpt>
   <trkpt lat="68.793151" lon="16.326262"><ele>302.4</ele></trkpt>
   <trkpt lat="68.793163" lon="16.326265"><ele>303.0</ele></trkpt>
   <trkpt lat="68.793176" lon="16.326263"><ele>303.4</ele></trkpt>
   <trkpt lat="68.793189" lon="16.326252"><ele>303.8</ele></trkpt>
   <trkpt lat="68.793201" lon="16.326235"><ele>304.2</ele></trkpt>
   <trkpt lat="68.793217" lon="16.326197"><ele>305.0</ele></trkpt>
   <trkpt lat="68.793220" lon="16.326186"><ele>305.2</ele></trkpt>
   <trkpt lat="68.793235" lon="16.326106"><ele>306.4</ele></trkpt>
   <trkpt lat="68.793243" lon="16.326060"><ele>307.0</ele></trkpt>
   <trkpt lat="68.793253" lon="16.326033"><ele>307.6</ele></trkpt>
   <trkpt lat="68.793278" lon="16.325963"><ele>308.8</ele></trkpt>
   <trkpt lat="68.793293" lon="16.325891"><ele>309.8</ele></trkpt>
   <trkpt lat="68.793296" lon="16.325880"><ele>310.0</ele></trkpt>
   <trkpt lat="68.793333" lon="16.325820"><ele>311.0</ele></trkpt>
   <trkpt lat="68.793348" lon="16.325784"><ele>311.6</ele></trkpt>
   <trkpt lat="68.793356" lon="16.325744"><ele>312.2</ele></trkpt>
   <trkpt lat="68.793359" lon="16.325727"><ele>312.4</ele></trkpt>
   <trkpt lat="68.793374" lon="16.325688"><ele>313.4</ele></trkpt>
   <trkpt lat="68.793397" lon="16.325636"><ele>314.4</ele></trkpt>
   <trkpt lat="68.793419" lon="16.325565"><ele>315.6</ele></trkpt>
   <trkpt lat="68.793423" lon="16.325554"><ele>316.0</ele></trkpt>
   <trkpt lat="68.793432" lon="16.325512"><ele>316.8</ele></trkpt>
   <trkpt lat="68.793446" lon="16.325430"><ele>318.0</ele></trkpt>
   <trkpt lat="68.793452" lon="16.325396"><ele>318.6</ele></trkpt>
   <trkpt lat="68.793464" lon="16.325369"><ele>319.0</ele></trkpt>
   <trkpt lat="68.793479" lon="16.325306"><ele>320.2</ele></trkpt>
   <trkpt lat="68.793485" lon="16.325280"><ele>320.8</ele></trkpt>
   <trkpt lat="68.793489" lon="16.325256"><ele>321.4</ele></trkpt>
   <trkpt lat="68.793506" lon="16.325219"><ele>322.6</ele></trkpt>
   <trkpt lat="68.793520" lon="16.325206"><ele>323.6</ele></trkpt>
   <trkpt lat="68.793540" lon="16.325170"><ele>324.6</ele></trkpt>
   <trkpt lat="68.793544" lon="16.325167"><ele>324.8</ele></trkpt>
   <trkpt lat="68.793550" lon="16.325139"><ele>325.8</ele></trkpt>
   <trkpt lat="68.793552" lon="16.325130"><ele>326.0</ele></trkpt>
   <trkpt lat="68.793568" lon="16.325066"><ele>327.0</ele></trkpt>
   <trkpt lat="68.793583" lon="16.324997"><ele>327.8</ele></trkpt>
   <trkpt lat="68.793588" lon="16.324994"><ele>328.0</ele></trkpt>
   <trkpt lat="68.793598" lon="16.324954"><ele>329.2</ele></trkpt>
   <trkpt lat="68.793612" lon="16.324911"><ele>330.2</ele></trkpt>
   <trkpt lat="68.793615" lon="16.324903"><ele>330.2</ele></trkpt>
   <trkpt lat="68.793636" lon="16.324831"><ele>331.2</ele></trkpt>
   <trkpt lat="68.793641" lon="16.324821"><ele>331.6</ele></trkpt>
   <trkpt lat="68.793646" lon="16.324812"><ele>331.8</ele></trkpt>
   <trkpt lat="68.793657" lon="16.324761"><ele>332.6</ele></trkpt>
   <trkpt lat="68.793670" lon="16.324712"><ele>333.6</ele></trkpt>
   <trkpt lat="68.793672" lon="16.324699"><ele>333.8</ele></trkpt>
   <trkpt lat="68.793684" lon="16.324660"><ele>334.6</ele></trkpt>
   <trkpt lat="68.793689" lon="16.324626"><ele>335.0</ele></trkpt>
   <trkpt lat="68.793691" lon="16.324611"><ele>335.2</ele></trkpt>
   <trkpt lat="68.793691" lon="16.324582"><ele>335.8</ele></trkpt>
   <trkpt lat="68.793691" lon="16.324581"><ele>336.8</ele></trkpt>
   <trkpt lat="68.793692" lon="16.324577"><ele>336.8</ele></trkpt>
   <trkpt lat="68.793692" lon="16.324577"><ele>336.6</ele></trkpt>
   <trkpt lat="68.793692" lon="16.324577"><ele>336.6</ele></trkpt>
   <trkpt lat="68.793691" lon="16.324577"><ele>336.6</ele></trkpt>
   <trkpt lat="68.793691" lon="16.324571"><ele>336.6</ele></trkpt>
   <trkpt lat="68.793691" lon="16.324565"><ele>336.4</ele></trkpt>
   <trkpt lat="68.793691" lon="16.324565"><ele>336.4</ele></trkpt>
   <trkpt lat="68.793691" lon="16.324564"><ele>336.4</ele></trkpt>
   <trkpt lat="68.793692" lon="16.324563"><ele>336.0</ele></trkpt>
   <trkpt lat="68.793692" lon="16.324563"><ele>335.8</ele></trkpt>
   <trkpt lat="68.793695" lon="16.324561"><ele>335.8</ele></trkpt>
   <trkpt lat="68.793695" lon="16.324561"><ele>335.8</ele></trkpt>
   <trkpt lat="68.793695" lon="16.324561"><ele>335.4</ele></trkpt>
   <trkpt lat="68.793696" lon="16.324561"><ele>335.4</ele></trkpt>
   <trkpt lat="68.793696" lon="16.324567"><ele>335.2</ele></trkpt>
   <trkpt lat="68.793696" lon="16.324570"><ele>335.0</ele></trkpt>
   <trkpt lat="68.793696" lon="16.324571"><ele>334.8</ele></trkpt>
   <trkpt lat="68.793697" lon="16.324570"><ele>335.2</ele></trkpt>
   <trkpt lat="68.793713" lon="16.324515"><ele>336.0</ele></trkpt>
   <trkpt lat="68.793739" lon="16.324422"><ele>337.0</ele></trkpt>
   <trkpt lat="68.793744" lon="16.324400"><ele>337.2</ele></trkpt>
   <trkpt lat="68.793761" lon="16.324348"><ele>338.4</ele></trkpt>
   <trkpt lat="68.793775" lon="16.324303"><ele>339.6</ele></trkpt>
   <trkpt lat="68.793785" lon="16.324261"><ele>340.8</ele></trkpt>
   <trkpt lat="68.793796" lon="16.324223"><ele>341.6</ele></trkpt>
   <trkpt lat="68.793798" lon="16.324209"><ele>341.8</ele></trkpt>
   <trkpt lat="68.793804" lon="16.324186"><ele>342.2</ele></trkpt>
   <trkpt lat="68.793807" lon="16.324180"><ele>342.4</ele></trkpt>
   <trkpt lat="68.793811" lon="16.324171"><ele>342.8</ele></trkpt>
   <trkpt lat="68.793822" lon="16.324117"><ele>343.8</ele></trkpt>
   <trkpt lat="68.793831" lon="16.324090"><ele>344.4</ele></trkpt>
   <trkpt lat="68.793837" lon="16.324068"><ele>345.0</ele></trkpt>
   <trkpt lat="68.793850" lon="16.324030"><ele>346.0</ele></trkpt>
   <trkpt lat="68.793867" lon="16.323993"><ele>346.6</ele></trkpt>
   <trkpt lat="68.793873" lon="16.323967"><ele>347.2</ele></trkpt>
   <trkpt lat="68.793881" lon="16.323941"><ele>347.6</ele></trkpt>
   <trkpt lat="68.793895" lon="16.323917"><ele>348.4</ele></trkpt>
   <trkpt lat="68.793906" lon="16.323848"><ele>349.6</ele></trkpt>
   <trkpt lat="68.793920" lon="16.323809"><ele>350.4</ele></trkpt>
   <trkpt lat="68.793930" lon="16.323790"><ele>351.0</ele></trkpt>
   <trkpt lat="68.793937" lon="16.323774"><ele>351.4</ele></trkpt>
   <trkpt lat="68.793949" lon="16.323741"><ele>352.0</ele></trkpt>
   <trkpt lat="68.793966" lon="16.323721"><ele>353.0</ele></trkpt>
   <trkpt lat="68.793982" lon="16.323692"><ele>353.8</ele></trkpt>
   <trkpt lat="68.793984" lon="16.323668"><ele>354.2</ele></trkpt>
   <trkpt lat="68.794002" lon="16.323608"><ele>355.4</ele></trkpt>
   <trkpt lat="68.794012" lon="16.323583"><ele>356.0</ele></trkpt>
   <trkpt lat="68.794027" lon="16.323554"><ele>356.4</ele></trkpt>
   <trkpt lat="68.794046" lon="16.323514"><ele>357.0</ele></trkpt>
   <trkpt lat="68.794069" lon="16.323438"><ele>357.4</ele></trkpt>
   <trkpt lat="68.794081" lon="16.323392"><ele>358.2</ele></trkpt>
   <trkpt lat="68.794090" lon="16.323368"><ele>358.6</ele></trkpt>
   <trkpt lat="68.794106" lon="16.323326"><ele>359.8</ele></trkpt>
   <trkpt lat="68.794113" lon="16.323302"><ele>360.2</ele></trkpt>
   <trkpt lat="68.794119" lon="16.323291"><ele>360.4</ele></trkpt>
   <trkpt lat="68.794132" lon="16.323263"><ele>360.8</ele></trkpt>
   <trkpt lat="68.794136" lon="16.323256"><ele>361.0</ele></trkpt>
   <trkpt lat="68.794145" lon="16.323223"><ele>362.2</ele></trkpt>
   <trkpt lat="68.794162" lon="16.323196"><ele>363.0</ele></trkpt>
   <trkpt lat="68.794166" lon="16.323189"><ele>363.2</ele></trkpt>
   <trkpt lat="68.794174" lon="16.323158"><ele>364.2</ele></trkpt>
   <trkpt lat="68.794185" lon="16.323130"><ele>364.8</ele></trkpt>
   <trkpt lat="68.794197" lon="16.323090"><ele>364.8</ele></trkpt>
   <trkpt lat="68.794208" lon="16.323080"><ele>365.0</ele></trkpt>
   <trkpt lat="68.794217" lon="16.323055"><ele>365.4</ele></trkpt>
   <trkpt lat="68.794219" lon="16.323045"><ele>365.4</ele></trkpt>
   <trkpt lat="68.794236" lon="16.323011"><ele>366.2</ele></trkpt>
   <trkpt lat="68.794239" lon="16.323003"><ele>366.4</ele></trkpt>
   <trkpt lat="68.794255" lon="16.322953"><ele>367.6</ele></trkpt>
   <trkpt lat="68.794270" lon="16.322923"><ele>368.8</ele></trkpt>
   <trkpt lat="68.794273" lon="16.322918"><ele>369.2</ele></trkpt>
   <trkpt lat="68.794276" lon="16.322867"><ele>370.0</ele></trkpt>
   <trkpt lat="68.794288" lon="16.322812"><ele>371.0</ele></trkpt>
   <trkpt lat="68.794300" lon="16.322766"><ele>372.0</ele></trkpt>
   <trkpt lat="68.794301" lon="16.322753"><ele>372.2</ele></trkpt>
   <trkpt lat="68.794310" lon="16.322713"><ele>373.4</ele></trkpt>
   <trkpt lat="68.794322" lon="16.322678"><ele>374.0</ele></trkpt>
   <trkpt lat="68.794327" lon="16.322673"><ele>374.4</ele></trkpt>
   <trkpt lat="68.794338" lon="16.322647"><ele>375.0</ele></trkpt>
   <trkpt lat="68.794341" lon="16.322619"><ele>375.6</ele></trkpt>
   <trkpt lat="68.794348" lon="16.322562"><ele>376.8</ele></trkpt>
   <trkpt lat="68.794348" lon="16.322533"><ele>377.2</ele></trkpt>
   <trkpt lat="68.794356" lon="16.322467"><ele>378.0</ele></trkpt>
   <trkpt lat="68.794366" lon="16.322418"><ele>379.2</ele></trkpt>
   <trkpt lat="68.794369" lon="16.322396"><ele>379.6</ele></trkpt>
   <trkpt lat="68.794371" lon="16.322376"><ele>380.2</ele></trkpt>
   <trkpt lat="68.794383" lon="16.322312"><ele>381.4</ele></trkpt>
   <trkpt lat="68.794383" lon="16.322281"><ele>381.8</ele></trkpt>
   <trkpt lat="68.794386" lon="16.322243"><ele>382.4</ele></trkpt>
   <trkpt lat="68.794396" lon="16.322188"><ele>383.4</ele></trkpt>
   <trkpt lat="68.794400" lon="16.322156"><ele>384.4</ele></trkpt>
   <trkpt lat="68.794401" lon="16.322140"><ele>384.6</ele></trkpt>
   <trkpt lat="68.794399" lon="16.322061"><ele>385.8</ele></trkpt>
   <trkpt lat="68.794402" lon="16.322006"><ele>387.0</ele></trkpt>
   <trkpt lat="68.794402" lon="16.321994"><ele>387.2</ele></trkpt>
   <trkpt lat="68.794409" lon="16.321927"><ele>388.0</ele></trkpt>
   <trkpt lat="68.794412" lon="16.321866"><ele>389.2</ele></trkpt>
   <trkpt lat="68.794412" lon="16.321854"><ele>389.4</ele></trkpt>
   <trkpt lat="68.794419" lon="16.321797"><ele>390.2</ele></trkpt>
   <trkpt lat="68.794421" lon="16.321754"><ele>391.0</ele></trkpt>
   <trkpt lat="68.794426" lon="16.321712"><ele>391.4</ele></trkpt>
   <trkpt lat="68.794444" lon="16.321650"><ele>392.6</ele></trkpt>
   <trkpt lat="68.794452" lon="16.321611"><ele>393.0</ele></trkpt>
   <trkpt lat="68.794460" lon="16.321574"><ele>393.8</ele></trkpt>
   <trkpt lat="68.794480" lon="16.321543"><ele>394.8</ele></trkpt>
   <trkpt lat="68.794486" lon="16.321527"><ele>395.4</ele></trkpt>
   <trkpt lat="68.794493" lon="16.321484"><ele>396.0</ele></trkpt>
   <trkpt lat="68.794509" lon="16.321428"><ele>396.8</ele></trkpt>
   <trkpt lat="68.794510" lon="16.321417"><ele>397.0</ele></trkpt>
   <trkpt lat="68.794513" lon="16.321407"><ele>397.2</ele></trkpt>
   <trkpt lat="68.794525" lon="16.321337"><ele>398.2</ele></trkpt>
   <trkpt lat="68.794546" lon="16.321276"><ele>399.6</ele></trkpt>
   <trkpt lat="68.794569" lon="16.321257"><ele>400.6</ele></trkpt>
   <trkpt lat="68.794573" lon="16.321257"><ele>401.0</ele></trkpt>
   <trkpt lat="68.794572" lon="16.321265"><ele>401.0</ele></trkpt>
   <trkpt lat="68.794572" lon="16.321265"><ele>400.8</ele></trkpt>
   <trkpt lat="68.794572" lon="16.321265"><ele>400.8</ele></trkpt>
   <trkpt lat="68.794572" lon="16.321265"><ele>400.6</ele></trkpt>
   <trkpt lat="68.794572" lon="16.321265"><ele>400.6</ele></trkpt>
   <trkpt lat="68.794565" lon="16.321150"><ele>401.2</ele></trkpt>
   <trkpt lat="68.794561" lon="16.321046"><ele>401.4</ele></trkpt>
   <trkpt lat="68.794559" lon="16.320989"><ele>401.6</ele></trkpt>
   <trkpt lat="68.794567" lon="16.320924"><ele>402.6</ele></trkpt>
   <trkpt lat="68.794569" lon="16.320924"><ele>402.6</ele></trkpt>
   <trkpt lat="68.794568" lon="16.320920"><ele>402.0</ele></trkpt>
   <trkpt lat="68.794568" lon="16.320920"><ele>401.8</ele></trkpt>
   <trkpt lat="68.794568" lon="16.320920"><ele>401.8</ele></trkpt>
   <trkpt lat="68.794568" lon="16.320920"><ele>401.6</ele></trkpt>
   <trkpt lat="68.794568" lon="16.320920"><ele>401.6</ele></trkpt>
   <trkpt lat="68.794568" lon="16.320919"><ele>401.6</ele></trkpt>
   <trkpt lat="68.794568" lon="16.320918"><ele>401.0</ele></trkpt>
   <trkpt lat="68.794569" lon="16.320917"><ele>400.6</ele></trkpt>
   <trkpt lat="68.794569" lon="16.320914"><ele>400.2</ele></trkpt>
   <trkpt lat="68.794570" lon="16.320908"><ele>400.0</ele></trkpt>
   <trkpt lat="68.794570" lon="16.320907"><ele>399.8</ele></trkpt>
   <trkpt lat="68.794570" lon="16.320905"><ele>399.6</ele></trkpt>
   <trkpt lat="68.794571" lon="16.320902"><ele>399.6</ele></trkpt>
   <trkpt lat="68.794572" lon="16.320901"><ele>399.0</ele></trkpt>
   <trkpt lat="68.794572" lon="16.320900"><ele>398.6</ele></trkpt>
   <trkpt lat="68.794572" lon="16.320900"><ele>398.2</ele></trkpt>
   <trkpt lat="68.794572" lon="16.320900"><ele>397.8</ele></trkpt>
   <trkpt lat="68.794571" lon="16.320900"><ele>397.6</ele></trkpt>
   <trkpt lat="68.794571" lon="16.320900"><ele>397.6</ele></trkpt>
   <trkpt lat="68.794570" lon="16.320899"><ele>397.4</ele></trkpt>
   <trkpt lat="68.794570" lon="16.320899"><ele>397.4</ele></trkpt>
   <trkpt lat="68.794569" lon="16.320897"><ele>397.2</ele></trkpt>
   <trkpt lat="68.794567" lon="16.320896"><ele>397.0</ele></trkpt>
   <trkpt lat="68.794567" lon="16.320895"><ele>396.4</ele></trkpt>
   <trkpt lat="68.794567" lon="16.320894"><ele>395.6</ele></trkpt>
   <trkpt lat="68.794566" lon="16.320893"><ele>395.4</ele></trkpt>
   <trkpt lat="68.794566" lon="16.320893"><ele>394.8</ele></trkpt>
   <trkpt lat="68.794566" lon="16.320888"><ele>394.2</ele></trkpt>
   <trkpt lat="68.794566" lon="16.320882"><ele>395.2</ele></trkpt>
   <trkpt lat="68.794566" lon="16.320882"><ele>395.4</ele></trkpt>
   <trkpt lat="68.794566" lon="16.320866"><ele>396.6</ele></trkpt>
   <trkpt lat="68.794566" lon="16.320798"><ele>397.4</ele></trkpt>
   <trkpt lat="68.794566" lon="16.320786"><ele>397.6</ele></trkpt>
   <trkpt lat="68.794566" lon="16.320722"><ele>398.6</ele></trkpt>
   <trkpt lat="68.794567" lon="16.320643"><ele>399.8</ele></trkpt>
   <trkpt lat="68.794567" lon="16.320602"><ele>400.8</ele></trkpt>
   <trkpt lat="68.794567" lon="16.320515"><ele>401.8</ele></trkpt>
   <trkpt lat="68.794567" lon="16.320501"><ele>402.0</ele></trkpt>
   <trkpt lat="68.794570" lon="16.320420"><ele>403.2</ele></trkpt>
   <trkpt lat="68.794573" lon="16.320352"><ele>404.4</ele></trkpt>
   <trkpt lat="68.794574" lon="16.320340"><ele>404.6</ele></trkpt>
   <trkpt lat="68.794575" lon="16.320328"><ele>404.6</ele></trkpt>
   <trkpt lat="68.794577" lon="16.320304"><ele>405.2</ele></trkpt>
   <trkpt lat="68.794578" lon="16.320293"><ele>405.4</ele></trkpt>
   <trkpt lat="68.794581" lon="16.320247"><ele>406.4</ele></trkpt>
   <trkpt lat="68.794584" lon="16.320194"><ele>407.6</ele></trkpt>
   <trkpt lat="68.794585" lon="16.320184"><ele>407.8</ele></trkpt>
   <trkpt lat="68.794585" lon="16.320174"><ele>408.2</ele></trkpt>
   <trkpt lat="68.794586" lon="16.320155"><ele>408.6</ele></trkpt>
   <trkpt lat="68.794588" lon="16.320111"><ele>410.0</ele></trkpt>
   <trkpt lat="68.794590" lon="16.320075"><ele>411.2</ele></trkpt>
   <trkpt lat="68.794591" lon="16.320065"><ele>412.0</ele></trkpt>
   <trkpt lat="68.794592" lon="16.320057"><ele>412.4</ele></trkpt>
   <trkpt lat="68.794593" lon="16.320050"><ele>413.6</ele></trkpt>
   <trkpt lat="68.794593" lon="16.320049"><ele>413.8</ele></trkpt>
   <trkpt lat="68.794593" lon="16.320047"><ele>414.4</ele></trkpt>
   <trkpt lat="68.794619" lon="16.319918"><ele>415.0</ele></trkpt>
   <trkpt lat="68.794679" lon="16.319659"><ele>416.0</ele></trkpt>
   <trkpt lat="68.794742" lon="16.319373"><ele>417.2</ele></trkpt>
   <trkpt lat="68.794764" lon="16.319309"><ele>418.2</ele></trkpt>
   <trkpt lat="68.794768" lon="16.319295"><ele>418.4</ele></trkpt>
   <trkpt lat="68.794793" lon="16.319259"><ele>419.4</ele></trkpt>
   <trkpt lat="68.794823" lon="16.319207"><ele>420.4</ele></trkpt>
   <trkpt lat="68.794828" lon="16.319201"><ele>420.6</ele></trkpt>
   <trkpt lat="68.794839" lon="16.319194"><ele>421.0</ele></trkpt>
   <trkpt lat="68.794842" lon="16.319185"><ele>421.4</ele></trkpt>
   <trkpt lat="68.794844" lon="16.319170"><ele>421.6</ele></trkpt>
   <trkpt lat="68.794855" lon="16.319135"><ele>421.8</ele></trkpt>
   <trkpt lat="68.794878" lon="16.319088"><ele>422.4</ele></trkpt>
   <trkpt lat="68.794892" lon="16.319061"><ele>422.6</ele></trkpt>
   <trkpt lat="68.794932" lon="16.318995"><ele>423.2</ele></trkpt>
   <trkpt lat="68.794938" lon="16.318980"><ele>423.4</ele></trkpt>
   <trkpt lat="68.794949" lon="16.318947"><ele>423.6</ele></trkpt>
   <trkpt lat="68.794954" lon="16.318935"><ele>423.6</ele></trkpt>
   <trkpt lat="68.794979" lon="16.318880"><ele>424.4</ele></trkpt>
   <trkpt lat="68.794997" lon="16.318822"><ele>424.8</ele></trkpt>
   <trkpt lat="68.795002" lon="16.318812"><ele>425.0</ele></trkpt>
   <trkpt lat="68.795020" lon="16.318728"><ele>425.8</ele></trkpt>
   <trkpt lat="68.795035" lon="16.318699"><ele>426.4</ele></trkpt>
   <trkpt lat="68.795043" lon="16.318680"><ele>426.8</ele></trkpt>
   <trkpt lat="68.795045" lon="16.318666"><ele>427.2</ele></trkpt>
   <trkpt lat="68.795066" lon="16.318605"><ele>428.2</ele></trkpt>
   <trkpt lat="68.795076" lon="16.318577"><ele>428.6</ele></trkpt>
   <trkpt lat="68.795089" lon="16.318548"><ele>429.4</ele></trkpt>
   <trkpt lat="68.795102" lon="16.318478"><ele>430.4</ele></trkpt>
   <trkpt lat="68.795109" lon="16.318453"><ele>430.6</ele></trkpt>
   <trkpt lat="68.795135" lon="16.318394"><ele>431.6</ele></trkpt>
   <trkpt lat="68.795158" lon="16.318328"><ele>432.6</ele></trkpt>
   <trkpt lat="68.795166" lon="16.318307"><ele>433.0</ele></trkpt>
   <trkpt lat="68.795175" lon="16.318275"><ele>433.4</ele></trkpt>
   <trkpt lat="68.795182" lon="16.318248"><ele>433.8</ele></trkpt>
   <trkpt lat="68.795196" lon="16.318184"><ele>434.8</ele></trkpt>
   <trkpt lat="68.795211" lon="16.318136"><ele>435.4</ele></trkpt>
   <trkpt lat="68.795226" lon="16.318104"><ele>435.8</ele></trkpt>
   <trkpt lat="68.795235" lon="16.318074"><ele>436.0</ele></trkpt>
   <trkpt lat="68.795246" lon="16.318022"><ele>436.4</ele></trkpt>
   <trkpt lat="68.795252" lon="16.317991"><ele>437.0</ele></trkpt>
   <trkpt lat="68.795256" lon="16.317963"><ele>437.4</ele></trkpt>
   <trkpt lat="68.795264" lon="16.317898"><ele>438.0</ele></trkpt>
   <trkpt lat="68.795269" lon="16.317813"><ele>438.2</ele></trkpt>
   <trkpt lat="68.795283" lon="16.317726"><ele>439.0</ele></trkpt>
   <trkpt lat="68.795284" lon="16.317626"><ele>440.0</ele></trkpt>
   <trkpt lat="68.795285" lon="16.317608"><ele>440.2</ele></trkpt>
   <trkpt lat="68.795283" lon="16.317500"><ele>441.2</ele></trkpt>
   <trkpt lat="68.795288" lon="16.317418"><ele>441.8</ele></trkpt>
   <trkpt lat="68.795293" lon="16.317348"><ele>442.4</ele></trkpt>
   <trkpt lat="68.795294" lon="16.317291"><ele>442.8</ele></trkpt>
   <trkpt lat="68.795297" lon="16.317235"><ele>443.2</ele></trkpt>
   <trkpt lat="68.795300" lon="16.317138"><ele>443.4</ele></trkpt>
   <trkpt lat="68.795301" lon="16.317119"><ele>443.4</ele></trkpt>
   <trkpt lat="68.795301" lon="16.317101"><ele>443.6</ele></trkpt>
   <trkpt lat="68.795302" lon="16.317037"><ele>444.6</ele></trkpt>
   <trkpt lat="68.795296" lon="16.316930"><ele>445.4</ele></trkpt>
   <trkpt lat="68.795297" lon="16.316846"><ele>445.6</ele></trkpt>
   <trkpt lat="68.795295" lon="16.316726"><ele>446.4</ele></trkpt>
   <trkpt lat="68.795291" lon="16.316682"><ele>446.6</ele></trkpt>
   <trkpt lat="68.795287" lon="16.316586"><ele>446.6</ele></trkpt>
   <trkpt lat="68.795283" lon="16.316454"><ele>447.2</ele></trkpt>
   <trkpt lat="68.795281" lon="16.316324"><ele>447.8</ele></trkpt>
   <trkpt lat="68.795273" lon="16.316197"><ele>448.0</ele></trkpt>
   <trkpt lat="68.795258" lon="16.316063"><ele>448.0</ele></trkpt>
   <trkpt lat="68.795253" lon="16.315998"><ele>447.8</ele></trkpt>
   <trkpt lat="68.795245" lon="16.315841"><ele>447.6</ele></trkpt>
   <trkpt lat="68.795232" lon="16.315692"><ele>447.4</ele></trkpt>
   <trkpt lat="68.795233" lon="16.315563"><ele>447.2</ele></trkpt>
   <trkpt lat="68.795232" lon="16.315487"><ele>447.2</ele></trkpt>
   <trkpt lat="68.795238" lon="16.315353"><ele>447.6</ele></trkpt>
   <trkpt lat="68.795247" lon="16.315256"><ele>448.2</ele></trkpt>
   <trkpt lat="68.795247" lon="16.315191"><ele>448.4</ele></trkpt>
   <trkpt lat="68.795247" lon="16.315164"><ele>448.6</ele></trkpt>
   <trkpt lat="68.795247" lon="16.315117"><ele>448.8</ele></trkpt>
   <trkpt lat="68.795253" lon="16.314997"><ele>449.4</ele></trkpt>
   <trkpt lat="68.795257" lon="16.314912"><ele>450.0</ele></trkpt>
   <trkpt lat="68.795251" lon="16.314792"><ele>450.4</ele></trkpt>
   <trkpt lat="68.795251" lon="16.314775"><ele>450.6</ele></trkpt>
   <trkpt lat="68.795251" lon="16.314756"><ele>450.6</ele></trkpt>
   <trkpt lat="68.795251" lon="16.314724"><ele>451.0</ele></trkpt>
   <trkpt lat="68.795255" lon="16.314646"><ele>451.4</ele></trkpt>
   <trkpt lat="68.795268" lon="16.314577"><ele>451.6</ele></trkpt>
   <trkpt lat="68.795273" lon="16.314566"><ele>451.6</ele></trkpt>
   <trkpt lat="68.795282" lon="16.314542"><ele>452.2</ele></trkpt>
   <trkpt lat="68.795290" lon="16.314508"><ele>452.6</ele></trkpt>
   <trkpt lat="68.795294" lon="16.314490"><ele>452.6</ele></trkpt>
   <trkpt lat="68.795307" lon="16.314425"><ele>453.4</ele></trkpt>
   <trkpt lat="68.795315" lon="16.314369"><ele>453.8</ele></trkpt>
   <trkpt lat="68.795324" lon="16.314297"><ele>454.4</ele></trkpt>
   <trkpt lat="68.795345" lon="16.314225"><ele>455.0</ele></trkpt>
   <trkpt lat="68.795354" lon="16.314184"><ele>455.4</ele></trkpt>
   <trkpt lat="68.795356" lon="16.314163"><ele>455.6</ele></trkpt>
   <trkpt lat="68.795366" lon="16.314077"><ele>456.6</ele></trkpt>
   <trkpt lat="68.795370" lon="16.314046"><ele>457.0</ele></trkpt>
   <trkpt lat="68.795384" lon="16.314007"><ele>457.6</ele></trkpt>
   <trkpt lat="68.795389" lon="16.313995"><ele>457.8</ele></trkpt>
   <trkpt lat="68.795395" lon="16.313984"><ele>458.0</ele></trkpt>
   <trkpt lat="68.795416" lon="16.313905"><ele>458.8</ele></trkpt>
   <trkpt lat="68.795418" lon="16.313889"><ele>458.8</ele></trkpt>
   <trkpt lat="68.795425" lon="16.313867"><ele>459.0</ele></trkpt>
   <trkpt lat="68.795455" lon="16.313811"><ele>459.8</ele></trkpt>
   <trkpt lat="68.795459" lon="16.313802"><ele>459.8</ele></trkpt>
   <trkpt lat="68.795482" lon="16.313753"><ele>460.4</ele></trkpt>
   <trkpt lat="68.795491" lon="16.313683"><ele>460.8</ele></trkpt>
   <trkpt lat="68.795495" lon="16.313630"><ele>461.2</ele></trkpt>
   <trkpt lat="68.795510" lon="16.313516"><ele>461.6</ele></trkpt>
   <trkpt lat="68.795514" lon="16.313500"><ele>461.6</ele></trkpt>
   <trkpt lat="68.795517" lon="16.313489"><ele>461.6</ele></trkpt>
   <trkpt lat="68.795529" lon="16.313429"><ele>462.0</ele></trkpt>
   <trkpt lat="68.795544" lon="16.313333"><ele>462.6</ele></trkpt>
   <trkpt lat="68.795546" lon="16.313314"><ele>462.8</ele></trkpt>
   <trkpt lat="68.795548" lon="16.313300"><ele>463.0</ele></trkpt>
   <trkpt lat="68.795578" lon="16.313233"><ele>463.4</ele></trkpt>
   <trkpt lat="68.795581" lon="16.313235"><ele>464.0</ele></trkpt>
   <trkpt lat="68.795591" lon="16.313176"><ele>463.8</ele></trkpt>
   <trkpt lat="68.795604" lon="16.313133"><ele>464.0</ele></trkpt>
   <trkpt lat="68.795623" lon="16.313065"><ele>464.4</ele></trkpt>
   <trkpt lat="68.795649" lon="16.312982"><ele>465.2</ele></trkpt>
   <trkpt lat="68.795659" lon="16.312952"><ele>465.8</ele></trkpt>
   <trkpt lat="68.795684" lon="16.312886"><ele>466.2</ele></trkpt>
   <trkpt lat="68.795688" lon="16.312870"><ele>466.4</ele></trkpt>
   <trkpt lat="68.795700" lon="16.312774"><ele>466.8</ele></trkpt>
   <trkpt lat="68.795717" lon="16.312715"><ele>467.4</ele></trkpt>
   <trkpt lat="68.795737" lon="16.312645"><ele>468.0</ele></trkpt>
   <trkpt lat="68.795751" lon="16.312572"><ele>468.6</ele></trkpt>
   <trkpt lat="68.795774" lon="16.312492"><ele>469.2</ele></trkpt>
   <trkpt lat="68.795780" lon="16.312444"><ele>469.8</ele></trkpt>
   <trkpt lat="68.795791" lon="16.312318"><ele>470.2</ele></trkpt>
   <trkpt lat="68.795795" lon="16.312297"><ele>470.4</ele></trkpt>
   <trkpt lat="68.795808" lon="16.312238"><ele>470.8</ele></trkpt>
   <trkpt lat="68.795834" lon="16.312170"><ele>471.6</ele></trkpt>
   <trkpt lat="68.795846" lon="16.312135"><ele>472.0</ele></trkpt>
   <trkpt lat="68.795867" lon="16.312052"><ele>472.6</ele></trkpt>
   <trkpt lat="68.795872" lon="16.312041"><ele>472.6</ele></trkpt>
   <trkpt lat="68.795886" lon="16.312018"><ele>473.0</ele></trkpt>
   <trkpt lat="68.795915" lon="16.311941"><ele>473.6</ele></trkpt>
   <trkpt lat="68.795924" lon="16.311919"><ele>474.0</ele></trkpt>
   <trkpt lat="68.795925" lon="16.311905"><ele>474.4</ele></trkpt>
   <trkpt lat="68.795927" lon="16.311888"><ele>474.6</ele></trkpt>
   <trkpt lat="68.795943" lon="16.311812"><ele>475.2</ele></trkpt>
   <trkpt lat="68.795945" lon="16.311794"><ele>475.4</ele></trkpt>
   <trkpt lat="68.795953" lon="16.311767"><ele>475.6</ele></trkpt>
   <trkpt lat="68.795959" lon="16.311756"><ele>475.8</ele></trkpt>
   <trkpt lat="68.795964" lon="16.311708"><ele>476.2</ele></trkpt>
   <trkpt lat="68.795973" lon="16.311639"><ele>476.8</ele></trkpt>
   <trkpt lat="68.795976" lon="16.311621"><ele>477.0</ele></trkpt>
   <trkpt lat="68.795987" lon="16.311565"><ele>477.4</ele></trkpt>
   <trkpt lat="68.796006" lon="16.311496"><ele>477.8</ele></trkpt>
   <trkpt lat="68.796023" lon="16.311455"><ele>478.4</ele></trkpt>
   <trkpt lat="68.796034" lon="16.311410"><ele>478.8</ele></trkpt>
   <trkpt lat="68.796040" lon="16.311371"><ele>479.4</ele></trkpt>
   <trkpt lat="68.796043" lon="16.311356"><ele>479.6</ele></trkpt>
   <trkpt lat="68.796047" lon="16.311344"><ele>479.8</ele></trkpt>
   <trkpt lat="68.796062" lon="16.311289"><ele>480.2</ele></trkpt>
   <trkpt lat="68.796079" lon="16.311220"><ele>480.6</ele></trkpt>
   <trkpt lat="68.796090" lon="16.311144"><ele>481.0</ele></trkpt>
   <trkpt lat="68.796088" lon="16.311118"><ele>481.2</ele></trkpt>
   <trkpt lat="68.796087" lon="16.311092"><ele>481.2</ele></trkpt>
   <trkpt lat="68.796092" lon="16.310990"><ele>481.8</ele></trkpt>
   <trkpt lat="68.796116" lon="16.310874"><ele>481.8</ele></trkpt>
   <trkpt lat="68.796138" lon="16.310772"><ele>482.2</ele></trkpt>
   <trkpt lat="68.796163" lon="16.310638"><ele>482.2</ele></trkpt>
   <trkpt lat="68.796192" lon="16.310533"><ele>482.6</ele></trkpt>
   <trkpt lat="68.796202" lon="16.310454"><ele>482.8</ele></trkpt>
   <trkpt lat="68.796228" lon="16.310319"><ele>482.8</ele></trkpt>
   <trkpt lat="68.796242" lon="16.310258"><ele>482.8</ele></trkpt>
   <trkpt lat="68.796271" lon="16.310140"><ele>482.8</ele></trkpt>
   <trkpt lat="68.796277" lon="16.310116"><ele>482.8</ele></trkpt>
   <trkpt lat="68.796295" lon="16.310037"><ele>483.0</ele></trkpt>
   <trkpt lat="68.796301" lon="16.310009"><ele>483.0</ele></trkpt>
   <trkpt lat="68.796303" lon="16.309981"><ele>483.0</ele></trkpt>
   <trkpt lat="68.796312" lon="16.309936"><ele>483.0</ele></trkpt>
   <trkpt lat="68.796317" lon="16.309919"><ele>483.0</ele></trkpt>
   <trkpt lat="68.796336" lon="16.309843"><ele>483.2</ele></trkpt>
   <trkpt lat="68.796341" lon="16.309791"><ele>483.4</ele></trkpt>
   <trkpt lat="68.796346" lon="16.309770"><ele>483.4</ele></trkpt>
   <trkpt lat="68.796375" lon="16.309645"><ele>483.2</ele></trkpt>
   <trkpt lat="68.796380" lon="16.309599"><ele>483.4</ele></trkpt>
   <trkpt lat="68.796384" lon="16.309542"><ele>483.4</ele></trkpt>
   <trkpt lat="68.796393" lon="16.309427"><ele>483.6</ele></trkpt>
   <trkpt lat="68.796395" lon="16.309273"><ele>483.6</ele></trkpt>
   <trkpt lat="68.796395" lon="16.309243"><ele>483.8</ele></trkpt>
   <trkpt lat="68.796397" lon="16.309214"><ele>483.8</ele></trkpt>
   <trkpt lat="68.796415" lon="16.309062"><ele>484.2</ele></trkpt>
   <trkpt lat="68.796419" lon="16.309000"><ele>484.2</ele></trkpt>
   <trkpt lat="68.796437" lon="16.308843"><ele>484.4</ele></trkpt>
   <trkpt lat="68.796454" lon="16.308659"><ele>484.6</ele></trkpt>
   <trkpt lat="68.796481" lon="16.308499"><ele>484.6</ele></trkpt>
   <trkpt lat="68.796488" lon="16.308418"><ele>484.8</ele></trkpt>
   <trkpt lat="68.796503" lon="16.308343"><ele>485.0</ele></trkpt>
   <trkpt lat="68.796527" lon="16.308191"><ele>485.4</ele></trkpt>
   <trkpt lat="68.796539" lon="16.308027"><ele>485.4</ele></trkpt>
   <trkpt lat="68.796544" lon="16.308006"><ele>485.6</ele></trkpt>
   <trkpt lat="68.796569" lon="16.307846"><ele>485.6</ele></trkpt>
   <trkpt lat="68.796586" lon="16.307744"><ele>485.8</ele></trkpt>
   <trkpt lat="68.796592" lon="16.307694"><ele>486.0</ele></trkpt>
   <trkpt lat="68.796601" lon="16.307563"><ele>486.6</ele></trkpt>
   <trkpt lat="68.796602" lon="16.307538"><ele>486.8</ele></trkpt>
   <trkpt lat="68.796601" lon="16.307481"><ele>487.0</ele></trkpt>
   <trkpt lat="68.796602" lon="16.307334"><ele>487.8</ele></trkpt>
   <trkpt lat="68.796604" lon="16.307293"><ele>488.2</ele></trkpt>
   <trkpt lat="68.796613" lon="16.307174"><ele>488.6</ele></trkpt>
   <trkpt lat="68.796610" lon="16.307100"><ele>489.4</ele></trkpt>
   <trkpt lat="68.796610" lon="16.307077"><ele>489.4</ele></trkpt>
   <trkpt lat="68.796612" lon="16.306958"><ele>490.4</ele></trkpt>
   <trkpt lat="68.796611" lon="16.306858"><ele>491.0</ele></trkpt>
   <trkpt lat="68.796615" lon="16.306799"><ele>491.6</ele></trkpt>
   <trkpt lat="68.796617" lon="16.306676"><ele>492.2</ele></trkpt>
   <trkpt lat="68.796620" lon="16.306635"><ele>492.6</ele></trkpt>
   <trkpt lat="68.796618" lon="16.306613"><ele>492.6</ele></trkpt>
   <trkpt lat="68.796615" lon="16.306487"><ele>493.6</ele></trkpt>
   <trkpt lat="68.796614" lon="16.306464"><ele>493.8</ele></trkpt>
   <trkpt lat="68.796612" lon="16.306444"><ele>493.8</ele></trkpt>
   <trkpt lat="68.796607" lon="16.306408"><ele>494.2</ele></trkpt>
  </trkseg>
 </trk>
</gpx>
