{
  "type": "FeatureCollection",
  "features": [
    {
      "type": "Feature",
      "properties": {
        "kind": "label",
        "title": "Toppen",
        "text": "Hovedstarten.",
        "source": "stedsfilen"
      },
      "geometry": {
        "type": "Point",
        "coordinates": [
          16.36667,
          68.80389
        ]
      }
    },
    {
      "type": "Feature",
      "properties": {
        "kind": "label",
        "style": "hazard",
        "title": "Masta og heisen",
        "text": "Trakteffekt, se «Før du starter».",
        "source": "farer i stedsfilen"
      },
      "geometry": {
        "type": "Point",
        "coordinates": [
          16.37694,
          68.80604
        ]
      }
    },
    {
      "type": "Feature",
      "properties": {
        "kind": "label",
        "title": "Myra",
        "text": "Landing og parkering.",
        "source": "landing i stedsfilen"
      },
      "geometry": {
        "type": "Point",
        "coordinates": [
          16.40667,
          68.80194
        ]
      }
    }
  ]
}
