<?xml version="1.0" encoding="UTF-8"?>
<gpx version="1.1" creator="HPGT flysteder" xmlns="http://www.topografix.com/GPX/1/1">
 <trk>
  <name>Samaåsen – landing til start</name>
  <trkseg>
   <trkpt lat="68.815189" lon="16.521081"><ele>-64.0</ele></trkpt>
   <trkpt lat="68.815189" lon="16.521081"><ele>-63.6</ele></trkpt>
   <trkpt lat="68.815189" lon="16.521081"><ele>-62.6</ele></trkpt>
   <trkpt lat="68.815189" lon="16.521081"><ele>-63.0</ele></trkpt>
   <trkpt lat="68.815193" lon="16.521194"><ele>-63.0</ele></trkpt>
   <trkpt lat="68.815225" lon="16.521269"><ele>-62.8</ele></trkpt>
   <trkpt lat="68.815289" lon="16.521392"><ele>-62.4</ele></trkpt>
   <trkpt lat="68.815311" lon="16.521469"><ele>-62.0</ele></trkpt>
   <trkpt lat="68.815335" lon="16.521544"><ele>-61.8</ele></trkpt>
   <trkpt lat="68.815356" lon="16.521603"><ele>-61.6</ele></trkpt>
   <trkpt lat="68.815363" lon="16.521629"><ele>-61.6</ele></trkpt>
   <trkpt lat="68.815382" lon="16.521744"><ele>-61.2</ele></trkpt>
   <trkpt lat="68.815387" lon="16.521769"><ele>-61.0</ele></trkpt>
   <trkpt lat="68.815412" lon="16.521962"><ele>-60.6</ele></trkpt>
   <trkpt lat="68.815422" lon="16.522014"><ele>-60.6</ele></trkpt>
   <trkpt lat="68.815434" lon="16.522078"><ele>-60.6</ele></trkpt>
   <trkpt lat="68.815468" lon="16.522266"><ele>-60.2</ele></trkpt>
   <trkpt lat="68.815487" lon="16.522359"><ele>-60.0</ele></trkpt>
   <trkpt lat="68.815507" lon="16.522451"><ele>-59.6</ele></trkpt>
   <trkpt lat="68.815515" lon="16.522479"><ele>-59.6</ele></trkpt>
   <trkpt lat="68.815547" lon="16.522669"><ele>-59.2</ele></trkpt>
   <trkpt lat="68.815586" lon="16.522881"><ele>-58.8</ele></trkpt>
   <trkpt lat="68.815613" lon="16.523009"><ele>-58.6</ele></trkpt>
   <trkpt lat="68.815632" lon="16.523133"><ele>-58.2</ele></trkpt>
   <trkpt lat="68.815652" lon="16.523272"><ele>-57.8</ele></trkpt>
   <trkpt lat="68.815671" lon="16.523410"><ele>-57.6</ele></trkpt>
   <trkpt lat="68.815695" lon="16.523551"><ele>-57.4</ele></trkpt>
   <trkpt lat="68.815734" lon="16.523732"><ele>-57.2</ele></trkpt>
   <trkpt lat="68.815752" lon="16.523829"><ele>-57.0</ele></trkpt>
   <trkpt lat="68.815775" lon="16.523961"><ele>-56.8</ele></trkpt>
   <trkpt lat="68.815795" lon="16.524093"><ele>-56.4</ele></trkpt>
   <trkpt lat="68.815823" lon="16.524294"><ele>-55.8</ele></trkpt>
   <trkpt lat="68.815836" lon="16.524387"><ele>-55.4</ele></trkpt>
   <trkpt lat="68.815839" lon="16.524425"><ele>-55.4</ele></trkpt>
   <trkpt lat="68.815853" lon="16.524593"><ele>-55.2</ele></trkpt>
   <trkpt lat="68.815877" lon="16.524780"><ele>-54.4</ele></trkpt>
   <trkpt lat="68.815880" lon="16.524810"><ele>-54.4</ele></trkpt>
   <trkpt lat="68.815887" lon="16.524870"><ele>-54.0</ele></trkpt>
   <trkpt lat="68.815911" lon="16.525055"><ele>-53.4</ele></trkpt>
   <trkpt lat="68.815914" lon="16.525081"><ele>-53.2</ele></trkpt>
   <trkpt lat="68.815938" lon="16.525277"><ele>-52.2</ele></trkpt>
   <trkpt lat="68.815941" lon="16.525302"><ele>-52.0</ele></trkpt>
   <trkpt lat="68.815948" lon="16.525355"><ele>-51.6</ele></trkpt>
   <trkpt lat="68.815964" lon="16.525466"><ele>-51.0</ele></trkpt>
   <trkpt lat="68.816000" lon="16.525640"><ele>-50.0</ele></trkpt>
   <trkpt lat="68.816012" lon="16.525742"><ele>-49.6</ele></trkpt>
   <trkpt lat="68.816022" lon="16.525811"><ele>-49.4</ele></trkpt>
   <trkpt lat="68.816061" lon="16.525979"><ele>-49.2</ele></trkpt>
   <trkpt lat="68.816091" lon="16.526123"><ele>-49.2</ele></trkpt>
   <trkpt lat="68.816118" lon="16.526262"><ele>-48.8</ele></trkpt>
   <trkpt lat="68.816126" lon="16.526292"><ele>-48.8</ele></trkpt>
   <trkpt lat="68.816134" lon="16.526325"><ele>-48.6</ele></trkpt>
   <trkpt lat="68.816145" lon="16.526352"><ele>-48.6</ele></trkpt>
   <trkpt lat="68.816150" lon="16.526369"><ele>-48.6</ele></trkpt>
   <trkpt lat="68.816166" lon="16.526396"><ele>-48.6</ele></trkpt>
   <trkpt lat="68.816217" lon="16.526581"><ele>-48.6</ele></trkpt>
   <trkpt lat="68.816246" lon="16.526690"><ele>-48.6</ele></trkpt>
   <trkpt lat="68.816283" lon="16.526882"><ele>-48.6</ele></trkpt>
   <trkpt lat="68.816322" lon="16.527123"><ele>-48.8</ele></trkpt>
   <trkpt lat="68.816352" lon="16.527197"><ele>-48.8</ele></trkpt>
   <trkpt lat="68.816366" lon="16.527253"><ele>-49.0</ele></trkpt>
   <trkpt lat="68.816373" lon="16.527282"><ele>-49.0</ele></trkpt>
   <trkpt lat="68.816413" lon="16.527443"><ele>-48.8</ele></trkpt>
   <trkpt lat="68.816416" lon="16.527474"><ele>-48.8</ele></trkpt>
   <trkpt lat="68.816445" lon="16.527608"><ele>-48.6</ele></trkpt>
   <trkpt lat="68.816464" lon="16.527716"><ele>-47.8</ele></trkpt>
   <trkpt lat="68.816470" lon="16.527838"><ele>-47.2</ele></trkpt>
   <trkpt lat="68.816481" lon="16.527881"><ele>-46.8</ele></trkpt>
   <trkpt lat="68.816499" lon="16.527936"><ele>-46.2</ele></trkpt>
   <trkpt lat="68.816507" lon="16.527980"><ele>-45.8</ele></trkpt>
   <trkpt lat="68.816512" lon="16.528012"><ele>-47.0</ele></trkpt>
   <trkpt lat="68.816530" lon="16.528085"><ele>-46.0</ele></trkpt>
   <trkpt lat="68.816533" lon="16.528104"><ele>-45.8</ele></trkpt>
   <trkpt lat="68.816554" lon="16.528203"><ele>-45.2</ele></trkpt>
   <trkpt lat="68.816566" lon="16.528254"><ele>-44.6</ele></trkpt>
   <trkpt lat="68.816573" lon="16.528292"><ele>-44.4</ele></trkpt>
   <trkpt lat="68.816583" lon="16.528321"><ele>-44.0</ele></trkpt>
   <trkpt lat="68.816598" lon="16.528354"><ele>-43.6</ele></trkpt>
   <trkpt lat="68.816606" lon="16.528373"><ele>-43.4</ele></trkpt>
   <trkpt lat="68.816627" lon="16.528458"><ele>-43.0</ele></trkpt>
   <trkpt lat="68.816640" lon="16.528492"><ele>-42.4</ele></trkpt>
   <trkpt lat="68.816650" lon="16.528520"><ele>-42.2</ele></trkpt>
   <trkpt lat="68.816696" lon="16.528622"><ele>-41.2</ele></trkpt>
   <trkpt lat="68.816717" lon="16.528677"><ele>-40.8</ele></trkpt>
   <trkpt lat="68.816724" lon="16.528710"><ele>-40.4</ele></trkpt>
   <trkpt lat="68.816726" lon="16.528725"><ele>-40.2</ele></trkpt>
   <trkpt lat="68.816760" lon="16.528796"><ele>-39.4</ele></trkpt>
   <trkpt lat="68.816773" lon="16.528798"><ele>-39.2</ele></trkpt>
   <trkpt lat="68.816783" lon="16.528803"><ele>-39.0</ele></trkpt>
   <trkpt lat="68.816833" lon="16.528791"><ele>-38.6</ele></trkpt>
   <trkpt lat="68.816852" lon="16.528783"><ele>-38.2</ele></trkpt>
   <trkpt lat="68.816859" lon="16.528795"><ele>-38.0</ele></trkpt>
   <trkpt lat="68.816877" lon="16.528926"><ele>-37.0</ele></trkpt>
   <trkpt lat="68.816876" lon="16.528944"><ele>-36.8</ele></trkpt>
   <trkpt lat="68.816859" lon="16.528972"><ele>-36.0</ele></trkpt>
   <trkpt lat="68.816853" lon="16.528996"><ele>-35.8</ele></trkpt>
   <trkpt lat="68.816850" lon="16.529055"><ele>-35.2</ele></trkpt>
   <trkpt lat="68.816842" lon="16.529108"><ele>-35.0</ele></trkpt>
   <trkpt lat="68.816842" lon="16.529135"><ele>-34.8</ele></trkpt>
   <trkpt lat="68.816832" lon="16.529227"><ele>-34.2</ele></trkpt>
   <trkpt lat="68.816804" lon="16.529304"><ele>-33.6</ele></trkpt>
   <trkpt lat="68.816773" lon="16.529416"><ele>-32.6</ele></trkpt>
   <trkpt lat="68.816765" lon="16.529425"><ele>-32.6</ele></trkpt>
   <trkpt lat="68.816755" lon="16.529565"><ele>-31.6</ele></trkpt>
   <trkpt lat="68.816754" lon="16.529603"><ele>-31.4</ele></trkpt>
   <trkpt lat="68.816753" lon="16.529635"><ele>-31.4</ele></trkpt>
   <trkpt lat="68.816759" lon="16.529706"><ele>-30.8</ele></trkpt>
   <trkpt lat="68.816761" lon="16.529774"><ele>-30.4</ele></trkpt>
   <trkpt lat="68.816762" lon="16.529808"><ele>-30.4</ele></trkpt>
   <trkpt lat="68.816762" lon="16.529840"><ele>-30.2</ele></trkpt>
   <trkpt lat="68.816764" lon="16.529876"><ele>-30.0</ele></trkpt>
   <trkpt lat="68.816772" lon="16.530034"><ele>-29.4</ele></trkpt>
   <trkpt lat="68.816775" lon="16.530057"><ele>-29.2</ele></trkpt>
   <trkpt lat="68.816778" lon="16.530138"><ele>-29.0</ele></trkpt>
   <trkpt lat="68.816762" lon="16.530305"><ele>-28.6</ele></trkpt>
   <trkpt lat="68.816758" lon="16.530351"><ele>-28.4</ele></trkpt>
   <trkpt lat="68.816760" lon="16.530393"><ele>-28.2</ele></trkpt>
   <trkpt lat="68.816753" lon="16.530479"><ele>-28.0</ele></trkpt>
   <trkpt lat="68.816742" lon="16.530670"><ele>-27.8</ele></trkpt>
   <trkpt lat="68.816754" lon="16.530827"><ele>-28.0</ele></trkpt>
   <trkpt lat="68.816761" lon="16.530849"><ele>-28.0</ele></trkpt>
   <trkpt lat="68.816767" lon="16.530881"><ele>-27.8</ele></trkpt>
   <trkpt lat="68.816763" lon="16.531080"><ele>-27.2</ele></trkpt>
   <trkpt lat="68.816743" lon="16.531370"><ele>-26.8</ele></trkpt>
   <trkpt lat="68.816731" lon="16.531482"><ele>-26.6</ele></trkpt>
   <trkpt lat="68.816685" lon="16.531643"><ele>-26.4</ele></trkpt>
   <trkpt lat="68.816666" lon="16.531740"><ele>-26.2</ele></trkpt>
   <trkpt lat="68.816663" lon="16.531778"><ele>-26.0</ele></trkpt>
   <trkpt lat="68.816631" lon="16.531971"><ele>-25.2</ele></trkpt>
   <trkpt lat="68.816627" lon="16.531998"><ele>-25.2</ele></trkpt>
   <trkpt lat="68.816618" lon="16.532066"><ele>-25.0</ele></trkpt>
   <trkpt lat="68.816596" lon="16.532218"><ele>-24.2</ele></trkpt>
   <trkpt lat="68.816587" lon="16.532255"><ele>-23.8</ele></trkpt>
   <trkpt lat="68.816585" lon="16.532281"><ele>-23.6</ele></trkpt>
   <trkpt lat="68.816584" lon="16.532311"><ele>-23.6</ele></trkpt>
   <trkpt lat="68.816589" lon="16.532387"><ele>-23.0</ele></trkpt>
   <trkpt lat="68.816593" lon="16.532466"><ele>-22.6</ele></trkpt>
   <trkpt lat="68.816597" lon="16.532517"><ele>-22.0</ele></trkpt>
   <trkpt lat="68.816614" lon="16.532644"><ele>-21.0</ele></trkpt>
   <trkpt lat="68.816616" lon="16.532652"><ele>-20.8</ele></trkpt>
   <trkpt lat="68.816621" lon="16.532700"><ele>-20.0</ele></trkpt>
   <trkpt lat="68.816624" lon="16.532706"><ele>-19.6</ele></trkpt>
   <trkpt lat="68.816636" lon="16.532711"><ele>-19.2</ele></trkpt>
   <trkpt lat="68.816639" lon="16.532724"><ele>-18.8</ele></trkpt>
   <trkpt lat="68.816642" lon="16.532744"><ele>-18.6</ele></trkpt>
   <trkpt lat="68.816651" lon="16.532777"><ele>-18.2</ele></trkpt>
   <trkpt lat="68.816661" lon="16.532790"><ele>-17.8</ele></trkpt>
   <trkpt lat="68.816665" lon="16.532802"><ele>-17.8</ele></trkpt>
   <trkpt lat="68.816674" lon="16.532834"><ele>-17.2</ele></trkpt>
   <trkpt lat="68.816691" lon="16.532886"><ele>-16.8</ele></trkpt>
   <trkpt lat="68.816696" lon="16.532885"><ele>-16.6</ele></trkpt>
   <trkpt lat="68.816718" lon="16.532909"><ele>-16.2</ele></trkpt>
   <trkpt lat="68.816731" lon="16.532926"><ele>-16.0</ele></trkpt>
   <trkpt lat="68.816754" lon="16.532954"><ele>-15.4</ele></trkpt>
   <trkpt lat="68.816792" lon="16.532990"><ele>-14.2</ele></trkpt>
   <trkpt lat="68.816802" lon="16.533003"><ele>-14.0</ele></trkpt>
   <trkpt lat="68.816812" lon="16.533025"><ele>-13.6</ele></trkpt>
   <trkpt lat="68.816817" lon="16.533047"><ele>-13.4</ele></trkpt>
   <trkpt lat="68.816825" lon="16.533064"><ele>-13.4</ele></trkpt>
   <trkpt lat="68.816834" lon="16.533074"><ele>-13.2</ele></trkpt>
   <trkpt lat="68.816866" lon="16.533069"><ele>-12.8</ele></trkpt>
   <trkpt lat="68.816870" lon="16.533074"><ele>-12.6</ele></trkpt>
   <trkpt lat="68.816880" lon="16.533091"><ele>-12.4</ele></trkpt>
   <trkpt lat="68.816889" lon="16.533098"><ele>-12.4</ele></trkpt>
   <trkpt lat="68.816896" lon="16.533109"><ele>-12.2</ele></trkpt>
   <trkpt lat="68.816902" lon="16.533122"><ele>-11.8</ele></trkpt>
   <trkpt lat="68.816919" lon="16.533148"><ele>-11.6</ele></trkpt>
   <trkpt lat="68.816950" lon="16.533170"><ele>-11.0</ele></trkpt>
   <trkpt lat="68.816994" lon="16.533204"><ele>-10.2</ele></trkpt>
   <trkpt lat="68.817001" lon="16.533233"><ele>-10.2</ele></trkpt>
   <trkpt lat="68.817009" lon="16.533306"><ele>-10.0</ele></trkpt>
   <trkpt lat="68.817020" lon="16.533425"><ele>-9.6</ele></trkpt>
   <trkpt lat="68.817014" lon="16.533436"><ele>-9.4</ele></trkpt>
   <trkpt lat="68.816998" lon="16.533453"><ele>-8.8</ele></trkpt>
   <trkpt lat="68.816981" lon="16.533449"><ele>-8.4</ele></trkpt>
   <trkpt lat="68.816958" lon="16.533444"><ele>-7.8</ele></trkpt>
   <trkpt lat="68.816929" lon="16.533456"><ele>-7.2</ele></trkpt>
   <trkpt lat="68.816920" lon="16.533515"><ele>-6.6</ele></trkpt>
   <trkpt lat="68.816925" lon="16.533623"><ele>-6.0</ele></trkpt>
   <trkpt lat="68.816924" lon="16.533656"><ele>-5.6</ele></trkpt>
   <trkpt lat="68.816926" lon="16.533748"><ele>-4.6</ele></trkpt>
   <trkpt lat="68.816928" lon="16.533849"><ele>-4.0</ele></trkpt>
   <trkpt lat="68.816929" lon="16.533888"><ele>-4.0</ele></trkpt>
   <trkpt lat="68.816931" lon="16.534091"><ele>-3.4</ele></trkpt>
   <trkpt lat="68.816952" lon="16.534268"><ele>-2.4</ele></trkpt>
   <trkpt lat="68.816955" lon="16.534298"><ele>-2.2</ele></trkpt>
   <trkpt lat="68.816959" lon="16.534388"><ele>-1.8</ele></trkpt>
   <trkpt lat="68.816953" lon="16.534438"><ele>-1.0</ele></trkpt>
   <trkpt lat="68.816937" lon="16.534498"><ele>0.0</ele></trkpt>
   <trkpt lat="68.816937" lon="16.534544"><ele>0.4</ele></trkpt>
   <trkpt lat="68.816935" lon="16.534604"><ele>1.2</ele></trkpt>
   <trkpt lat="68.816929" lon="16.534699"><ele>2.4</ele></trkpt>
   <trkpt lat="68.816918" lon="16.534753"><ele>3.4</ele></trkpt>
   <trkpt lat="68.816910" lon="16.534773"><ele>3.8</ele></trkpt>
   <trkpt lat="68.816903" lon="16.534799"><ele>4.0</ele></trkpt>
   <trkpt lat="68.816882" lon="16.534860"><ele>4.4</ele></trkpt>
   <trkpt lat="68.816865" lon="16.534878"><ele>4.6</ele></trkpt>
   <trkpt lat="68.816856" lon="16.534895"><ele>4.6</ele></trkpt>
   <trkpt lat="68.816845" lon="16.534923"><ele>4.8</ele></trkpt>
   <trkpt lat="68.816800" lon="16.535020"><ele>5.4</ele></trkpt>
   <trkpt lat="68.816794" lon="16.535043"><ele>5.4</ele></trkpt>
   <trkpt lat="68.816731" lon="16.535187"><ele>5.4</ele></trkpt>
   <trkpt lat="68.816700" lon="16.535230"><ele>5.4</ele></trkpt>
   <trkpt lat="68.816693" lon="16.535247"><ele>5.4</ele></trkpt>
   <trkpt lat="68.816684" lon="16.535301"><ele>5.4</ele></trkpt>
   <trkpt lat="68.816676" lon="16.535364"><ele>5.8</ele></trkpt>
   <trkpt lat="68.816669" lon="16.535400"><ele>6.0</ele></trkpt>
   <trkpt lat="68.816642" lon="16.535439"><ele>6.4</ele></trkpt>
   <trkpt lat="68.816602" lon="16.535470"><ele>6.8</ele></trkpt>
   <trkpt lat="68.816571" lon="16.535462"><ele>7.4</ele></trkpt>
   <trkpt lat="68.816543" lon="16.535457"><ele>7.8</ele></trkpt>
   <trkpt lat="68.816535" lon="16.535472"><ele>8.0</ele></trkpt>
   <trkpt lat="68.816510" lon="16.535497"><ele>8.0</ele></trkpt>
   <trkpt lat="68.816485" lon="16.535500"><ele>8.2</ele></trkpt>
   <trkpt lat="68.816466" lon="16.535492"><ele>8.2</ele></trkpt>
   <trkpt lat="68.816438" lon="16.535448"><ele>8.2</ele></trkpt>
   <trkpt lat="68.816400" lon="16.535364"><ele>8.0</ele></trkpt>
   <trkpt lat="68.816389" lon="16.535354"><ele>8.0</ele></trkpt>
   <trkpt lat="68.816329" lon="16.535317"><ele>8.0</ele></trkpt>
   <trkpt lat="68.816302" lon="16.535282"><ele>8.0</ele></trkpt>
   <trkpt lat="68.816238" lon="16.535240"><ele>8.2</ele></trkpt>
   <trkpt lat="68.816219" lon="16.535216"><ele>8.0</ele></trkpt>
   <trkpt lat="68.816186" lon="16.535204"><ele>7.8</ele></trkpt>
   <trkpt lat="68.816145" lon="16.535236"><ele>8.0</ele></trkpt>
   <trkpt lat="68.816085" lon="16.535344"><ele>8.2</ele></trkpt>
   <trkpt lat="68.816045" lon="16.535405"><ele>9.0</ele></trkpt>
   <trkpt lat="68.816038" lon="16.535454"><ele>9.4</ele></trkpt>
   <trkpt lat="68.816005" lon="16.535515"><ele>10.0</ele></trkpt>
   <trkpt lat="68.815999" lon="16.535531"><ele>10.4</ele></trkpt>
   <trkpt lat="68.815990" lon="16.535559"><ele>10.6</ele></trkpt>
   <trkpt lat="68.815978" lon="16.535590"><ele>11.2</ele></trkpt>
   <trkpt lat="68.815964" lon="16.535626"><ele>11.8</ele></trkpt>
   <trkpt lat="68.815956" lon="16.535669"><ele>12.4</ele></trkpt>
   <trkpt lat="68.815958" lon="16.535691"><ele>12.6</ele></trkpt>
   <trkpt lat="68.815959" lon="16.535710"><ele>13.0</ele></trkpt>
   <trkpt lat="68.815952" lon="16.535752"><ele>13.4</ele></trkpt>
   <trkpt lat="68.815919" lon="16.535769"><ele>14.2</ele></trkpt>
   <trkpt lat="68.815904" lon="16.535755"><ele>14.6</ele></trkpt>
   <trkpt lat="68.815898" lon="16.535753"><ele>14.8</ele></trkpt>
   <trkpt lat="68.815874" lon="16.535758"><ele>15.6</ele></trkpt>
   <trkpt lat="68.815837" lon="16.535783"><ele>16.6</ele></trkpt>
   <trkpt lat="68.815829" lon="16.535783"><ele>16.8</ele></trkpt>
   <trkpt lat="68.815821" lon="16.535775"><ele>17.0</ele></trkpt>
   <trkpt lat="68.815815" lon="16.535773"><ele>17.2</ele></trkpt>
   <trkpt lat="68.815799" lon="16.535788"><ele>17.4</ele></trkpt>
   <trkpt lat="68.815789" lon="16.535807"><ele>17.8</ele></trkpt>
   <trkpt lat="68.815782" lon="16.535828"><ele>18.0</ele></trkpt>
   <trkpt lat="68.815780" lon="16.535845"><ele>18.2</ele></trkpt>
   <trkpt lat="68.815775" lon="16.535845"><ele>18.0</ele></trkpt>
   <trkpt lat="68.815753" lon="16.535816"><ele>18.6</ele></trkpt>
   <trkpt lat="68.815733" lon="16.535791"><ele>19.0</ele></trkpt>
   <trkpt lat="68.815727" lon="16.535770"><ele>19.2</ele></trkpt>
   <trkpt lat="68.815724" lon="16.535754"><ele>19.4</ele></trkpt>
   <trkpt lat="68.815711" lon="16.535699"><ele>20.2</ele></trkpt>
   <trkpt lat="68.815701" lon="16.535618"><ele>21.2</ele></trkpt>
   <trkpt lat="68.815698" lon="16.535605"><ele>21.6</ele></trkpt>
   <trkpt lat="68.815665" lon="16.535613"><ele>22.6</ele></trkpt>
   <trkpt lat="68.815652" lon="16.535601"><ele>23.2</ele></trkpt>
   <trkpt lat="68.815649" lon="16.535582"><ele>23.8</ele></trkpt>
   <trkpt lat="68.815648" lon="16.535534"><ele>24.2</ele></trkpt>
   <trkpt lat="68.815642" lon="16.535497"><ele>24.6</ele></trkpt>
   <trkpt lat="68.815641" lon="16.535484"><ele>25.0</ele></trkpt>
   <trkpt lat="68.815629" lon="16.535412"><ele>26.0</ele></trkpt>
   <trkpt lat="68.815617" lon="16.535363"><ele>27.2</ele></trkpt>
   <trkpt lat="68.815616" lon="16.535335"><ele>27.8</ele></trkpt>
   <trkpt lat="68.815600" lon="16.535296"><ele>28.2</ele></trkpt>
   <trkpt lat="68.815593" lon="16.535249"><ele>29.2</ele></trkpt>
   <trkpt lat="68.815591" lon="16.535255"><ele>29.4</ele></trkpt>
   <trkpt lat="68.815598" lon="16.535241"><ele>29.6</ele></trkpt>
   <trkpt lat="68.815598" lon="16.535241"><ele>29.4</ele></trkpt>
   <trkpt lat="68.815598" lon="16.535241"><ele>30.4</ele></trkpt>
   <trkpt lat="68.815594" lon="16.535241"><ele>31.4</ele></trkpt>
   <trkpt lat="68.815593" lon="16.535241"><ele>31.6</ele></trkpt>
   <trkpt lat="68.815591" lon="16.535199"><ele>32.8</ele></trkpt>
   <trkpt lat="68.815575" lon="16.535132"><ele>34.0</ele></trkpt>
   <trkpt lat="68.815560" lon="16.535052"><ele>34.8</ele></trkpt>
   <trkpt lat="68.815535" lon="16.535002"><ele>35.0</ele></trkpt>
   <trkpt lat="68.815522" lon="16.534979"><ele>35.2</ele></trkpt>
   <trkpt lat="68.815497" lon="16.534925"><ele>35.8</ele></trkpt>
   <trkpt lat="68.815485" lon="16.534899"><ele>36.0</ele></trkpt>
   <trkpt lat="68.815453" lon="16.534817"><ele>36.8</ele></trkpt>
   <trkpt lat="68.815448" lon="16.534810"><ele>37.0</ele></trkpt>
   <trkpt lat="68.815440" lon="16.534793"><ele>37.4</ele></trkpt>
   <trkpt lat="68.815434" lon="16.534776"><ele>38.0</ele></trkpt>
   <trkpt lat="68.815429" lon="16.534765"><ele>38.4</ele></trkpt>
   <trkpt lat="68.815425" lon="16.534750"><ele>38.6</ele></trkpt>
   <trkpt lat="68.815418" lon="16.534718"><ele>39.0</ele></trkpt>
   <trkpt lat="68.815410" lon="16.534701"><ele>39.4</ele></trkpt>
   <trkpt lat="68.815403" lon="16.534706"><ele>39.8</ele></trkpt>
   <trkpt lat="68.815395" lon="16.534711"><ele>40.2</ele></trkpt>
   <trkpt lat="68.815389" lon="16.534708"><ele>40.4</ele></trkpt>
   <trkpt lat="68.815383" lon="16.534706"><ele>40.6</ele></trkpt>
   <trkpt lat="68.815368" lon="16.534687"><ele>41.2</ele></trkpt>
   <trkpt lat="68.815363" lon="16.534678"><ele>41.2</ele></trkpt>
   <trkpt lat="68.815360" lon="16.534667"><ele>41.6</ele></trkpt>
   <trkpt lat="68.815355" lon="16.534658"><ele>41.8</ele></trkpt>
   <trkpt lat="68.815350" lon="16.534654"><ele>42.0</ele></trkpt>
   <trkpt lat="68.815319" lon="16.534631"><ele>42.6</ele></trkpt>
   <trkpt lat="68.815305" lon="16.534610"><ele>43.0</ele></trkpt>
   <trkpt lat="68.815283" lon="16.534608"><ele>43.8</ele></trkpt>
   <trkpt lat="68.815248" lon="16.534605"><ele>44.8</ele></trkpt>
   <trkpt lat="68.815230" lon="16.534599"><ele>45.6</ele></trkpt>
   <trkpt lat="68.815223" lon="16.534596"><ele>45.8</ele></trkpt>
   <trkpt lat="68.815219" lon="16.534599"><ele>46.0</ele></trkpt>
   <trkpt lat="68.815215" lon="16.534605"><ele>46.2</ele></trkpt>
   <trkpt lat="68.815200" lon="16.534627"><ele>47.0</ele></trkpt>
   <trkpt lat="68.815194" lon="16.534627"><ele>47.2</ele></trkpt>
   <trkpt lat="68.815191" lon="16.534628"><ele>47.4</ele></trkpt>
   <trkpt lat="68.815184" lon="16.534627"><ele>48.0</ele></trkpt>
   <trkpt lat="68.815174" lon="16.534631"><ele>48.4</ele></trkpt>
   <trkpt lat="68.815162" lon="16.534592"><ele>49.4</ele></trkpt>
   <trkpt lat="68.815159" lon="16.534585"><ele>49.6</ele></trkpt>
   <trkpt lat="68.815153" lon="16.534591"><ele>50.0</ele></trkpt>
   <trkpt lat="68.815149" lon="16.534609"><ele>50.6</ele></trkpt>
   <trkpt lat="68.815146" lon="16.534625"><ele>50.8</ele></trkpt>
   <trkpt lat="68.815142" lon="16.534645"><ele>51.0</ele></trkpt>
   <trkpt lat="68.815135" lon="16.534721"><ele>51.6</ele></trkpt>
   <trkpt lat="68.815133" lon="16.534739"><ele>51.6</ele></trkpt>
   <trkpt lat="68.815132" lon="16.534748"><ele>51.8</ele></trkpt>
   <trkpt lat="68.815117" lon="16.534770"><ele>52.2</ele></trkpt>
   <trkpt lat="68.815098" lon="16.534730"><ele>52.2</ele></trkpt>
   <trkpt lat="68.815096" lon="16.534712"><ele>52.4</ele></trkpt>
   <trkpt lat="68.815080" lon="16.534662"><ele>52.6</ele></trkpt>
   <trkpt lat="68.815071" lon="16.534647"><ele>52.8</ele></trkpt>
   <trkpt lat="68.815026" lon="16.534555"><ele>53.6</ele></trkpt>
   <trkpt lat="68.815009" lon="16.534523"><ele>53.6</ele></trkpt>
   <trkpt lat="68.814999" lon="16.534503"><ele>53.8</ele></trkpt>
   <trkpt lat="68.814962" lon="16.534394"><ele>54.2</ele></trkpt>
   <trkpt lat="68.814927" lon="16.534319"><ele>54.6</ele></trkpt>
   <trkpt lat="68.814896" lon="16.534265"><ele>54.8</ele></trkpt>
   <trkpt lat="68.814882" lon="16.534187"><ele>54.8</ele></trkpt>
   <trkpt lat="68.814867" lon="16.534140"><ele>54.8</ele></trkpt>
   <trkpt lat="68.814828" lon="16.534044"><ele>55.4</ele></trkpt>
   <trkpt lat="68.814813" lon="16.533995"><ele>55.4</ele></trkpt>
   <trkpt lat="68.814804" lon="16.533983"><ele>55.6</ele></trkpt>
   <trkpt lat="68.814761" lon="16.533973"><ele>56.0</ele></trkpt>
   <trkpt lat="68.814751" lon="16.533971"><ele>56.2</ele></trkpt>
   <trkpt lat="68.814720" lon="16.533971"><ele>56.8</ele></trkpt>
   <trkpt lat="68.814711" lon="16.533981"><ele>57.0</ele></trkpt>
   <trkpt lat="68.814696" lon="16.533991"><ele>57.2</ele></trkpt>
   <trkpt lat="68.814672" lon="16.534027"><ele>57.6</ele></trkpt>
   <trkpt lat="68.814618" lon="16.534112"><ele>58.2</ele></trkpt>
   <trkpt lat="68.814593" lon="16.534170"><ele>58.4</ele></trkpt>
   <trkpt lat="68.814561" lon="16.534199"><ele>58.8</ele></trkpt>
   <trkpt lat="68.814512" lon="16.534171"><ele>59.2</ele></trkpt>
   <trkpt lat="68.814498" lon="16.534125"><ele>59.4</ele></trkpt>
   <trkpt lat="68.814478" lon="16.533970"><ele>60.0</ele></trkpt>
   <trkpt lat="68.814473" lon="16.533922"><ele>60.2</ele></trkpt>
   <trkpt lat="68.814466" lon="16.533868"><ele>60.4</ele></trkpt>
   <trkpt lat="68.814452" lon="16.533782"><ele>61.0</ele></trkpt>
   <trkpt lat="68.814446" lon="16.533731"><ele>61.4</ele></trkpt>
   <trkpt lat="68.814425" lon="16.533613"><ele>62.2</ele></trkpt>
   <trkpt lat="68.814422" lon="16.533585"><ele>62.4</ele></trkpt>
   <trkpt lat="68.814419" lon="16.533562"><ele>62.6</ele></trkpt>
   <trkpt lat="68.814406" lon="16.533504"><ele>63.4</ele></trkpt>
   <trkpt lat="68.814387" lon="16.533365"><ele>64.6</ele></trkpt>
   <trkpt lat="68.814377" lon="16.533314"><ele>65.0</ele></trkpt>
   <trkpt lat="68.814357" lon="16.533244"><ele>65.6</ele></trkpt>
   <trkpt lat="68.814319" lon="16.533100"><ele>66.6</ele></trkpt>
   <trkpt lat="68.814317" lon="16.533078"><ele>66.6</ele></trkpt>
   <trkpt lat="68.814315" lon="16.533054"><ele>66.8</ele></trkpt>
   <trkpt lat="68.814300" lon="16.532941"><ele>68.0</ele></trkpt>
   <trkpt lat="68.814284" lon="16.532867"><ele>68.6</ele></trkpt>
   <trkpt lat="68.814269" lon="16.532813"><ele>69.0</ele></trkpt>
   <trkpt lat="68.814245" lon="16.532694"><ele>70.0</ele></trkpt>
   <trkpt lat="68.814242" lon="16.532669"><ele>70.2</ele></trkpt>
   <trkpt lat="68.814226" lon="16.532575"><ele>71.0</ele></trkpt>
   <trkpt lat="68.814212" lon="16.532504"><ele>71.6</ele></trkpt>
   <trkpt lat="68.814200" lon="16.532431"><ele>72.2</ele></trkpt>
   <trkpt lat="68.814186" lon="16.532389"><ele>72.6</ele></trkpt>
   <trkpt lat="68.814165" lon="16.532295"><ele>73.2</ele></trkpt>
   <trkpt lat="68.814119" lon="16.532142"><ele>73.6</ele></trkpt>
   <trkpt lat="68.814110" lon="16.532121"><ele>73.6</ele></trkpt>
   <trkpt lat="68.814064" lon="16.532030"><ele>73.8</ele></trkpt>
   <trkpt lat="68.814027" lon="16.531994"><ele>74.0</ele></trkpt>
   <trkpt lat="68.814013" lon="16.531991"><ele>73.8</ele></trkpt>
   <trkpt lat="68.813975" lon="16.531967"><ele>73.4</ele></trkpt>
   <trkpt lat="68.813960" lon="16.531967"><ele>73.2</ele></trkpt>
   <trkpt lat="68.813926" lon="16.531956"><ele>72.8</ele></trkpt>
   <trkpt lat="68.813911" lon="16.531940"><ele>72.6</ele></trkpt>
   <trkpt lat="68.813882" lon="16.531917"><ele>72.2</ele></trkpt>
   <trkpt lat="68.813841" lon="16.531907"><ele>72.2</ele></trkpt>
   <trkpt lat="68.813773" lon="16.531852"><ele>73.0</ele></trkpt>
   <trkpt lat="68.813750" lon="16.531822"><ele>73.4</ele></trkpt>
   <trkpt lat="68.813728" lon="16.531787"><ele>73.6</ele></trkpt>
   <trkpt lat="68.813677" lon="16.531731"><ele>74.4</ele></trkpt>
   <trkpt lat="68.813670" lon="16.531729"><ele>74.6</ele></trkpt>
   <trkpt lat="68.813636" lon="16.531716"><ele>74.8</ele></trkpt>
   <trkpt lat="68.813625" lon="16.531709"><ele>75.0</ele></trkpt>
   <trkpt lat="68.813592" lon="16.531674"><ele>75.4</ele></trkpt>
   <trkpt lat="68.813582" lon="16.531655"><ele>75.6</ele></trkpt>
   <trkpt lat="68.813544" lon="16.531595"><ele>76.2</ele></trkpt>
   <trkpt lat="68.813517" lon="16.531567"><ele>76.6</ele></trkpt>
   <trkpt lat="68.813459" lon="16.531537"><ele>77.8</ele></trkpt>
   <trkpt lat="68.813428" lon="16.531519"><ele>77.8</ele></trkpt>
   <trkpt lat="68.813378" lon="16.531495"><ele>77.4</ele></trkpt>
   <trkpt lat="68.813358" lon="16.531478"><ele>77.2</ele></trkpt>
   <trkpt lat="68.813348" lon="16.531475"><ele>77.2</ele></trkpt>
   <trkpt lat="68.813336" lon="16.531472"><ele>77.2</ele></trkpt>
   <trkpt lat="68.813313" lon="16.531459"><ele>76.8</ele></trkpt>
   <trkpt lat="68.813303" lon="16.531453"><ele>76.6</ele></trkpt>
   <trkpt lat="68.813293" lon="16.531450"><ele>76.4</ele></trkpt>
   <trkpt lat="68.813272" lon="16.531413"><ele>76.2</ele></trkpt>
   <trkpt lat="68.813262" lon="16.531387"><ele>76.2</ele></trkpt>
   <trkpt lat="68.813253" lon="16.531363"><ele>76.0</ele></trkpt>
   <trkpt lat="68.813244" lon="16.531364"><ele>76.0</ele></trkpt>
   <trkpt lat="68.813226" lon="16.531355"><ele>76.2</ele></trkpt>
   <trkpt lat="68.813188" lon="16.531321"><ele>76.2</ele></trkpt>
   <trkpt lat="68.813163" lon="16.531281"><ele>76.0</ele></trkpt>
   <trkpt lat="68.813157" lon="16.531265"><ele>75.8</ele></trkpt>
   <trkpt lat="68.813140" lon="16.531233"><ele>75.6</ele></trkpt>
   <trkpt lat="68.813084" lon="16.531178"><ele>74.6</ele></trkpt>
   <trkpt lat="68.813062" lon="16.531158"><ele>74.0</ele></trkpt>
   <trkpt lat="68.813049" lon="16.531135"><ele>73.8</ele></trkpt>
   <trkpt lat="68.813038" lon="16.531120"><ele>73.4</ele></trkpt>
   <trkpt lat="68.813027" lon="16.531100"><ele>73.0</ele></trkpt>
   <trkpt lat="68.813006" lon="16.531091"><ele>72.4</ele></trkpt>
   <trkpt lat="68.812995" lon="16.531083"><ele>72.2</ele></trkpt>
   <trkpt lat="68.812982" lon="16.531072"><ele>71.8</ele></trkpt>
   <trkpt lat="68.812970" lon="16.531060"><ele>71.6</ele></trkpt>
   <trkpt lat="68.812942" lon="16.531025"><ele>71.4</ele></trkpt>
   <trkpt lat="68.812932" lon="16.530986"><ele>71.4</ele></trkpt>
   <trkpt lat="68.812907" lon="16.530918"><ele>71.2</ele></trkpt>
   <trkpt lat="68.812877" lon="16.530806"><ele>70.2</ele></trkpt>
   <trkpt lat="68.812866" lon="16.530775"><ele>69.8</ele></trkpt>
   <trkpt lat="68.812782" lon="16.530697"><ele>69.0</ele></trkpt>
   <trkpt lat="68.812716" lon="16.530602"><ele>69.2</ele></trkpt>
   <trkpt lat="68.812700" lon="16.530542"><ele>69.2</ele></trkpt>
   <trkpt lat="68.812694" lon="16.530491"><ele>69.0</ele></trkpt>
   <trkpt lat="68.812682" lon="16.530453"><ele>68.8</ele></trkpt>
   <trkpt lat="68.812633" lon="16.530328"><ele>68.2</ele></trkpt>
   <trkpt lat="68.812605" lon="16.530267"><ele>68.2</ele></trkpt>
   <trkpt lat="68.812549" lon="16.530189"><ele>68.8</ele></trkpt>
   <trkpt lat="68.812493" lon="16.530051"><ele>69.0</ele></trkpt>
   <trkpt lat="68.812482" lon="16.530033"><ele>69.0</ele></trkpt>
   <trkpt lat="68.812405" lon="16.529932"><ele>69.2</ele></trkpt>
   <trkpt lat="68.812364" lon="16.529862"><ele>68.8</ele></trkpt>
   <trkpt lat="68.812298" lon="16.529824"><ele>68.0</ele></trkpt>
   <trkpt lat="68.812273" lon="16.529815"><ele>68.0</ele></trkpt>
   <trkpt lat="68.812235" lon="16.529787"><ele>67.6</ele></trkpt>
   <trkpt lat="68.812175" lon="16.529754"><ele>66.6</ele></trkpt>
   <trkpt lat="68.812163" lon="16.529746"><ele>66.2</ele></trkpt>
   <trkpt lat="68.812120" lon="16.529733"><ele>65.4</ele></trkpt>
   <trkpt lat="68.812089" lon="16.529725"><ele>65.0</ele></trkpt>
   <trkpt lat="68.812063" lon="16.529731"><ele>64.6</ele></trkpt>
   <trkpt lat="68.812026" lon="16.529752"><ele>64.2</ele></trkpt>
   <trkpt lat="68.811965" lon="16.529788"><ele>62.8</ele></trkpt>
   <trkpt lat="68.811916" lon="16.529885"><ele>62.0</ele></trkpt>
   <trkpt lat="68.811904" lon="16.529887"><ele>62.0</ele></trkpt>
   <trkpt lat="68.811876" lon="16.529899"><ele>62.0</ele></trkpt>
   <trkpt lat="68.811863" lon="16.529904"><ele>61.8</ele></trkpt>
   <trkpt lat="68.811795" lon="16.529959"><ele>61.2</ele></trkpt>
   <trkpt lat="68.811761" lon="16.530041"><ele>61.2</ele></trkpt>
   <trkpt lat="68.811744" lon="16.530059"><ele>61.6</ele></trkpt>
   <trkpt lat="68.811740" lon="16.530072"><ele>61.8</ele></trkpt>
   <trkpt lat="68.811719" lon="16.530107"><ele>63.0</ele></trkpt>
   <trkpt lat="68.811713" lon="16.530128"><ele>63.2</ele></trkpt>
   <trkpt lat="68.811705" lon="16.530140"><ele>63.8</ele></trkpt>
   <trkpt lat="68.811698" lon="16.530159"><ele>64.0</ele></trkpt>
   <trkpt lat="68.811692" lon="16.530184"><ele>64.4</ele></trkpt>
   <trkpt lat="68.811672" lon="16.530165"><ele>65.2</ele></trkpt>
   <trkpt lat="68.811664" lon="16.530164"><ele>65.4</ele></trkpt>
   <trkpt lat="68.811641" lon="16.530113"><ele>66.4</ele></trkpt>
   <trkpt lat="68.811635" lon="16.530105"><ele>66.8</ele></trkpt>
   <trkpt lat="68.811622" lon="16.530101"><ele>67.4</ele></trkpt>
   <trkpt lat="68.811613" lon="16.530106"><ele>67.8</ele></trkpt>
   <trkpt lat="68.811593" lon="16.530109"><ele>68.4</ele></trkpt>
   <trkpt lat="68.811584" lon="16.530096"><ele>68.6</ele></trkpt>
   <trkpt lat="68.811576" lon="16.530076"><ele>68.8</ele></trkpt>
   <trkpt lat="68.811551" lon="16.530035"><ele>69.4</ele></trkpt>
   <trkpt lat="68.811530" lon="16.530007"><ele>69.8</ele></trkpt>
   <trkpt lat="68.811486" lon="16.529861"><ele>71.0</ele></trkpt>
   <trkpt lat="68.811480" lon="16.529837"><ele>71.2</ele></trkpt>
   <trkpt lat="68.811451" lon="16.529733"><ele>72.2</ele></trkpt>
   <trkpt lat="68.811412" lon="16.529636"><ele>73.2</ele></trkpt>
   <trkpt lat="68.811375" lon="16.529561"><ele>74.2</ele></trkpt>
   <trkpt lat="68.811366" lon="16.529543"><ele>74.6</ele></trkpt>
   <trkpt lat="68.811354" lon="16.529521"><ele>74.6</ele></trkpt>
   <trkpt lat="68.811291" lon="16.529439"><ele>75.0</ele></trkpt>
   <trkpt lat="68.811285" lon="16.529421"><ele>75.2</ele></trkpt>
   <trkpt lat="68.811278" lon="16.529404"><ele>75.4</ele></trkpt>
   <trkpt lat="68.811261" lon="16.529366"><ele>75.8</ele></trkpt>
   <trkpt lat="68.811239" lon="16.529326"><ele>76.4</ele></trkpt>
   <trkpt lat="68.811197" lon="16.529253"><ele>77.6</ele></trkpt>
   <trkpt lat="68.811182" lon="16.529226"><ele>78.0</ele></trkpt>
   <trkpt lat="68.811154" lon="16.529184"><ele>78.6</ele></trkpt>
   <trkpt lat="68.811143" lon="16.529171"><ele>78.8</ele></trkpt>
   <trkpt lat="68.811096" lon="16.529103"><ele>79.2</ele></trkpt>
   <trkpt lat="68.811033" lon="16.529010"><ele>79.8</ele></trkpt>
   <trkpt lat="68.810982" lon="16.528919"><ele>80.2</ele></trkpt>
   <trkpt lat="68.810923" lon="16.528842"><ele>80.8</ele></trkpt>
   <trkpt lat="68.810912" lon="16.528838"><ele>81.0</ele></trkpt>
   <trkpt lat="68.810874" lon="16.528807"><ele>81.8</ele></trkpt>
   <trkpt lat="68.810865" lon="16.528792"><ele>82.0</ele></trkpt>
   <trkpt lat="68.810809" lon="16.528743"><ele>83.2</ele></trkpt>
   <trkpt lat="68.810791" lon="16.528732"><ele>83.4</ele></trkpt>
   <trkpt lat="68.810749" lon="16.528731"><ele>84.2</ele></trkpt>
   <trkpt lat="68.810732" lon="16.528712"><ele>84.8</ele></trkpt>
   <trkpt lat="68.810717" lon="16.528667"><ele>85.4</ele></trkpt>
   <trkpt lat="68.810708" lon="16.528634"><ele>85.4</ele></trkpt>
   <trkpt lat="68.810668" lon="16.528506"><ele>85.8</ele></trkpt>
   <trkpt lat="68.810659" lon="16.528476"><ele>86.0</ele></trkpt>
   <trkpt lat="68.810638" lon="16.528393"><ele>86.4</ele></trkpt>
   <trkpt lat="68.810589" lon="16.528233"><ele>87.2</ele></trkpt>
   <trkpt lat="68.810565" lon="16.528176"><ele>87.4</ele></trkpt>
   <trkpt lat="68.810517" lon="16.527998"><ele>88.2</ele></trkpt>
   <trkpt lat="68.810509" lon="16.527972"><ele>88.4</ele></trkpt>
   <trkpt lat="68.810502" lon="16.527954"><ele>88.6</ele></trkpt>
   <trkpt lat="68.810495" lon="16.527930"><ele>88.6</ele></trkpt>
   <trkpt lat="68.810478" lon="16.527844"><ele>89.2</ele></trkpt>
   <trkpt lat="68.810452" lon="16.527723"><ele>89.6</ele></trkpt>
   <trkpt lat="68.810446" lon="16.527703"><ele>89.8</ele></trkpt>
   <trkpt lat="68.810409" lon="16.527516"><ele>90.4</ele></trkpt>
   <trkpt lat="68.810395" lon="16.527457"><ele>90.6</ele></trkpt>
   <trkpt lat="68.810364" lon="16.527359"><ele>91.0</ele></trkpt>
   <trkpt lat="68.810313" lon="16.527205"><ele>91.8</ele></trkpt>
   <trkpt lat="68.810299" lon="16.527153"><ele>92.2</ele></trkpt>
   <trkpt lat="68.810262" lon="16.527011"><ele>93.0</ele></trkpt>
   <trkpt lat="68.810237" lon="16.526929"><ele>93.2</ele></trkpt>
   <trkpt lat="68.810205" lon="16.526853"><ele>93.8</ele></trkpt>
   <trkpt lat="68.810194" lon="16.526839"><ele>94.0</ele></trkpt>
   <trkpt lat="68.810184" lon="16.526827"><ele>94.2</ele></trkpt>
   <trkpt lat="68.810172" lon="16.526788"><ele>94.6</ele></trkpt>
   <trkpt lat="68.810147" lon="16.526641"><ele>95.0</ele></trkpt>
   <trkpt lat="68.810129" lon="16.526561"><ele>95.2</ele></trkpt>
   <trkpt lat="68.810117" lon="16.526502"><ele>95.2</ele></trkpt>
   <trkpt lat="68.810111" lon="16.526478"><ele>95.2</ele></trkpt>
   <trkpt lat="68.810109" lon="16.526460"><ele>95.2</ele></trkpt>
   <trkpt lat="68.810114" lon="16.526416"><ele>95.4</ele></trkpt>
   <trkpt lat="68.810126" lon="16.526356"><ele>95.2</ele></trkpt>
   <trkpt lat="68.810127" lon="16.526352"><ele>95.2</ele></trkpt>
  </trkseg>
 </trk>
</gpx>
