<?xml version="1.0" encoding="UTF-8"?>
<gpx version="1.1" creator="HPGT flysteder" xmlns="http://www.topografix.com/GPX/1/1">
 <trk>
  <name>Melå aksla: parkering til start</name>
  <trkseg>
   <trkpt lat="68.664427" lon="16.083105"><ele>7.2</ele></trkpt>
   <trkpt lat="68.664142" lon="16.083950"><ele>8.0</ele></trkpt>
   <trkpt lat="68.663575" lon="16.085060"><ele>10.0</ele></trkpt>
   <trkpt lat="68.663306" lon="16.086548"><ele>13.2</ele></trkpt>
   <trkpt lat="68.663316" lon="16.086861"><ele>14.0</ele></trkpt>
   <trkpt lat="68.663809" lon="16.088851"><ele>24.2</ele></trkpt>
   <trkpt lat="68.663858" lon="16.089936"><ele>31.8</ele></trkpt>
   <trkpt lat="68.663652" lon="16.090944"><ele>44.2</ele></trkpt>
   <trkpt lat="68.663839" lon="16.092367"><ele>56.8</ele></trkpt>
   <trkpt lat="68.663304" lon="16.092505"><ele>57.8</ele></trkpt>
   <trkpt lat="68.662885" lon="16.092121"><ele>60.2</ele></trkpt>
   <trkpt lat="68.662519" lon="16.092328"><ele>62.2</ele></trkpt>
   <trkpt lat="68.662156" lon="16.092165"><ele>66.4</ele></trkpt>
   <trkpt lat="68.661736" lon="16.092642"><ele>72.8</ele></trkpt>
   <trkpt lat="68.661289" lon="16.092644"><ele>74.2</ele></trkpt>
   <trkpt lat="68.660951" lon="16.093308"><ele>82.6</ele></trkpt>
   <trkpt lat="68.660442" lon="16.093848"><ele>92.6</ele></trkpt>
   <trkpt lat="68.659521" lon="16.093927"><ele>109.4</ele></trkpt>
   <trkpt lat="68.658782" lon="16.094500"><ele>128.8</ele></trkpt>
   <trkpt lat="68.658550" lon="16.094870"><ele>144.0</ele></trkpt>
   <trkpt lat="68.658313" lon="16.094785"><ele>155.2</ele></trkpt>
   <trkpt lat="68.658192" lon="16.095123"><ele>160.6</ele></trkpt>
   <trkpt lat="68.658029" lon="16.095134"><ele>166.0</ele></trkpt>
   <trkpt lat="68.657923" lon="16.094904"><ele>154.4</ele></trkpt>
   <trkpt lat="68.658006" lon="16.095062"><ele>154.2</ele></trkpt>
   <trkpt lat="68.657909" lon="16.095518"><ele>157.8</ele></trkpt>
   <trkpt lat="68.657936" lon="16.096137"><ele>167.8</ele></trkpt>
   <trkpt lat="68.657736" lon="16.096961"><ele>182.4</ele></trkpt>
   <trkpt lat="68.657846" lon="16.098134"><ele>201.8</ele></trkpt>
   <trkpt lat="68.657736" lon="16.099329"><ele>213.8</ele></trkpt>
   <trkpt lat="68.658056" lon="16.099800"><ele>228.8</ele></trkpt>
   <trkpt lat="68.658595" lon="16.099789"><ele>243.0</ele></trkpt>
   <trkpt lat="68.658787" lon="16.100191"><ele>250.8</ele></trkpt>
   <trkpt lat="68.658776" lon="16.101181"><ele>266.2</ele></trkpt>
   <trkpt lat="68.659003" lon="16.102334"><ele>280.8</ele></trkpt>
   <trkpt lat="68.659086" lon="16.102562"><ele>286.6</ele></trkpt>
   <trkpt lat="68.659253" lon="16.102492"><ele>287.0</ele></trkpt>
   <trkpt lat="68.659856" lon="16.103138"><ele>296.6</ele></trkpt>
   <trkpt lat="68.659897" lon="16.104145"><ele>307.8</ele></trkpt>
   <trkpt lat="68.660195" lon="16.105283"><ele>329.2</ele></trkpt>
   <trkpt lat="68.660060" lon="16.105446"><ele>335.4</ele></trkpt>
   <trkpt lat="68.660158" lon="16.105885"><ele>346.8</ele></trkpt>
   <trkpt lat="68.659813" lon="16.107815"><ele>393.6</ele></trkpt>
   <trkpt lat="68.659928" lon="16.108634"><ele>408.6</ele></trkpt>
   <trkpt lat="68.659797" lon="16.109744"><ele>419.0</ele></trkpt>
   <trkpt lat="68.659665" lon="16.110010"><ele>425.6</ele></trkpt>
   <trkpt lat="68.659468" lon="16.109890"><ele>433.4</ele></trkpt>
   <trkpt lat="68.659410" lon="16.110769"><ele>449.8</ele></trkpt>
   <trkpt lat="68.659260" lon="16.110928"><ele>452.6</ele></trkpt>
   <trkpt lat="68.659230" lon="16.111377"><ele>463.0</ele></trkpt>
   <trkpt lat="68.658950" lon="16.112352"><ele>473.0</ele></trkpt>
   <trkpt lat="68.658266" lon="16.113040"><ele>492.8</ele></trkpt>
   <trkpt lat="68.657968" lon="16.113905"><ele>500.6</ele></trkpt>
   <trkpt lat="68.657766" lon="16.114079"><ele>503.6</ele></trkpt>
   <trkpt lat="68.657550" lon="16.113864"><ele>503.8</ele></trkpt>
   <trkpt lat="68.656705" lon="16.114473"><ele>504.4</ele></trkpt>
   <trkpt lat="68.656129" lon="16.115590"><ele>508.4</ele></trkpt>
   <trkpt lat="68.655690" lon="16.116106"><ele>512.6</ele></trkpt>
   <trkpt lat="68.654987" lon="16.116148"><ele>521.2</ele></trkpt>
   <trkpt lat="68.654574" lon="16.116463"><ele>524.2</ele></trkpt>
   <trkpt lat="68.653642" lon="16.116665"><ele>531.4</ele></trkpt>
   <trkpt lat="68.653193" lon="16.117827"><ele>541.2</ele></trkpt>
   <trkpt lat="68.653192" lon="16.117398"><ele>540.4</ele></trkpt>
   <trkpt lat="68.653524" lon="16.116337"><ele>533.4</ele></trkpt>
   <trkpt lat="68.653608" lon="16.115704"><ele>535.6</ele></trkpt>
   <trkpt lat="68.653512" lon="16.116700"><ele>544.2</ele></trkpt>
   <trkpt lat="68.652454" lon="16.118774"><ele>562.8</ele></trkpt>
   <trkpt lat="68.652025" lon="16.119248"><ele>570.4</ele></trkpt>
   <trkpt lat="68.650758" lon="16.119713"><ele>591.2</ele></trkpt>
   <trkpt lat="68.650568" lon="16.119582"><ele>597.0</ele></trkpt>
   <trkpt lat="68.650028" lon="16.120041"><ele>604.6</ele></trkpt>
   <trkpt lat="68.649639" lon="16.120082"><ele>611.6</ele></trkpt>
   <trkpt lat="68.649344" lon="16.119881"><ele>611.2</ele></trkpt>
   <trkpt lat="68.649168" lon="16.118507"><ele>608.4</ele></trkpt>
   <trkpt lat="68.648920" lon="16.119058"><ele>606.4</ele></trkpt>
   <trkpt lat="68.648548" lon="16.119307"><ele>606.0</ele></trkpt>
   <trkpt lat="68.648331" lon="16.119719"><ele>609.2</ele></trkpt>
   <trkpt lat="68.648036" lon="16.121731"><ele>629.4</ele></trkpt>
   <trkpt lat="68.647641" lon="16.122433"><ele>641.0</ele></trkpt>
   <trkpt lat="68.647585" lon="16.122744"><ele>643.8</ele></trkpt>
   <trkpt lat="68.646440" lon="16.123837"><ele>654.0</ele></trkpt>
   <trkpt lat="68.645601" lon="16.123897"><ele>665.4</ele></trkpt>
   <trkpt lat="68.645238" lon="16.123600"><ele>669.8</ele></trkpt>
   <trkpt lat="68.644819" lon="16.122856"><ele>683.4</ele></trkpt>
   <trkpt lat="68.644705" lon="16.122282"><ele>690.2</ele></trkpt>
   <trkpt lat="68.644457" lon="16.121808"><ele>694.4</ele></trkpt>
   <trkpt lat="68.643291" lon="16.122418"><ele>688.4</ele></trkpt>
   <trkpt lat="68.642438" lon="16.122126"><ele>683.8</ele></trkpt>
   <trkpt lat="68.641911" lon="16.122232"><ele>690.4</ele></trkpt>
   <trkpt lat="68.641760" lon="16.122326"><ele>693.0</ele></trkpt>
   <trkpt lat="68.641500" lon="16.122922"><ele>696.8</ele></trkpt>
   <trkpt lat="68.641191" lon="16.123012"><ele>702.4</ele></trkpt>
   <trkpt lat="68.641134" lon="16.122784"><ele>703.6</ele></trkpt>
   <trkpt lat="68.640846" lon="16.122655"><ele>713.6</ele></trkpt>
   <trkpt lat="68.640656" lon="16.122101"><ele>721.0</ele></trkpt>
   <trkpt lat="68.640479" lon="16.121982"><ele>725.6</ele></trkpt>
   <trkpt lat="68.640230" lon="16.121048"><ele>737.8</ele></trkpt>
   <trkpt lat="68.639823" lon="16.120296"><ele>751.6</ele></trkpt>
   <trkpt lat="68.639364" lon="16.120508"><ele>759.8</ele></trkpt>
   <trkpt lat="68.639082" lon="16.120305"><ele>754.8</ele></trkpt>
   <trkpt lat="68.638889" lon="16.119790"><ele>752.4</ele></trkpt>
   <trkpt lat="68.638689" lon="16.120418"><ele>750.2</ele></trkpt>
   <trkpt lat="68.638698" lon="16.120919"><ele>753.2</ele></trkpt>
   <trkpt lat="68.638633" lon="16.120873"><ele>753.4</ele></trkpt>
   <trkpt lat="68.638606" lon="16.121149"><ele>754.0</ele></trkpt>
   <trkpt lat="68.638182" lon="16.121814"><ele>755.2</ele></trkpt>
   <trkpt lat="68.638159" lon="16.122553"><ele>759.6</ele></trkpt>
   <trkpt lat="68.637964" lon="16.122850"><ele>760.2</ele></trkpt>
   <trkpt lat="68.638070" lon="16.122447"><ele>760.0</ele></trkpt>
  </trkseg>
 </trk>
</gpx>
