<?xml version="1.0" encoding="UTF-8"?>
<gpx version="1.1" creator="HPGT flysteder" xmlns="http://www.topografix.com/GPX/1/1">
 <trk>
  <name>Nontua – traktorveien over Kaltdalen til start</name>
  <trkseg>
   <trkpt lat="68.818080" lon="16.367899"><ele>121.8</ele></trkpt>
   <trkpt lat="68.818117" lon="16.367824"><ele>121.8</ele></trkpt>
   <trkpt lat="68.818124" lon="16.367750"><ele>122.2</ele></trkpt>
   <trkpt lat="68.818141" lon="16.367660"><ele>122.8</ele></trkpt>
   <trkpt lat="68.818145" lon="16.367630"><ele>123.0</ele></trkpt>
   <trkpt lat="68.818169" lon="16.367525"><ele>123.8</ele></trkpt>
   <trkpt lat="68.818181" lon="16.367438"><ele>124.0</ele></trkpt>
   <trkpt lat="68.818222" lon="16.367271"><ele>124.6</ele></trkpt>
   <trkpt lat="68.818238" lon="16.367163"><ele>125.0</ele></trkpt>
   <trkpt lat="68.818233" lon="16.367155"><ele>125.2</ele></trkpt>
   <trkpt lat="68.818224" lon="16.367140"><ele>125.2</ele></trkpt>
   <trkpt lat="68.818209" lon="16.367106"><ele>125.4</ele></trkpt>
   <trkpt lat="68.818191" lon="16.367041"><ele>125.6</ele></trkpt>
   <trkpt lat="68.818186" lon="16.367018"><ele>125.6</ele></trkpt>
   <trkpt lat="68.818156" lon="16.366875"><ele>126.0</ele></trkpt>
   <trkpt lat="68.818145" lon="16.366832"><ele>126.2</ele></trkpt>
   <trkpt lat="68.818137" lon="16.366825"><ele>126.4</ele></trkpt>
   <trkpt lat="68.818126" lon="16.366803"><ele>126.4</ele></trkpt>
   <trkpt lat="68.818078" lon="16.366694"><ele>126.8</ele></trkpt>
   <trkpt lat="68.818054" lon="16.366642"><ele>127.2</ele></trkpt>
   <trkpt lat="68.818031" lon="16.366593"><ele>127.6</ele></trkpt>
   <trkpt lat="68.817985" lon="16.366458"><ele>128.2</ele></trkpt>
   <trkpt lat="68.817977" lon="16.366445"><ele>128.2</ele></trkpt>
   <trkpt lat="68.817935" lon="16.366366"><ele>129.0</ele></trkpt>
   <trkpt lat="68.817926" lon="16.366355"><ele>129.2</ele></trkpt>
   <trkpt lat="68.817918" lon="16.366340"><ele>129.4</ele></trkpt>
   <trkpt lat="68.817906" lon="16.366297"><ele>129.4</ele></trkpt>
   <trkpt lat="68.817900" lon="16.366276"><ele>129.6</ele></trkpt>
   <trkpt lat="68.817875" lon="16.366246"><ele>130.0</ele></trkpt>
   <trkpt lat="68.817867" lon="16.366237"><ele>130.0</ele></trkpt>
   <trkpt lat="68.817862" lon="16.366222"><ele>130.2</ele></trkpt>
   <trkpt lat="68.817851" lon="16.366184"><ele>130.4</ele></trkpt>
   <trkpt lat="68.817817" lon="16.366071"><ele>131.0</ele></trkpt>
   <trkpt lat="68.817815" lon="16.366042"><ele>131.0</ele></trkpt>
   <trkpt lat="68.817814" lon="16.366015"><ele>131.2</ele></trkpt>
   <trkpt lat="68.817809" lon="16.365940"><ele>131.6</ele></trkpt>
   <trkpt lat="68.817816" lon="16.365853"><ele>132.2</ele></trkpt>
   <trkpt lat="68.817812" lon="16.365799"><ele>132.6</ele></trkpt>
   <trkpt lat="68.817811" lon="16.365718"><ele>132.4</ele></trkpt>
   <trkpt lat="68.817808" lon="16.365676"><ele>132.4</ele></trkpt>
   <trkpt lat="68.817798" lon="16.365572"><ele>132.4</ele></trkpt>
   <trkpt lat="68.817794" lon="16.365555"><ele>132.4</ele></trkpt>
   <trkpt lat="68.817783" lon="16.365441"><ele>132.4</ele></trkpt>
   <trkpt lat="68.817758" lon="16.365327"><ele>132.8</ele></trkpt>
   <trkpt lat="68.817749" lon="16.365284"><ele>133.0</ele></trkpt>
   <trkpt lat="68.817742" lon="16.365248"><ele>133.4</ele></trkpt>
   <trkpt lat="68.817736" lon="16.365225"><ele>133.6</ele></trkpt>
   <trkpt lat="68.817733" lon="16.365206"><ele>133.8</ele></trkpt>
   <trkpt lat="68.817720" lon="16.365152"><ele>134.4</ele></trkpt>
   <trkpt lat="68.817722" lon="16.365105"><ele>134.8</ele></trkpt>
   <trkpt lat="68.817725" lon="16.365084"><ele>135.0</ele></trkpt>
   <trkpt lat="68.817718" lon="16.365019"><ele>135.8</ele></trkpt>
   <trkpt lat="68.817714" lon="16.365014"><ele>136.0</ele></trkpt>
   <trkpt lat="68.817682" lon="16.364958"><ele>135.8</ele></trkpt>
   <trkpt lat="68.817676" lon="16.364948"><ele>135.8</ele></trkpt>
   <trkpt lat="68.817665" lon="16.364925"><ele>136.0</ele></trkpt>
   <trkpt lat="68.817657" lon="16.364831"><ele>136.8</ele></trkpt>
   <trkpt lat="68.817656" lon="16.364808"><ele>137.0</ele></trkpt>
   <trkpt lat="68.817656" lon="16.364787"><ele>137.2</ele></trkpt>
   <trkpt lat="68.817656" lon="16.364750"><ele>137.6</ele></trkpt>
   <trkpt lat="68.817656" lon="16.364735"><ele>137.8</ele></trkpt>
   <trkpt lat="68.817655" lon="16.364712"><ele>138.2</ele></trkpt>
   <trkpt lat="68.817650" lon="16.364664"><ele>138.8</ele></trkpt>
   <trkpt lat="68.817647" lon="16.364635"><ele>139.2</ele></trkpt>
   <trkpt lat="68.817640" lon="16.364612"><ele>139.6</ele></trkpt>
   <trkpt lat="68.817630" lon="16.364555"><ele>140.4</ele></trkpt>
   <trkpt lat="68.817629" lon="16.364500"><ele>141.4</ele></trkpt>
   <trkpt lat="68.817615" lon="16.364430"><ele>142.2</ele></trkpt>
   <trkpt lat="68.817604" lon="16.364393"><ele>142.6</ele></trkpt>
   <trkpt lat="68.817600" lon="16.364335"><ele>143.4</ele></trkpt>
   <trkpt lat="68.817599" lon="16.364325"><ele>143.6</ele></trkpt>
   <trkpt lat="68.817581" lon="16.364267"><ele>144.6</ele></trkpt>
   <trkpt lat="68.817578" lon="16.364258"><ele>144.8</ele></trkpt>
   <trkpt lat="68.817575" lon="16.364245"><ele>145.0</ele></trkpt>
   <trkpt lat="68.817568" lon="16.364194"><ele>145.4</ele></trkpt>
   <trkpt lat="68.817549" lon="16.364131"><ele>146.0</ele></trkpt>
   <trkpt lat="68.817547" lon="16.364065"><ele>146.8</ele></trkpt>
   <trkpt lat="68.817546" lon="16.364050"><ele>147.0</ele></trkpt>
   <trkpt lat="68.817525" lon="16.364012"><ele>148.2</ele></trkpt>
   <trkpt lat="68.817522" lon="16.363973"><ele>148.4</ele></trkpt>
   <trkpt lat="68.817514" lon="16.363914"><ele>149.2</ele></trkpt>
   <trkpt lat="68.817504" lon="16.363844"><ele>150.0</ele></trkpt>
   <trkpt lat="68.817502" lon="16.363833"><ele>150.2</ele></trkpt>
   <trkpt lat="68.817493" lon="16.363735"><ele>151.2</ele></trkpt>
   <trkpt lat="68.817486" lon="16.363675"><ele>152.2</ele></trkpt>
   <trkpt lat="68.817483" lon="16.363664"><ele>152.2</ele></trkpt>
   <trkpt lat="68.817461" lon="16.363603"><ele>153.4</ele></trkpt>
   <trkpt lat="68.817454" lon="16.363556"><ele>154.0</ele></trkpt>
   <trkpt lat="68.817443" lon="16.363522"><ele>154.6</ele></trkpt>
   <trkpt lat="68.817429" lon="16.363448"><ele>155.6</ele></trkpt>
   <trkpt lat="68.817424" lon="16.363415"><ele>156.2</ele></trkpt>
   <trkpt lat="68.817420" lon="16.363384"><ele>156.8</ele></trkpt>
   <trkpt lat="68.817404" lon="16.363333"><ele>157.6</ele></trkpt>
   <trkpt lat="68.817401" lon="16.363323"><ele>157.8</ele></trkpt>
   <trkpt lat="68.817399" lon="16.363316"><ele>158.0</ele></trkpt>
   <trkpt lat="68.817391" lon="16.363253"><ele>158.8</ele></trkpt>
   <trkpt lat="68.817387" lon="16.363248"><ele>159.0</ele></trkpt>
   <trkpt lat="68.817378" lon="16.363246"><ele>159.2</ele></trkpt>
   <trkpt lat="68.817354" lon="16.363222"><ele>160.0</ele></trkpt>
   <trkpt lat="68.817322" lon="16.363195"><ele>161.0</ele></trkpt>
   <trkpt lat="68.817278" lon="16.363221"><ele>162.0</ele></trkpt>
   <trkpt lat="68.817269" lon="16.363213"><ele>162.2</ele></trkpt>
   <trkpt lat="68.817267" lon="16.363207"><ele>162.4</ele></trkpt>
   <trkpt lat="68.817270" lon="16.363216"><ele>162.8</ele></trkpt>
   <trkpt lat="68.817272" lon="16.363216"><ele>162.6</ele></trkpt>
   <trkpt lat="68.817272" lon="16.363216"><ele>162.6</ele></trkpt>
   <trkpt lat="68.817271" lon="16.363214"><ele>162.8</ele></trkpt>
   <trkpt lat="68.817268" lon="16.363207"><ele>163.0</ele></trkpt>
   <trkpt lat="68.817263" lon="16.363189"><ele>163.0</ele></trkpt>
   <trkpt lat="68.817261" lon="16.363186"><ele>162.8</ele></trkpt>
   <trkpt lat="68.817258" lon="16.363176"><ele>163.0</ele></trkpt>
   <trkpt lat="68.817251" lon="16.363150"><ele>163.2</ele></trkpt>
   <trkpt lat="68.817250" lon="16.363128"><ele>163.6</ele></trkpt>
   <trkpt lat="68.817249" lon="16.363102"><ele>163.6</ele></trkpt>
   <trkpt lat="68.817248" lon="16.363072"><ele>163.8</ele></trkpt>
   <trkpt lat="68.817248" lon="16.363068"><ele>164.0</ele></trkpt>
   <trkpt lat="68.817248" lon="16.363052"><ele>164.2</ele></trkpt>
   <trkpt lat="68.817248" lon="16.363028"><ele>165.0</ele></trkpt>
   <trkpt lat="68.817247" lon="16.363019"><ele>165.4</ele></trkpt>
   <trkpt lat="68.817246" lon="16.362994"><ele>166.8</ele></trkpt>
   <trkpt lat="68.817238" lon="16.362922"><ele>167.2</ele></trkpt>
   <trkpt lat="68.817235" lon="16.362879"><ele>167.8</ele></trkpt>
   <trkpt lat="68.817235" lon="16.362804"><ele>168.4</ele></trkpt>
   <trkpt lat="68.817235" lon="16.362784"><ele>168.6</ele></trkpt>
   <trkpt lat="68.817235" lon="16.362759"><ele>168.8</ele></trkpt>
   <trkpt lat="68.817235" lon="16.362702"><ele>169.8</ele></trkpt>
   <trkpt lat="68.817235" lon="16.362629"><ele>170.6</ele></trkpt>
   <trkpt lat="68.817235" lon="16.362607"><ele>171.2</ele></trkpt>
   <trkpt lat="68.817231" lon="16.362551"><ele>171.8</ele></trkpt>
   <trkpt lat="68.817221" lon="16.362504"><ele>171.8</ele></trkpt>
   <trkpt lat="68.817217" lon="16.362485"><ele>172.2</ele></trkpt>
   <trkpt lat="68.817208" lon="16.362458"><ele>173.2</ele></trkpt>
   <trkpt lat="68.817207" lon="16.362452"><ele>173.4</ele></trkpt>
   <trkpt lat="68.817206" lon="16.362405"><ele>174.6</ele></trkpt>
   <trkpt lat="68.817196" lon="16.362360"><ele>175.6</ele></trkpt>
   <trkpt lat="68.817181" lon="16.362349"><ele>175.8</ele></trkpt>
   <trkpt lat="68.817168" lon="16.362316"><ele>176.6</ele></trkpt>
   <trkpt lat="68.817153" lon="16.362259"><ele>177.8</ele></trkpt>
   <trkpt lat="68.817141" lon="16.362217"><ele>178.8</ele></trkpt>
   <trkpt lat="68.817136" lon="16.362181"><ele>180.0</ele></trkpt>
   <trkpt lat="68.817134" lon="16.362143"><ele>180.0</ele></trkpt>
   <trkpt lat="68.817131" lon="16.362094"><ele>180.2</ele></trkpt>
   <trkpt lat="68.817129" lon="16.362059"><ele>181.2</ele></trkpt>
   <trkpt lat="68.817127" lon="16.362039"><ele>182.2</ele></trkpt>
   <trkpt lat="68.817124" lon="16.362019"><ele>183.0</ele></trkpt>
   <trkpt lat="68.817121" lon="16.362010"><ele>183.2</ele></trkpt>
   <trkpt lat="68.817117" lon="16.361995"><ele>183.8</ele></trkpt>
   <trkpt lat="68.817116" lon="16.361989"><ele>184.2</ele></trkpt>
   <trkpt lat="68.817115" lon="16.361987"><ele>185.0</ele></trkpt>
   <trkpt lat="68.817115" lon="16.361986"><ele>185.4</ele></trkpt>
   <trkpt lat="68.817114" lon="16.361983"><ele>186.2</ele></trkpt>
   <trkpt lat="68.817114" lon="16.361981"><ele>186.6</ele></trkpt>
   <trkpt lat="68.817113" lon="16.361977"><ele>187.8</ele></trkpt>
   <trkpt lat="68.817113" lon="16.361974"><ele>188.8</ele></trkpt>
   <trkpt lat="68.817112" lon="16.361974"><ele>188.8</ele></trkpt>
   <trkpt lat="68.817111" lon="16.361969"><ele>189.8</ele></trkpt>
   <trkpt lat="68.817111" lon="16.361965"><ele>191.0</ele></trkpt>
   <trkpt lat="68.817110" lon="16.361960"><ele>191.6</ele></trkpt>
   <trkpt lat="68.817109" lon="16.361956"><ele>192.0</ele></trkpt>
   <trkpt lat="68.817107" lon="16.361950"><ele>193.2</ele></trkpt>
   <trkpt lat="68.817106" lon="16.361945"><ele>194.0</ele></trkpt>
   <trkpt lat="68.817106" lon="16.361942"><ele>194.4</ele></trkpt>
   <trkpt lat="68.817105" lon="16.361935"><ele>195.6</ele></trkpt>
   <trkpt lat="68.817104" lon="16.361927"><ele>196.4</ele></trkpt>
   <trkpt lat="68.817103" lon="16.361923"><ele>196.6</ele></trkpt>
   <trkpt lat="68.817102" lon="16.361917"><ele>197.8</ele></trkpt>
   <trkpt lat="68.817102" lon="16.361909"><ele>198.8</ele></trkpt>
   <trkpt lat="68.817100" lon="16.361901"><ele>198.8</ele></trkpt>
   <trkpt lat="68.817099" lon="16.361892"><ele>198.6</ele></trkpt>
   <trkpt lat="68.817099" lon="16.361886"><ele>198.4</ele></trkpt>
   <trkpt lat="68.817097" lon="16.361879"><ele>198.4</ele></trkpt>
   <trkpt lat="68.817096" lon="16.361872"><ele>198.4</ele></trkpt>
   <trkpt lat="68.817095" lon="16.361866"><ele>199.2</ele></trkpt>
   <trkpt lat="68.817094" lon="16.361860"><ele>200.0</ele></trkpt>
   <trkpt lat="68.817092" lon="16.361853"><ele>200.8</ele></trkpt>
   <trkpt lat="68.817091" lon="16.361848"><ele>201.2</ele></trkpt>
   <trkpt lat="68.817091" lon="16.361844"><ele>202.2</ele></trkpt>
   <trkpt lat="68.817088" lon="16.361835"><ele>203.0</ele></trkpt>
   <trkpt lat="68.817087" lon="16.361831"><ele>203.2</ele></trkpt>
   <trkpt lat="68.817085" lon="16.361822"><ele>204.0</ele></trkpt>
   <trkpt lat="68.817084" lon="16.361813"><ele>204.2</ele></trkpt>
   <trkpt lat="68.817082" lon="16.361803"><ele>204.2</ele></trkpt>
   <trkpt lat="68.817081" lon="16.361794"><ele>204.2</ele></trkpt>
   <trkpt lat="68.817080" lon="16.361783"><ele>204.2</ele></trkpt>
   <trkpt lat="68.817078" lon="16.361771"><ele>204.6</ele></trkpt>
   <trkpt lat="68.817077" lon="16.361760"><ele>205.0</ele></trkpt>
   <trkpt lat="68.817076" lon="16.361754"><ele>205.4</ele></trkpt>
   <trkpt lat="68.817075" lon="16.361743"><ele>206.6</ele></trkpt>
   <trkpt lat="68.817074" lon="16.361735"><ele>207.8</ele></trkpt>
   <trkpt lat="68.817073" lon="16.361727"><ele>208.8</ele></trkpt>
   <trkpt lat="68.817072" lon="16.361719"><ele>209.4</ele></trkpt>
   <trkpt lat="68.817071" lon="16.361713"><ele>209.6</ele></trkpt>
   <trkpt lat="68.817071" lon="16.361709"><ele>210.0</ele></trkpt>
   <trkpt lat="68.817070" lon="16.361702"><ele>211.2</ele></trkpt>
   <trkpt lat="68.817069" lon="16.361692"><ele>211.8</ele></trkpt>
   <trkpt lat="68.817068" lon="16.361687"><ele>212.2</ele></trkpt>
   <trkpt lat="68.817067" lon="16.361680"><ele>213.0</ele></trkpt>
   <trkpt lat="68.817066" lon="16.361676"><ele>213.6</ele></trkpt>
   <trkpt lat="68.817065" lon="16.361666"><ele>214.8</ele></trkpt>
   <trkpt lat="68.817064" lon="16.361659"><ele>215.4</ele></trkpt>
   <trkpt lat="68.817063" lon="16.361655"><ele>215.8</ele></trkpt>
   <trkpt lat="68.817063" lon="16.361650"><ele>216.2</ele></trkpt>
   <trkpt lat="68.817062" lon="16.361643"><ele>216.8</ele></trkpt>
   <trkpt lat="68.817060" lon="16.361630"><ele>218.0</ele></trkpt>
   <trkpt lat="68.817059" lon="16.361621"><ele>219.0</ele></trkpt>
   <trkpt lat="68.817057" lon="16.361608"><ele>219.8</ele></trkpt>
   <trkpt lat="68.817029" lon="16.361407"><ele>220.2</ele></trkpt>
   <trkpt lat="68.816886" lon="16.360409"><ele>221.0</ele></trkpt>
   <trkpt lat="68.816830" lon="16.360017"><ele>221.4</ele></trkpt>
   <trkpt lat="68.816770" lon="16.359626"><ele>222.0</ele></trkpt>
   <trkpt lat="68.816770" lon="16.359620"><ele>222.0</ele></trkpt>
   <trkpt lat="68.816770" lon="16.359597"><ele>222.2</ele></trkpt>
   <trkpt lat="68.816770" lon="16.359597"><ele>222.6</ele></trkpt>
   <trkpt lat="68.816770" lon="16.359597"><ele>223.8</ele></trkpt>
   <trkpt lat="68.816770" lon="16.359597"><ele>224.8</ele></trkpt>
   <trkpt lat="68.816767" lon="16.359586"><ele>225.8</ele></trkpt>
   <trkpt lat="68.816767" lon="16.359584"><ele>226.0</ele></trkpt>
   <trkpt lat="68.816766" lon="16.359582"><ele>226.4</ele></trkpt>
   <trkpt lat="68.816766" lon="16.359575"><ele>227.0</ele></trkpt>
   <trkpt lat="68.816767" lon="16.359530"><ele>227.2</ele></trkpt>
   <trkpt lat="68.816770" lon="16.359481"><ele>227.0</ele></trkpt>
   <trkpt lat="68.816773" lon="16.359469"><ele>226.8</ele></trkpt>
   <trkpt lat="68.816774" lon="16.359466"><ele>227.2</ele></trkpt>
   <trkpt lat="68.816776" lon="16.359446"><ele>227.0</ele></trkpt>
   <trkpt lat="68.816777" lon="16.359410"><ele>227.0</ele></trkpt>
   <trkpt lat="68.816782" lon="16.359399"><ele>227.4</ele></trkpt>
   <trkpt lat="68.816786" lon="16.359383"><ele>227.4</ele></trkpt>
   <trkpt lat="68.816791" lon="16.359378"><ele>227.2</ele></trkpt>
   <trkpt lat="68.816792" lon="16.359375"><ele>227.0</ele></trkpt>
   <trkpt lat="68.816792" lon="16.359372"><ele>226.8</ele></trkpt>
   <trkpt lat="68.816793" lon="16.359369"><ele>227.4</ele></trkpt>
   <trkpt lat="68.816793" lon="16.359346"><ele>228.0</ele></trkpt>
   <trkpt lat="68.816795" lon="16.359279"><ele>229.0</ele></trkpt>
   <trkpt lat="68.816795" lon="16.359247"><ele>229.2</ele></trkpt>
   <trkpt lat="68.816795" lon="16.359216"><ele>229.4</ele></trkpt>
   <trkpt lat="68.816795" lon="16.359189"><ele>229.8</ele></trkpt>
   <trkpt lat="68.816795" lon="16.359114"><ele>230.4</ele></trkpt>
   <trkpt lat="68.816794" lon="16.359050"><ele>231.6</ele></trkpt>
   <trkpt lat="68.816794" lon="16.359000"><ele>232.4</ele></trkpt>
   <trkpt lat="68.816796" lon="16.358979"><ele>232.6</ele></trkpt>
   <trkpt lat="68.816800" lon="16.358884"><ele>233.0</ele></trkpt>
   <trkpt lat="68.816803" lon="16.358792"><ele>233.2</ele></trkpt>
   <trkpt lat="68.816807" lon="16.358698"><ele>233.6</ele></trkpt>
   <trkpt lat="68.816799" lon="16.358623"><ele>234.4</ele></trkpt>
   <trkpt lat="68.816802" lon="16.358581"><ele>234.6</ele></trkpt>
   <trkpt lat="68.816785" lon="16.358505"><ele>235.4</ele></trkpt>
   <trkpt lat="68.816777" lon="16.358469"><ele>235.8</ele></trkpt>
   <trkpt lat="68.816772" lon="16.358431"><ele>236.2</ele></trkpt>
   <trkpt lat="68.816765" lon="16.358373"><ele>237.0</ele></trkpt>
   <trkpt lat="68.816755" lon="16.358340"><ele>237.2</ele></trkpt>
   <trkpt lat="68.816745" lon="16.358285"><ele>238.0</ele></trkpt>
   <trkpt lat="68.816735" lon="16.358235"><ele>238.6</ele></trkpt>
   <trkpt lat="68.816715" lon="16.358211"><ele>239.0</ele></trkpt>
   <trkpt lat="68.816677" lon="16.358190"><ele>239.6</ele></trkpt>
   <trkpt lat="68.816649" lon="16.358183"><ele>240.0</ele></trkpt>
   <trkpt lat="68.816624" lon="16.358179"><ele>240.8</ele></trkpt>
   <trkpt lat="68.816610" lon="16.358197"><ele>241.2</ele></trkpt>
   <trkpt lat="68.816571" lon="16.358097"><ele>241.6</ele></trkpt>
   <trkpt lat="68.816535" lon="16.357998"><ele>242.0</ele></trkpt>
   <trkpt lat="68.816528" lon="16.357990"><ele>242.2</ele></trkpt>
   <trkpt lat="68.816522" lon="16.357979"><ele>242.4</ele></trkpt>
   <trkpt lat="68.816498" lon="16.357921"><ele>243.4</ele></trkpt>
   <trkpt lat="68.816481" lon="16.357866"><ele>243.8</ele></trkpt>
   <trkpt lat="68.816464" lon="16.357762"><ele>244.4</ele></trkpt>
   <trkpt lat="68.816459" lon="16.357715"><ele>244.6</ele></trkpt>
   <trkpt lat="68.816465" lon="16.357659"><ele>244.8</ele></trkpt>
   <trkpt lat="68.816469" lon="16.357621"><ele>244.8</ele></trkpt>
   <trkpt lat="68.816468" lon="16.357585"><ele>245.0</ele></trkpt>
   <trkpt lat="68.816480" lon="16.357486"><ele>245.4</ele></trkpt>
   <trkpt lat="68.816479" lon="16.357466"><ele>245.4</ele></trkpt>
   <trkpt lat="68.816495" lon="16.357363"><ele>245.8</ele></trkpt>
   <trkpt lat="68.816492" lon="16.357344"><ele>246.0</ele></trkpt>
   <trkpt lat="68.816492" lon="16.357281"><ele>246.4</ele></trkpt>
   <trkpt lat="68.816482" lon="16.357172"><ele>246.6</ele></trkpt>
   <trkpt lat="68.816481" lon="16.357124"><ele>246.8</ele></trkpt>
   <trkpt lat="68.816477" lon="16.357015"><ele>247.4</ele></trkpt>
   <trkpt lat="68.816475" lon="16.357004"><ele>247.6</ele></trkpt>
   <trkpt lat="68.816459" lon="16.356930"><ele>248.2</ele></trkpt>
   <trkpt lat="68.816448" lon="16.356896"><ele>248.6</ele></trkpt>
   <trkpt lat="68.816447" lon="16.356872"><ele>248.6</ele></trkpt>
   <trkpt lat="68.816457" lon="16.356772"><ele>249.2</ele></trkpt>
   <trkpt lat="68.816452" lon="16.356752"><ele>249.2</ele></trkpt>
   <trkpt lat="68.816452" lon="16.356690"><ele>249.6</ele></trkpt>
   <trkpt lat="68.816461" lon="16.356649"><ele>250.4</ele></trkpt>
   <trkpt lat="68.816453" lon="16.356596"><ele>250.6</ele></trkpt>
   <trkpt lat="68.816459" lon="16.356531"><ele>251.0</ele></trkpt>
   <trkpt lat="68.816476" lon="16.356478"><ele>251.8</ele></trkpt>
   <trkpt lat="68.816482" lon="16.356480"><ele>252.0</ele></trkpt>
   <trkpt lat="68.816492" lon="16.356447"><ele>252.2</ele></trkpt>
   <trkpt lat="68.816494" lon="16.356447"><ele>252.2</ele></trkpt>
   <trkpt lat="68.816496" lon="16.356443"><ele>252.2</ele></trkpt>
   <trkpt lat="68.816535" lon="16.356386"><ele>252.4</ele></trkpt>
   <trkpt lat="68.816563" lon="16.356309"><ele>252.6</ele></trkpt>
   <trkpt lat="68.816584" lon="16.356280"><ele>252.8</ele></trkpt>
   <trkpt lat="68.816593" lon="16.356276"><ele>253.0</ele></trkpt>
   <trkpt lat="68.816627" lon="16.356257"><ele>253.4</ele></trkpt>
   <trkpt lat="68.816658" lon="16.356238"><ele>253.6</ele></trkpt>
   <trkpt lat="68.816684" lon="16.356209"><ele>253.8</ele></trkpt>
   <trkpt lat="68.816688" lon="16.356201"><ele>253.8</ele></trkpt>
   <trkpt lat="68.816700" lon="16.356186"><ele>253.8</ele></trkpt>
   <trkpt lat="68.816731" lon="16.356121"><ele>254.4</ele></trkpt>
   <trkpt lat="68.816760" lon="16.356063"><ele>254.8</ele></trkpt>
   <trkpt lat="68.816767" lon="16.356051"><ele>255.0</ele></trkpt>
   <trkpt lat="68.816792" lon="16.356012"><ele>255.8</ele></trkpt>
   <trkpt lat="68.816792" lon="16.356014"><ele>255.8</ele></trkpt>
   <trkpt lat="68.816792" lon="16.356016"><ele>255.8</ele></trkpt>
   <trkpt lat="68.816789" lon="16.356000"><ele>255.8</ele></trkpt>
   <trkpt lat="68.816789" lon="16.356002"><ele>255.8</ele></trkpt>
   <trkpt lat="68.816789" lon="16.356004"><ele>255.6</ele></trkpt>
   <trkpt lat="68.816789" lon="16.356004"><ele>255.6</ele></trkpt>
   <trkpt lat="68.816788" lon="16.355998"><ele>255.4</ele></trkpt>
   <trkpt lat="68.816786" lon="16.355992"><ele>255.2</ele></trkpt>
   <trkpt lat="68.816784" lon="16.355988"><ele>255.0</ele></trkpt>
   <trkpt lat="68.816783" lon="16.355987"><ele>255.0</ele></trkpt>
   <trkpt lat="68.816783" lon="16.355982"><ele>254.8</ele></trkpt>
   <trkpt lat="68.816778" lon="16.355965"><ele>254.6</ele></trkpt>
   <trkpt lat="68.816778" lon="16.355964"><ele>254.4</ele></trkpt>
   <trkpt lat="68.816778" lon="16.355964"><ele>254.8</ele></trkpt>
   <trkpt lat="68.816781" lon="16.355965"><ele>253.8</ele></trkpt>
   <trkpt lat="68.816781" lon="16.355969"><ele>253.8</ele></trkpt>
   <trkpt lat="68.816782" lon="16.355974"><ele>253.8</ele></trkpt>
   <trkpt lat="68.816782" lon="16.355979"><ele>253.8</ele></trkpt>
   <trkpt lat="68.816782" lon="16.355981"><ele>253.8</ele></trkpt>
   <trkpt lat="68.816782" lon="16.355981"><ele>253.6</ele></trkpt>
   <trkpt lat="68.816782" lon="16.355981"><ele>253.6</ele></trkpt>
   <trkpt lat="68.816782" lon="16.355981"><ele>253.6</ele></trkpt>
   <trkpt lat="68.816782" lon="16.355981"><ele>253.6</ele></trkpt>
   <trkpt lat="68.816782" lon="16.355979"><ele>253.6</ele></trkpt>
   <trkpt lat="68.816782" lon="16.355976"><ele>253.4</ele></trkpt>
   <trkpt lat="68.816782" lon="16.355976"><ele>253.4</ele></trkpt>
   <trkpt lat="68.816782" lon="16.355976"><ele>253.4</ele></trkpt>
   <trkpt lat="68.816782" lon="16.355974"><ele>253.6</ele></trkpt>
   <trkpt lat="68.816785" lon="16.355973"><ele>253.4</ele></trkpt>
   <trkpt lat="68.816786" lon="16.355972"><ele>253.4</ele></trkpt>
   <trkpt lat="68.816787" lon="16.355968"><ele>253.4</ele></trkpt>
   <trkpt lat="68.816787" lon="16.355965"><ele>253.4</ele></trkpt>
   <trkpt lat="68.816788" lon="16.355959"><ele>253.8</ele></trkpt>
   <trkpt lat="68.816807" lon="16.355938"><ele>254.4</ele></trkpt>
   <trkpt lat="68.816820" lon="16.355928"><ele>254.6</ele></trkpt>
   <trkpt lat="68.816842" lon="16.355896"><ele>254.8</ele></trkpt>
   <trkpt lat="68.816867" lon="16.355854"><ele>255.2</ele></trkpt>
   <trkpt lat="68.816914" lon="16.355806"><ele>255.8</ele></trkpt>
   <trkpt lat="68.816934" lon="16.355753"><ele>256.2</ele></trkpt>
   <trkpt lat="68.816949" lon="16.355718"><ele>257.0</ele></trkpt>
   <trkpt lat="68.816959" lon="16.355690"><ele>257.4</ele></trkpt>
   <trkpt lat="68.816965" lon="16.355646"><ele>258.2</ele></trkpt>
   <trkpt lat="68.816966" lon="16.355604"><ele>259.2</ele></trkpt>
   <trkpt lat="68.816967" lon="16.355526"><ele>260.4</ele></trkpt>
   <trkpt lat="68.816970" lon="16.355497"><ele>261.0</ele></trkpt>
   <trkpt lat="68.816969" lon="16.355491"><ele>261.4</ele></trkpt>
   <trkpt lat="68.816982" lon="16.355474"><ele>262.2</ele></trkpt>
   <trkpt lat="68.816988" lon="16.355470"><ele>262.6</ele></trkpt>
   <trkpt lat="68.816994" lon="16.355462"><ele>262.8</ele></trkpt>
   <trkpt lat="68.817017" lon="16.355416"><ele>263.6</ele></trkpt>
   <trkpt lat="68.817013" lon="16.355373"><ele>264.6</ele></trkpt>
   <trkpt lat="68.817029" lon="16.355331"><ele>265.4</ele></trkpt>
   <trkpt lat="68.817036" lon="16.355311"><ele>265.8</ele></trkpt>
   <trkpt lat="68.817040" lon="16.355292"><ele>266.6</ele></trkpt>
   <trkpt lat="68.817040" lon="16.355286"><ele>266.8</ele></trkpt>
   <trkpt lat="68.817051" lon="16.355253"><ele>267.6</ele></trkpt>
   <trkpt lat="68.817052" lon="16.355253"><ele>267.8</ele></trkpt>
   <trkpt lat="68.817056" lon="16.355178"><ele>268.8</ele></trkpt>
   <trkpt lat="68.817057" lon="16.355175"><ele>269.0</ele></trkpt>
   <trkpt lat="68.817068" lon="16.355121"><ele>270.2</ele></trkpt>
   <trkpt lat="68.817071" lon="16.355119"><ele>270.2</ele></trkpt>
   <trkpt lat="68.817063" lon="16.355081"><ele>270.6</ele></trkpt>
   <trkpt lat="68.817062" lon="16.355070"><ele>270.8</ele></trkpt>
   <trkpt lat="68.817063" lon="16.355058"><ele>270.8</ele></trkpt>
   <trkpt lat="68.817067" lon="16.355037"><ele>271.2</ele></trkpt>
   <trkpt lat="68.817068" lon="16.355034"><ele>271.4</ele></trkpt>
   <trkpt lat="68.817072" lon="16.354982"><ele>272.2</ele></trkpt>
   <trkpt lat="68.817076" lon="16.354969"><ele>272.6</ele></trkpt>
   <trkpt lat="68.817079" lon="16.354947"><ele>272.8</ele></trkpt>
   <trkpt lat="68.817082" lon="16.354923"><ele>273.2</ele></trkpt>
   <trkpt lat="68.817085" lon="16.354918"><ele>273.2</ele></trkpt>
   <trkpt lat="68.817084" lon="16.354887"><ele>273.8</ele></trkpt>
   <trkpt lat="68.817093" lon="16.354857"><ele>274.4</ele></trkpt>
   <trkpt lat="68.817098" lon="16.354844"><ele>275.2</ele></trkpt>
   <trkpt lat="68.817105" lon="16.354825"><ele>275.4</ele></trkpt>
   <trkpt lat="68.817098" lon="16.354803"><ele>275.8</ele></trkpt>
   <trkpt lat="68.817102" lon="16.354771"><ele>276.4</ele></trkpt>
   <trkpt lat="68.817103" lon="16.354769"><ele>276.4</ele></trkpt>
   <trkpt lat="68.817102" lon="16.354760"><ele>277.0</ele></trkpt>
   <trkpt lat="68.817102" lon="16.354760"><ele>277.2</ele></trkpt>
   <trkpt lat="68.817102" lon="16.354760"><ele>277.6</ele></trkpt>
   <trkpt lat="68.817102" lon="16.354760"><ele>278.4</ele></trkpt>
   <trkpt lat="68.817102" lon="16.354760"><ele>278.6</ele></trkpt>
   <trkpt lat="68.817102" lon="16.354730"><ele>279.6</ele></trkpt>
   <trkpt lat="68.817106" lon="16.354672"><ele>280.6</ele></trkpt>
   <trkpt lat="68.817107" lon="16.354654"><ele>281.0</ele></trkpt>
   <trkpt lat="68.817109" lon="16.354579"><ele>281.4</ele></trkpt>
   <trkpt lat="68.817110" lon="16.354515"><ele>282.0</ele></trkpt>
   <trkpt lat="68.817117" lon="16.354435"><ele>282.8</ele></trkpt>
   <trkpt lat="68.817118" lon="16.354423"><ele>283.0</ele></trkpt>
   <trkpt lat="68.817121" lon="16.354358"><ele>283.8</ele></trkpt>
   <trkpt lat="68.817122" lon="16.354337"><ele>284.0</ele></trkpt>
   <trkpt lat="68.817124" lon="16.354277"><ele>285.2</ele></trkpt>
   <trkpt lat="68.817135" lon="16.354212"><ele>285.8</ele></trkpt>
   <trkpt lat="68.817137" lon="16.354194"><ele>286.2</ele></trkpt>
   <trkpt lat="68.817144" lon="16.354134"><ele>287.2</ele></trkpt>
   <trkpt lat="68.817145" lon="16.354117"><ele>287.4</ele></trkpt>
   <trkpt lat="68.817152" lon="16.354032"><ele>288.4</ele></trkpt>
   <trkpt lat="68.817163" lon="16.353936"><ele>289.2</ele></trkpt>
   <trkpt lat="68.817163" lon="16.353928"><ele>289.4</ele></trkpt>
   <trkpt lat="68.817166" lon="16.353859"><ele>290.2</ele></trkpt>
   <trkpt lat="68.817166" lon="16.353849"><ele>290.6</ele></trkpt>
   <trkpt lat="68.817167" lon="16.353796"><ele>291.2</ele></trkpt>
   <trkpt lat="68.817167" lon="16.353768"><ele>291.6</ele></trkpt>
   <trkpt lat="68.817167" lon="16.353705"><ele>292.4</ele></trkpt>
   <trkpt lat="68.817167" lon="16.353688"><ele>292.6</ele></trkpt>
   <trkpt lat="68.817168" lon="16.353616"><ele>293.0</ele></trkpt>
   <trkpt lat="68.817170" lon="16.353532"><ele>293.6</ele></trkpt>
   <trkpt lat="68.817173" lon="16.353463"><ele>294.4</ele></trkpt>
   <trkpt lat="68.817175" lon="16.353442"><ele>294.6</ele></trkpt>
   <trkpt lat="68.817192" lon="16.353360"><ele>295.4</ele></trkpt>
   <trkpt lat="68.817213" lon="16.353268"><ele>295.8</ele></trkpt>
   <trkpt lat="68.817299" lon="16.352992"><ele>296.4</ele></trkpt>
   <trkpt lat="68.817347" lon="16.352876"><ele>296.8</ele></trkpt>
   <trkpt lat="68.817376" lon="16.352800"><ele>297.2</ele></trkpt>
   <trkpt lat="68.817388" lon="16.352795"><ele>298.0</ele></trkpt>
   <trkpt lat="68.817424" lon="16.352764"><ele>298.6</ele></trkpt>
   <trkpt lat="68.817432" lon="16.352743"><ele>298.6</ele></trkpt>
   <trkpt lat="68.817445" lon="16.352710"><ele>299.0</ele></trkpt>
   <trkpt lat="68.817450" lon="16.352682"><ele>299.2</ele></trkpt>
   <trkpt lat="68.817461" lon="16.352679"><ele>299.6</ele></trkpt>
   <trkpt lat="68.817472" lon="16.352651"><ele>299.8</ele></trkpt>
   <trkpt lat="68.817477" lon="16.352633"><ele>300.0</ele></trkpt>
   <trkpt lat="68.817487" lon="16.352593"><ele>300.6</ele></trkpt>
   <trkpt lat="68.817491" lon="16.352592"><ele>301.2</ele></trkpt>
   <trkpt lat="68.817498" lon="16.352579"><ele>301.6</ele></trkpt>
   <trkpt lat="68.817503" lon="16.352522"><ele>302.0</ele></trkpt>
   <trkpt lat="68.817504" lon="16.352517"><ele>302.0</ele></trkpt>
   <trkpt lat="68.817508" lon="16.352498"><ele>302.2</ele></trkpt>
   <trkpt lat="68.817532" lon="16.352461"><ele>303.0</ele></trkpt>
   <trkpt lat="68.817545" lon="16.352446"><ele>303.2</ele></trkpt>
   <trkpt lat="68.817555" lon="16.352428"><ele>303.4</ele></trkpt>
   <trkpt lat="68.817562" lon="16.352339"><ele>304.2</ele></trkpt>
   <trkpt lat="68.817568" lon="16.352323"><ele>304.6</ele></trkpt>
   <trkpt lat="68.817576" lon="16.352316"><ele>305.2</ele></trkpt>
   <trkpt lat="68.817578" lon="16.352311"><ele>305.6</ele></trkpt>
   <trkpt lat="68.817578" lon="16.352269"><ele>306.0</ele></trkpt>
   <trkpt lat="68.817579" lon="16.352268"><ele>306.2</ele></trkpt>
   <trkpt lat="68.817579" lon="16.352268"><ele>306.2</ele></trkpt>
   <trkpt lat="68.817579" lon="16.352269"><ele>306.2</ele></trkpt>
   <trkpt lat="68.817579" lon="16.352274"><ele>306.2</ele></trkpt>
   <trkpt lat="68.817578" lon="16.352274"><ele>306.0</ele></trkpt>
   <trkpt lat="68.817578" lon="16.352270"><ele>306.0</ele></trkpt>
   <trkpt lat="68.817579" lon="16.352274"><ele>305.8</ele></trkpt>
   <trkpt lat="68.817587" lon="16.352274"><ele>305.8</ele></trkpt>
   <trkpt lat="68.817593" lon="16.352267"><ele>305.6</ele></trkpt>
   <trkpt lat="68.817594" lon="16.352266"><ele>305.6</ele></trkpt>
   <trkpt lat="68.817594" lon="16.352263"><ele>305.6</ele></trkpt>
   <trkpt lat="68.817595" lon="16.352262"><ele>305.4</ele></trkpt>
   <trkpt lat="68.817595" lon="16.352261"><ele>305.2</ele></trkpt>
   <trkpt lat="68.817595" lon="16.352260"><ele>305.2</ele></trkpt>
   <trkpt lat="68.817596" lon="16.352260"><ele>305.2</ele></trkpt>
   <trkpt lat="68.817597" lon="16.352260"><ele>305.2</ele></trkpt>
   <trkpt lat="68.817599" lon="16.352253"><ele>305.2</ele></trkpt>
   <trkpt lat="68.817600" lon="16.352251"><ele>305.2</ele></trkpt>
   <trkpt lat="68.817601" lon="16.352251"><ele>305.0</ele></trkpt>
   <trkpt lat="68.817601" lon="16.352251"><ele>305.0</ele></trkpt>
   <trkpt lat="68.817601" lon="16.352249"><ele>305.0</ele></trkpt>
   <trkpt lat="68.817602" lon="16.352249"><ele>305.0</ele></trkpt>
   <trkpt lat="68.817602" lon="16.352249"><ele>305.0</ele></trkpt>
   <trkpt lat="68.817602" lon="16.352249"><ele>305.0</ele></trkpt>
   <trkpt lat="68.817602" lon="16.352249"><ele>305.0</ele></trkpt>
   <trkpt lat="68.817602" lon="16.352249"><ele>305.0</ele></trkpt>
   <trkpt lat="68.817602" lon="16.352248"><ele>305.0</ele></trkpt>
   <trkpt lat="68.817602" lon="16.352245"><ele>305.0</ele></trkpt>
   <trkpt lat="68.817601" lon="16.352244"><ele>305.2</ele></trkpt>
   <trkpt lat="68.817601" lon="16.352244"><ele>305.0</ele></trkpt>
   <trkpt lat="68.817601" lon="16.352244"><ele>305.2</ele></trkpt>
   <trkpt lat="68.817600" lon="16.352245"><ele>305.0</ele></trkpt>
   <trkpt lat="68.817599" lon="16.352249"><ele>305.0</ele></trkpt>
   <trkpt lat="68.817594" lon="16.352257"><ele>305.0</ele></trkpt>
   <trkpt lat="68.817591" lon="16.352259"><ele>305.0</ele></trkpt>
   <trkpt lat="68.817591" lon="16.352259"><ele>305.0</ele></trkpt>
   <trkpt lat="68.817591" lon="16.352257"><ele>305.2</ele></trkpt>
   <trkpt lat="68.817592" lon="16.352254"><ele>305.4</ele></trkpt>
   <trkpt lat="68.817592" lon="16.352250"><ele>305.4</ele></trkpt>
   <trkpt lat="68.817591" lon="16.352246"><ele>305.4</ele></trkpt>
   <trkpt lat="68.817589" lon="16.352242"><ele>305.4</ele></trkpt>
   <trkpt lat="68.817589" lon="16.352238"><ele>305.4</ele></trkpt>
   <trkpt lat="68.817588" lon="16.352236"><ele>305.4</ele></trkpt>
   <trkpt lat="68.817588" lon="16.352235"><ele>305.4</ele></trkpt>
   <trkpt lat="68.817588" lon="16.352235"><ele>305.8</ele></trkpt>
   <trkpt lat="68.817588" lon="16.352235"><ele>306.2</ele></trkpt>
   <trkpt lat="68.817588" lon="16.352234"><ele>307.4</ele></trkpt>
   <trkpt lat="68.817587" lon="16.352233"><ele>308.6</ele></trkpt>
   <trkpt lat="68.817587" lon="16.352231"><ele>309.6</ele></trkpt>
   <trkpt lat="68.817587" lon="16.352228"><ele>310.8</ele></trkpt>
   <trkpt lat="68.817587" lon="16.352226"><ele>311.8</ele></trkpt>
   <trkpt lat="68.817586" lon="16.352223"><ele>312.8</ele></trkpt>
   <trkpt lat="68.817586" lon="16.352220"><ele>313.6</ele></trkpt>
   <trkpt lat="68.817586" lon="16.352219"><ele>314.0</ele></trkpt>
   <trkpt lat="68.817585" lon="16.352216"><ele>314.6</ele></trkpt>
   <trkpt lat="68.817585" lon="16.352214"><ele>315.0</ele></trkpt>
   <trkpt lat="68.817585" lon="16.352209"><ele>316.0</ele></trkpt>
   <trkpt lat="68.817585" lon="16.352204"><ele>316.8</ele></trkpt>
   <trkpt lat="68.817585" lon="16.352200"><ele>316.8</ele></trkpt>
   <trkpt lat="68.817585" lon="16.352196"><ele>317.0</ele></trkpt>
   <trkpt lat="68.817585" lon="16.352190"><ele>317.2</ele></trkpt>
   <trkpt lat="68.817585" lon="16.352185"><ele>318.0</ele></trkpt>
   <trkpt lat="68.817585" lon="16.352183"><ele>318.2</ele></trkpt>
   <trkpt lat="68.817584" lon="16.352179"><ele>319.2</ele></trkpt>
   <trkpt lat="68.817585" lon="16.352173"><ele>320.2</ele></trkpt>
   <trkpt lat="68.817584" lon="16.352172"><ele>320.4</ele></trkpt>
   <trkpt lat="68.817584" lon="16.352169"><ele>321.2</ele></trkpt>
   <trkpt lat="68.817584" lon="16.352168"><ele>321.4</ele></trkpt>
   <trkpt lat="68.817584" lon="16.352161"><ele>322.6</ele></trkpt>
   <trkpt lat="68.817583" lon="16.352154"><ele>324.0</ele></trkpt>
   <trkpt lat="68.817583" lon="16.352147"><ele>325.0</ele></trkpt>
   <trkpt lat="68.817583" lon="16.352142"><ele>325.6</ele></trkpt>
   <trkpt lat="68.817583" lon="16.352139"><ele>326.0</ele></trkpt>
   <trkpt lat="68.817582" lon="16.352132"><ele>327.2</ele></trkpt>
   <trkpt lat="68.817582" lon="16.352126"><ele>328.2</ele></trkpt>
   <trkpt lat="68.817581" lon="16.352120"><ele>329.0</ele></trkpt>
   <trkpt lat="68.817581" lon="16.352116"><ele>329.2</ele></trkpt>
   <trkpt lat="68.817581" lon="16.352108"><ele>329.4</ele></trkpt>
   <trkpt lat="68.817580" lon="16.352100"><ele>330.2</ele></trkpt>
   <trkpt lat="68.817580" lon="16.352091"><ele>330.8</ele></trkpt>
   <trkpt lat="68.817580" lon="16.352081"><ele>331.0</ele></trkpt>
   <trkpt lat="68.817580" lon="16.352072"><ele>331.0</ele></trkpt>
   <trkpt lat="68.817580" lon="16.352067"><ele>331.0</ele></trkpt>
   <trkpt lat="68.817579" lon="16.352059"><ele>330.8</ele></trkpt>
   <trkpt lat="68.817579" lon="16.352051"><ele>330.8</ele></trkpt>
   <trkpt lat="68.817579" lon="16.352045"><ele>330.6</ele></trkpt>
   <trkpt lat="68.817579" lon="16.352039"><ele>330.6</ele></trkpt>
   <trkpt lat="68.817578" lon="16.352032"><ele>330.8</ele></trkpt>
   <trkpt lat="68.817578" lon="16.352027"><ele>331.4</ele></trkpt>
   <trkpt lat="68.817578" lon="16.352019"><ele>332.2</ele></trkpt>
   <trkpt lat="68.817578" lon="16.352016"><ele>332.4</ele></trkpt>
   <trkpt lat="68.817579" lon="16.352007"><ele>333.4</ele></trkpt>
   <trkpt lat="68.817579" lon="16.352000"><ele>334.2</ele></trkpt>
   <trkpt lat="68.817579" lon="16.351997"><ele>334.4</ele></trkpt>
   <trkpt lat="68.817580" lon="16.351990"><ele>335.2</ele></trkpt>
   <trkpt lat="68.817580" lon="16.351986"><ele>335.4</ele></trkpt>
   <trkpt lat="68.817581" lon="16.351979"><ele>336.2</ele></trkpt>
   <trkpt lat="68.817582" lon="16.351973"><ele>336.6</ele></trkpt>
   <trkpt lat="68.817583" lon="16.351964"><ele>337.2</ele></trkpt>
   <trkpt lat="68.817584" lon="16.351961"><ele>337.6</ele></trkpt>
   <trkpt lat="68.817584" lon="16.351958"><ele>338.0</ele></trkpt>
   <trkpt lat="68.817585" lon="16.351952"><ele>338.6</ele></trkpt>
   <trkpt lat="68.817586" lon="16.351943"><ele>339.0</ele></trkpt>
   <trkpt lat="68.817587" lon="16.351939"><ele>339.0</ele></trkpt>
   <trkpt lat="68.817588" lon="16.351929"><ele>338.8</ele></trkpt>
   <trkpt lat="68.817589" lon="16.351920"><ele>338.4</ele></trkpt>
   <trkpt lat="68.817589" lon="16.351917"><ele>338.4</ele></trkpt>
   <trkpt lat="68.817590" lon="16.351907"><ele>339.0</ele></trkpt>
   <trkpt lat="68.817591" lon="16.351900"><ele>339.8</ele></trkpt>
   <trkpt lat="68.817592" lon="16.351890"><ele>340.6</ele></trkpt>
   <trkpt lat="68.817592" lon="16.351887"><ele>341.0</ele></trkpt>
   <trkpt lat="68.817593" lon="16.351880"><ele>341.4</ele></trkpt>
   <trkpt lat="68.817593" lon="16.351872"><ele>342.0</ele></trkpt>
   <trkpt lat="68.817595" lon="16.351861"><ele>342.4</ele></trkpt>
   <trkpt lat="68.817596" lon="16.351851"><ele>342.4</ele></trkpt>
   <trkpt lat="68.817596" lon="16.351841"><ele>342.2</ele></trkpt>
   <trkpt lat="68.817597" lon="16.351832"><ele>342.0</ele></trkpt>
   <trkpt lat="68.817597" lon="16.351824"><ele>341.6</ele></trkpt>
   <trkpt lat="68.817598" lon="16.351814"><ele>341.0</ele></trkpt>
   <trkpt lat="68.817599" lon="16.351805"><ele>340.6</ele></trkpt>
   <trkpt lat="68.817600" lon="16.351797"><ele>340.4</ele></trkpt>
   <trkpt lat="68.817602" lon="16.351788"><ele>340.0</ele></trkpt>
   <trkpt lat="68.817602" lon="16.351787"><ele>339.8</ele></trkpt>
   <trkpt lat="68.817603" lon="16.351779"><ele>340.0</ele></trkpt>
   <trkpt lat="68.817605" lon="16.351770"><ele>340.8</ele></trkpt>
   <trkpt lat="68.817605" lon="16.351768"><ele>341.0</ele></trkpt>
   <trkpt lat="68.817783" lon="16.350897"><ele>341.8</ele></trkpt>
   <trkpt lat="68.817846" lon="16.350593"><ele>342.0</ele></trkpt>
   <trkpt lat="68.817920" lon="16.350284"><ele>342.2</ele></trkpt>
   <trkpt lat="68.817965" lon="16.350275"><ele>343.0</ele></trkpt>
   <trkpt lat="68.817965" lon="16.350273"><ele>343.0</ele></trkpt>
   <trkpt lat="68.817981" lon="16.350235"><ele>344.2</ele></trkpt>
   <trkpt lat="68.818016" lon="16.350253"><ele>345.4</ele></trkpt>
   <trkpt lat="68.818025" lon="16.350268"><ele>345.4</ele></trkpt>
   <trkpt lat="68.818034" lon="16.350272"><ele>345.4</ele></trkpt>
   <trkpt lat="68.818057" lon="16.350256"><ele>345.4</ele></trkpt>
   <trkpt lat="68.818069" lon="16.350261"><ele>345.8</ele></trkpt>
   <trkpt lat="68.818086" lon="16.350257"><ele>346.2</ele></trkpt>
   <trkpt lat="68.818094" lon="16.350265"><ele>346.2</ele></trkpt>
   <trkpt lat="68.818101" lon="16.350262"><ele>346.4</ele></trkpt>
   <trkpt lat="68.818115" lon="16.350265"><ele>346.6</ele></trkpt>
   <trkpt lat="68.818127" lon="16.350252"><ele>347.0</ele></trkpt>
   <trkpt lat="68.818131" lon="16.350236"><ele>347.4</ele></trkpt>
   <trkpt lat="68.818138" lon="16.350222"><ele>347.8</ele></trkpt>
   <trkpt lat="68.818177" lon="16.350185"><ele>348.6</ele></trkpt>
   <trkpt lat="68.818189" lon="16.350183"><ele>348.8</ele></trkpt>
   <trkpt lat="68.818201" lon="16.350163"><ele>349.2</ele></trkpt>
   <trkpt lat="68.818215" lon="16.350148"><ele>349.6</ele></trkpt>
   <trkpt lat="68.818213" lon="16.350143"><ele>349.6</ele></trkpt>
   <trkpt lat="68.818222" lon="16.350136"><ele>349.8</ele></trkpt>
   <trkpt lat="68.818224" lon="16.350138"><ele>349.8</ele></trkpt>
   <trkpt lat="68.818221" lon="16.350136"><ele>349.8</ele></trkpt>
   <trkpt lat="68.818224" lon="16.350057"><ele>350.0</ele></trkpt>
   <trkpt lat="68.818236" lon="16.350014"><ele>351.0</ele></trkpt>
   <trkpt lat="68.818248" lon="16.349974"><ele>352.2</ele></trkpt>
   <trkpt lat="68.818252" lon="16.349965"><ele>352.4</ele></trkpt>
   <trkpt lat="68.818255" lon="16.349929"><ele>353.2</ele></trkpt>
   <trkpt lat="68.818256" lon="16.349919"><ele>353.4</ele></trkpt>
   <trkpt lat="68.818260" lon="16.349914"><ele>354.0</ele></trkpt>
   <trkpt lat="68.818264" lon="16.349900"><ele>354.4</ele></trkpt>
   <trkpt lat="68.818269" lon="16.349886"><ele>355.6</ele></trkpt>
   <trkpt lat="68.818261" lon="16.349877"><ele>356.0</ele></trkpt>
   <trkpt lat="68.818262" lon="16.349860"><ele>356.8</ele></trkpt>
   <trkpt lat="68.818261" lon="16.349861"><ele>357.4</ele></trkpt>
   <trkpt lat="68.818261" lon="16.349861"><ele>358.0</ele></trkpt>
   <trkpt lat="68.818261" lon="16.349861"><ele>358.6</ele></trkpt>
   <trkpt lat="68.818261" lon="16.349861"><ele>359.2</ele></trkpt>
   <trkpt lat="68.818262" lon="16.349860"><ele>360.6</ele></trkpt>
   <trkpt lat="68.818271" lon="16.349799"><ele>361.8</ele></trkpt>
   <trkpt lat="68.818288" lon="16.349707"><ele>362.6</ele></trkpt>
   <trkpt lat="68.818293" lon="16.349692"><ele>363.0</ele></trkpt>
   <trkpt lat="68.818293" lon="16.349657"><ele>364.0</ele></trkpt>
   <trkpt lat="68.818293" lon="16.349635"><ele>365.2</ele></trkpt>
   <trkpt lat="68.818293" lon="16.349575"><ele>365.8</ele></trkpt>
   <trkpt lat="68.818293" lon="16.349570"><ele>366.0</ele></trkpt>
   <trkpt lat="68.818293" lon="16.349561"><ele>366.4</ele></trkpt>
   <trkpt lat="68.818293" lon="16.349529"><ele>366.8</ele></trkpt>
   <trkpt lat="68.818300" lon="16.349491"><ele>367.0</ele></trkpt>
   <trkpt lat="68.818302" lon="16.349482"><ele>367.4</ele></trkpt>
   <trkpt lat="68.818309" lon="16.349460"><ele>368.4</ele></trkpt>
   <trkpt lat="68.818310" lon="16.349459"><ele>368.4</ele></trkpt>
   <trkpt lat="68.818320" lon="16.349389"><ele>369.4</ele></trkpt>
   <trkpt lat="68.818321" lon="16.349381"><ele>369.4</ele></trkpt>
   <trkpt lat="68.818328" lon="16.349324"><ele>370.4</ele></trkpt>
   <trkpt lat="68.818341" lon="16.349291"><ele>370.4</ele></trkpt>
   <trkpt lat="68.818360" lon="16.349274"><ele>371.0</ele></trkpt>
   <trkpt lat="68.818364" lon="16.349267"><ele>371.6</ele></trkpt>
   <trkpt lat="68.818379" lon="16.349222"><ele>372.6</ele></trkpt>
   <trkpt lat="68.818406" lon="16.349163"><ele>373.0</ele></trkpt>
   <trkpt lat="68.818453" lon="16.348988"><ele>373.2</ele></trkpt>
   <trkpt lat="68.818461" lon="16.348953"><ele>373.6</ele></trkpt>
   <trkpt lat="68.818459" lon="16.348937"><ele>374.0</ele></trkpt>
   <trkpt lat="68.818453" lon="16.348933"><ele>375.0</ele></trkpt>
   <trkpt lat="68.818446" lon="16.348925"><ele>375.0</ele></trkpt>
   <trkpt lat="68.818433" lon="16.348886"><ele>375.2</ele></trkpt>
   <trkpt lat="68.818419" lon="16.348867"><ele>376.2</ele></trkpt>
   <trkpt lat="68.818415" lon="16.348864"><ele>376.8</ele></trkpt>
   <trkpt lat="68.818415" lon="16.348864"><ele>377.2</ele></trkpt>
   <trkpt lat="68.818415" lon="16.348864"><ele>377.6</ele></trkpt>
   <trkpt lat="68.818415" lon="16.348867"><ele>377.8</ele></trkpt>
   <trkpt lat="68.818415" lon="16.348868"><ele>377.8</ele></trkpt>
   <trkpt lat="68.818415" lon="16.348869"><ele>377.8</ele></trkpt>
   <trkpt lat="68.818412" lon="16.348869"><ele>378.2</ele></trkpt>
   <trkpt lat="68.818406" lon="16.348869"><ele>378.2</ele></trkpt>
   <trkpt lat="68.818404" lon="16.348869"><ele>378.2</ele></trkpt>
   <trkpt lat="68.818395" lon="16.348868"><ele>378.4</ele></trkpt>
   <trkpt lat="68.818391" lon="16.348853"><ele>379.2</ele></trkpt>
   <trkpt lat="68.818378" lon="16.348839"><ele>379.0</ele></trkpt>
   <trkpt lat="68.818359" lon="16.348815"><ele>379.0</ele></trkpt>
   <trkpt lat="68.818358" lon="16.348814"><ele>378.8</ele></trkpt>
   <trkpt lat="68.818358" lon="16.348811"><ele>378.8</ele></trkpt>
   <trkpt lat="68.818357" lon="16.348810"><ele>378.6</ele></trkpt>
   <trkpt lat="68.818357" lon="16.348810"><ele>378.6</ele></trkpt>
   <trkpt lat="68.818358" lon="16.348814"><ele>378.6</ele></trkpt>
   <trkpt lat="68.818359" lon="16.348815"><ele>378.4</ele></trkpt>
   <trkpt lat="68.818363" lon="16.348824"><ele>378.4</ele></trkpt>
   <trkpt lat="68.818367" lon="16.348825"><ele>378.4</ele></trkpt>
   <trkpt lat="68.818371" lon="16.348825"><ele>378.6</ele></trkpt>
   <trkpt lat="68.818373" lon="16.348825"><ele>378.6</ele></trkpt>
   <trkpt lat="68.818378" lon="16.348824"><ele>378.8</ele></trkpt>
   <trkpt lat="68.818379" lon="16.348823"><ele>378.6</ele></trkpt>
   <trkpt lat="68.818380" lon="16.348823"><ele>378.6</ele></trkpt>
   <trkpt lat="68.818380" lon="16.348824"><ele>378.4</ele></trkpt>
   <trkpt lat="68.818379" lon="16.348824"><ele>378.0</ele></trkpt>
   <trkpt lat="68.818380" lon="16.348824"><ele>378.0</ele></trkpt>
   <trkpt lat="68.818380" lon="16.348818"><ele>378.0</ele></trkpt>
   <trkpt lat="68.818382" lon="16.348818"><ele>377.6</ele></trkpt>
   <trkpt lat="68.818386" lon="16.348818"><ele>377.6</ele></trkpt>
   <trkpt lat="68.818387" lon="16.348825"><ele>377.6</ele></trkpt>
   <trkpt lat="68.818387" lon="16.348826"><ele>377.4</ele></trkpt>
   <trkpt lat="68.818387" lon="16.348826"><ele>377.2</ele></trkpt>
   <trkpt lat="68.818384" lon="16.348826"><ele>377.2</ele></trkpt>
   <trkpt lat="68.818381" lon="16.348824"><ele>377.0</ele></trkpt>
   <trkpt lat="68.818378" lon="16.348819"><ele>376.8</ele></trkpt>
   <trkpt lat="68.818376" lon="16.348817"><ele>376.8</ele></trkpt>
   <trkpt lat="68.818376" lon="16.348816"><ele>376.4</ele></trkpt>
   <trkpt lat="68.818375" lon="16.348816"><ele>376.4</ele></trkpt>
   <trkpt lat="68.818376" lon="16.348817"><ele>376.4</ele></trkpt>
   <trkpt lat="68.818376" lon="16.348817"><ele>376.2</ele></trkpt>
   <trkpt lat="68.818376" lon="16.348817"><ele>376.2</ele></trkpt>
   <trkpt lat="68.818375" lon="16.348817"><ele>376.0</ele></trkpt>
   <trkpt lat="68.818375" lon="16.348817"><ele>376.0</ele></trkpt>
   <trkpt lat="68.818375" lon="16.348817"><ele>376.0</ele></trkpt>
   <trkpt lat="68.818375" lon="16.348817"><ele>375.8</ele></trkpt>
   <trkpt lat="68.818375" lon="16.348817"><ele>375.6</ele></trkpt>
   <trkpt lat="68.818375" lon="16.348816"><ele>375.6</ele></trkpt>
   <trkpt lat="68.818375" lon="16.348816"><ele>375.6</ele></trkpt>
   <trkpt lat="68.818375" lon="16.348815"><ele>376.6</ele></trkpt>
   <trkpt lat="68.818375" lon="16.348815"><ele>376.8</ele></trkpt>
   <trkpt lat="68.818374" lon="16.348814"><ele>376.2</ele></trkpt>
   <trkpt lat="68.818374" lon="16.348813"><ele>376.4</ele></trkpt>
   <trkpt lat="68.818374" lon="16.348812"><ele>376.2</ele></trkpt>
   <trkpt lat="68.818373" lon="16.348811"><ele>376.8</ele></trkpt>
   <trkpt lat="68.818373" lon="16.348810"><ele>377.2</ele></trkpt>
   <trkpt lat="68.818372" lon="16.348809"><ele>378.0</ele></trkpt>
   <trkpt lat="68.818372" lon="16.348809"><ele>378.4</ele></trkpt>
   <trkpt lat="68.818371" lon="16.348807"><ele>379.4</ele></trkpt>
   <trkpt lat="68.818370" lon="16.348805"><ele>380.6</ele></trkpt>
   <trkpt lat="68.818370" lon="16.348805"><ele>379.0</ele></trkpt>
   <trkpt lat="68.818369" lon="16.348803"><ele>379.2</ele></trkpt>
   <trkpt lat="68.818369" lon="16.348801"><ele>380.0</ele></trkpt>
   <trkpt lat="68.818368" lon="16.348799"><ele>381.0</ele></trkpt>
   <trkpt lat="68.818367" lon="16.348796"><ele>382.2</ele></trkpt>
   <trkpt lat="68.818366" lon="16.348793"><ele>383.4</ele></trkpt>
   <trkpt lat="68.818366" lon="16.348792"><ele>383.6</ele></trkpt>
   <trkpt lat="68.818365" lon="16.348790"><ele>384.2</ele></trkpt>
   <trkpt lat="68.818365" lon="16.348789"><ele>384.4</ele></trkpt>
   <trkpt lat="68.818351" lon="16.348587"><ele>385.0</ele></trkpt>
   <trkpt lat="68.818345" lon="16.348536"><ele>385.2</ele></trkpt>
   <trkpt lat="68.818334" lon="16.348417"><ele>385.4</ele></trkpt>
   <trkpt lat="68.818315" lon="16.348195"><ele>386.6</ele></trkpt>
   <trkpt lat="68.818316" lon="16.348193"><ele>386.8</ele></trkpt>
   <trkpt lat="68.818326" lon="16.348167"><ele>387.2</ele></trkpt>
   <trkpt lat="68.818330" lon="16.348151"><ele>387.4</ele></trkpt>
   <trkpt lat="68.818331" lon="16.348153"><ele>387.6</ele></trkpt>
   <trkpt lat="68.818331" lon="16.348153"><ele>387.6</ele></trkpt>
   <trkpt lat="68.818331" lon="16.348153"><ele>387.6</ele></trkpt>
   <trkpt lat="68.818331" lon="16.348151"><ele>387.6</ele></trkpt>
   <trkpt lat="68.818332" lon="16.348143"><ele>387.6</ele></trkpt>
   <trkpt lat="68.818332" lon="16.348143"><ele>387.6</ele></trkpt>
   <trkpt lat="68.818334" lon="16.348143"><ele>387.6</ele></trkpt>
   <trkpt lat="68.818334" lon="16.348143"><ele>387.6</ele></trkpt>
   <trkpt lat="68.818335" lon="16.348149"><ele>387.6</ele></trkpt>
   <trkpt lat="68.818336" lon="16.348153"><ele>387.4</ele></trkpt>
   <trkpt lat="68.818336" lon="16.348153"><ele>387.4</ele></trkpt>
   <trkpt lat="68.818337" lon="16.348153"><ele>387.4</ele></trkpt>
   <trkpt lat="68.818338" lon="16.348152"><ele>387.2</ele></trkpt>
   <trkpt lat="68.818338" lon="16.348152"><ele>387.2</ele></trkpt>
   <trkpt lat="68.818341" lon="16.348153"><ele>387.0</ele></trkpt>
   <trkpt lat="68.818344" lon="16.348158"><ele>387.0</ele></trkpt>
   <trkpt lat="68.818346" lon="16.348161"><ele>386.8</ele></trkpt>
   <trkpt lat="68.818346" lon="16.348161"><ele>386.8</ele></trkpt>
   <trkpt lat="68.818347" lon="16.348162"><ele>386.8</ele></trkpt>
   <trkpt lat="68.818347" lon="16.348162"><ele>386.8</ele></trkpt>
   <trkpt lat="68.818347" lon="16.348163"><ele>386.8</ele></trkpt>
   <trkpt lat="68.818347" lon="16.348163"><ele>386.6</ele></trkpt>
   <trkpt lat="68.818346" lon="16.348162"><ele>386.6</ele></trkpt>
   <trkpt lat="68.818345" lon="16.348161"><ele>386.4</ele></trkpt>
   <trkpt lat="68.818345" lon="16.348161"><ele>386.4</ele></trkpt>
   <trkpt lat="68.818343" lon="16.348161"><ele>386.2</ele></trkpt>
   <trkpt lat="68.818340" lon="16.348160"><ele>386.8</ele></trkpt>
   <trkpt lat="68.818338" lon="16.348158"><ele>387.8</ele></trkpt>
   <trkpt lat="68.818314" lon="16.348054"><ele>387.6</ele></trkpt>
   <trkpt lat="68.818305" lon="16.348024"><ele>387.6</ele></trkpt>
   <trkpt lat="68.818296" lon="16.347999"><ele>387.8</ele></trkpt>
   <trkpt lat="68.818263" lon="16.347908"><ele>389.0</ele></trkpt>
   <trkpt lat="68.818249" lon="16.347891"><ele>390.0</ele></trkpt>
   <trkpt lat="68.818244" lon="16.347883"><ele>390.2</ele></trkpt>
   <trkpt lat="68.818248" lon="16.347842"><ele>391.4</ele></trkpt>
   <trkpt lat="68.818239" lon="16.347788"><ele>392.4</ele></trkpt>
   <trkpt lat="68.818241" lon="16.347782"><ele>392.8</ele></trkpt>
   <trkpt lat="68.818248" lon="16.347749"><ele>393.6</ele></trkpt>
   <trkpt lat="68.818234" lon="16.347710"><ele>394.8</ele></trkpt>
   <trkpt lat="68.818231" lon="16.347701"><ele>395.0</ele></trkpt>
   <trkpt lat="68.818224" lon="16.347692"><ele>395.2</ele></trkpt>
   <trkpt lat="68.818223" lon="16.347673"><ele>395.8</ele></trkpt>
   <trkpt lat="68.818231" lon="16.347662"><ele>396.6</ele></trkpt>
   <trkpt lat="68.818232" lon="16.347662"><ele>397.0</ele></trkpt>
   <trkpt lat="68.818232" lon="16.347662"><ele>397.2</ele></trkpt>
   <trkpt lat="68.818232" lon="16.347662"><ele>397.4</ele></trkpt>
   <trkpt lat="68.818232" lon="16.347661"><ele>398.0</ele></trkpt>
   <trkpt lat="68.818232" lon="16.347660"><ele>398.0</ele></trkpt>
   <trkpt lat="68.818231" lon="16.347646"><ele>399.0</ele></trkpt>
   <trkpt lat="68.818231" lon="16.347583"><ele>400.0</ele></trkpt>
   <trkpt lat="68.818232" lon="16.347560"><ele>400.2</ele></trkpt>
   <trkpt lat="68.818237" lon="16.347467"><ele>400.8</ele></trkpt>
   <trkpt lat="68.818236" lon="16.347445"><ele>401.2</ele></trkpt>
   <trkpt lat="68.818234" lon="16.347424"><ele>401.4</ele></trkpt>
   <trkpt lat="68.818231" lon="16.347381"><ele>402.2</ele></trkpt>
   <trkpt lat="68.818226" lon="16.347364"><ele>403.4</ele></trkpt>
   <trkpt lat="68.818224" lon="16.347359"><ele>404.0</ele></trkpt>
   <trkpt lat="68.818224" lon="16.347359"><ele>404.0</ele></trkpt>
   <trkpt lat="68.818224" lon="16.347359"><ele>404.0</ele></trkpt>
   <trkpt lat="68.818224" lon="16.347357"><ele>404.0</ele></trkpt>
   <trkpt lat="68.818223" lon="16.347356"><ele>404.4</ele></trkpt>
   <trkpt lat="68.818221" lon="16.347354"><ele>405.4</ele></trkpt>
   <trkpt lat="68.818217" lon="16.347343"><ele>406.4</ele></trkpt>
   <trkpt lat="68.818215" lon="16.347333"><ele>406.6</ele></trkpt>
   <trkpt lat="68.818210" lon="16.347304"><ele>407.2</ele></trkpt>
   <trkpt lat="68.818210" lon="16.347281"><ele>407.6</ele></trkpt>
   <trkpt lat="68.818207" lon="16.347219"><ele>408.8</ele></trkpt>
   <trkpt lat="68.818205" lon="16.347193"><ele>409.8</ele></trkpt>
   <trkpt lat="68.818204" lon="16.347186"><ele>410.0</ele></trkpt>
   <trkpt lat="68.818203" lon="16.347126"><ele>411.0</ele></trkpt>
   <trkpt lat="68.818203" lon="16.347091"><ele>412.2</ele></trkpt>
   <trkpt lat="68.818203" lon="16.347009"><ele>413.4</ele></trkpt>
   <trkpt lat="68.818206" lon="16.346960"><ele>414.6</ele></trkpt>
   <trkpt lat="68.818206" lon="16.346912"><ele>415.6</ele></trkpt>
   <trkpt lat="68.818212" lon="16.346852"><ele>416.8</ele></trkpt>
   <trkpt lat="68.818216" lon="16.346824"><ele>417.4</ele></trkpt>
   <trkpt lat="68.818216" lon="16.346763"><ele>417.8</ele></trkpt>
   <trkpt lat="68.818216" lon="16.346757"><ele>417.8</ele></trkpt>
   <trkpt lat="68.818216" lon="16.346746"><ele>419.0</ele></trkpt>
   <trkpt lat="68.818214" lon="16.346744"><ele>420.0</ele></trkpt>
   <trkpt lat="68.818214" lon="16.346711"><ele>421.0</ele></trkpt>
   <trkpt lat="68.818213" lon="16.346674"><ele>421.8</ele></trkpt>
   <trkpt lat="68.818212" lon="16.346652"><ele>422.2</ele></trkpt>
   <trkpt lat="68.818211" lon="16.346578"><ele>423.0</ele></trkpt>
   <trkpt lat="68.818211" lon="16.346559"><ele>423.2</ele></trkpt>
   <trkpt lat="68.818215" lon="16.346461"><ele>424.0</ele></trkpt>
   <trkpt lat="68.818210" lon="16.346444"><ele>424.2</ele></trkpt>
   <trkpt lat="68.818199" lon="16.346334"><ele>425.0</ele></trkpt>
   <trkpt lat="68.818194" lon="16.346335"><ele>425.4</ele></trkpt>
   <trkpt lat="68.818177" lon="16.346318"><ele>426.6</ele></trkpt>
   <trkpt lat="68.818162" lon="16.346296"><ele>427.2</ele></trkpt>
   <trkpt lat="68.818158" lon="16.346271"><ele>427.6</ele></trkpt>
   <trkpt lat="68.818158" lon="16.346209"><ele>428.6</ele></trkpt>
   <trkpt lat="68.818151" lon="16.346217"><ele>429.4</ele></trkpt>
   <trkpt lat="68.818143" lon="16.346221"><ele>430.0</ele></trkpt>
   <trkpt lat="68.818124" lon="16.346179"><ele>431.0</ele></trkpt>
   <trkpt lat="68.818126" lon="16.346131"><ele>431.4</ele></trkpt>
   <trkpt lat="68.818132" lon="16.346132"><ele>432.2</ele></trkpt>
   <trkpt lat="68.818134" lon="16.346128"><ele>432.4</ele></trkpt>
   <trkpt lat="68.818134" lon="16.346128"><ele>432.6</ele></trkpt>
   <trkpt lat="68.818134" lon="16.346128"><ele>433.2</ele></trkpt>
   <trkpt lat="68.818133" lon="16.346128"><ele>434.0</ele></trkpt>
   <trkpt lat="68.818133" lon="16.346128"><ele>434.4</ele></trkpt>
   <trkpt lat="68.818131" lon="16.346056"><ele>435.0</ele></trkpt>
   <trkpt lat="68.818126" lon="16.346014"><ele>435.4</ele></trkpt>
   <trkpt lat="68.818109" lon="16.345972"><ele>436.4</ele></trkpt>
   <trkpt lat="68.818098" lon="16.345957"><ele>436.6</ele></trkpt>
   <trkpt lat="68.818078" lon="16.345918"><ele>437.2</ele></trkpt>
   <trkpt lat="68.818064" lon="16.345891"><ele>437.4</ele></trkpt>
   <trkpt lat="68.818060" lon="16.345868"><ele>437.6</ele></trkpt>
   <trkpt lat="68.818049" lon="16.345831"><ele>438.0</ele></trkpt>
   <trkpt lat="68.818044" lon="16.345824"><ele>438.0</ele></trkpt>
   <trkpt lat="68.818043" lon="16.345813"><ele>438.4</ele></trkpt>
   <trkpt lat="68.818044" lon="16.345815"><ele>438.4</ele></trkpt>
   <trkpt lat="68.818044" lon="16.345817"><ele>438.2</ele></trkpt>
   <trkpt lat="68.818044" lon="16.345817"><ele>438.2</ele></trkpt>
   <trkpt lat="68.818044" lon="16.345817"><ele>438.6</ele></trkpt>
   <trkpt lat="68.818043" lon="16.345813"><ele>439.8</ele></trkpt>
   <trkpt lat="68.818043" lon="16.345766"><ele>441.0</ele></trkpt>
   <trkpt lat="68.818044" lon="16.345714"><ele>441.8</ele></trkpt>
   <trkpt lat="68.818044" lon="16.345696"><ele>442.2</ele></trkpt>
   <trkpt lat="68.818044" lon="16.345647"><ele>442.8</ele></trkpt>
   <trkpt lat="68.818045" lon="16.345636"><ele>443.0</ele></trkpt>
   <trkpt lat="68.818044" lon="16.345623"><ele>443.2</ele></trkpt>
   <trkpt lat="68.818044" lon="16.345609"><ele>443.2</ele></trkpt>
   <trkpt lat="68.818042" lon="16.345566"><ele>444.6</ele></trkpt>
   <trkpt lat="68.818042" lon="16.345521"><ele>445.6</ele></trkpt>
   <trkpt lat="68.818037" lon="16.345476"><ele>446.6</ele></trkpt>
   <trkpt lat="68.818037" lon="16.345461"><ele>446.8</ele></trkpt>
   <trkpt lat="68.818034" lon="16.345431"><ele>447.4</ele></trkpt>
   <trkpt lat="68.818033" lon="16.345416"><ele>448.0</ele></trkpt>
   <trkpt lat="68.818032" lon="16.345402"><ele>448.2</ele></trkpt>
   <trkpt lat="68.818032" lon="16.345376"><ele>448.6</ele></trkpt>
   <trkpt lat="68.818032" lon="16.345353"><ele>449.2</ele></trkpt>
   <trkpt lat="68.818032" lon="16.345330"><ele>449.4</ele></trkpt>
   <trkpt lat="68.818027" lon="16.345254"><ele>450.4</ele></trkpt>
   <trkpt lat="68.818021" lon="16.345213"><ele>450.6</ele></trkpt>
   <trkpt lat="68.818014" lon="16.345178"><ele>450.6</ele></trkpt>
   <trkpt lat="68.818012" lon="16.345161"><ele>450.8</ele></trkpt>
   <trkpt lat="68.818012" lon="16.345133"><ele>451.0</ele></trkpt>
   <trkpt lat="68.818006" lon="16.345108"><ele>451.6</ele></trkpt>
   <trkpt lat="68.818009" lon="16.345028"><ele>452.4</ele></trkpt>
   <trkpt lat="68.818010" lon="16.345018"><ele>452.6</ele></trkpt>
   <trkpt lat="68.818009" lon="16.344987"><ele>453.6</ele></trkpt>
   <trkpt lat="68.818005" lon="16.344986"><ele>453.8</ele></trkpt>
   <trkpt lat="68.817999" lon="16.344980"><ele>454.2</ele></trkpt>
   <trkpt lat="68.817995" lon="16.344969"><ele>455.0</ele></trkpt>
   <trkpt lat="68.817990" lon="16.344970"><ele>455.2</ele></trkpt>
   <trkpt lat="68.817986" lon="16.344968"><ele>455.4</ele></trkpt>
   <trkpt lat="68.817971" lon="16.344960"><ele>455.8</ele></trkpt>
   <trkpt lat="68.817962" lon="16.344951"><ele>456.0</ele></trkpt>
   <trkpt lat="68.817969" lon="16.344919"><ele>456.8</ele></trkpt>
   <trkpt lat="68.817971" lon="16.344916"><ele>457.2</ele></trkpt>
   <trkpt lat="68.817971" lon="16.344920"><ele>457.8</ele></trkpt>
   <trkpt lat="68.817971" lon="16.344920"><ele>457.8</ele></trkpt>
   <trkpt lat="68.817971" lon="16.344920"><ele>458.0</ele></trkpt>
   <trkpt lat="68.817971" lon="16.344920"><ele>458.2</ele></trkpt>
   <trkpt lat="68.817971" lon="16.344921"><ele>458.2</ele></trkpt>
   <trkpt lat="68.817971" lon="16.344921"><ele>458.4</ele></trkpt>
   <trkpt lat="68.817975" lon="16.344920"><ele>458.4</ele></trkpt>
   <trkpt lat="68.817978" lon="16.344922"><ele>458.0</ele></trkpt>
   <trkpt lat="68.817979" lon="16.344923"><ele>458.2</ele></trkpt>
   <trkpt lat="68.817979" lon="16.344920"><ele>458.4</ele></trkpt>
   <trkpt lat="68.817979" lon="16.344916"><ele>458.4</ele></trkpt>
   <trkpt lat="68.817977" lon="16.344914"><ele>458.0</ele></trkpt>
   <trkpt lat="68.817973" lon="16.344912"><ele>458.0</ele></trkpt>
   <trkpt lat="68.817971" lon="16.344911"><ele>458.0</ele></trkpt>
   <trkpt lat="68.817971" lon="16.344911"><ele>457.8</ele></trkpt>
   <trkpt lat="68.817971" lon="16.344911"><ele>457.8</ele></trkpt>
   <trkpt lat="68.817971" lon="16.344911"><ele>457.8</ele></trkpt>
   <trkpt lat="68.817971" lon="16.344911"><ele>457.8</ele></trkpt>
   <trkpt lat="68.817971" lon="16.344911"><ele>457.8</ele></trkpt>
   <trkpt lat="68.817971" lon="16.344911"><ele>457.6</ele></trkpt>
   <trkpt lat="68.817971" lon="16.344911"><ele>457.6</ele></trkpt>
   <trkpt lat="68.817976" lon="16.344910"><ele>457.6</ele></trkpt>
   <trkpt lat="68.817978" lon="16.344909"><ele>457.4</ele></trkpt>
   <trkpt lat="68.817981" lon="16.344909"><ele>457.2</ele></trkpt>
   <trkpt lat="68.817983" lon="16.344909"><ele>457.2</ele></trkpt>
   <trkpt lat="68.817983" lon="16.344908"><ele>457.4</ele></trkpt>
   <trkpt lat="68.817983" lon="16.344906"><ele>457.2</ele></trkpt>
   <trkpt lat="68.817981" lon="16.344905"><ele>457.2</ele></trkpt>
   <trkpt lat="68.817981" lon="16.344895"><ele>457.4</ele></trkpt>
   <trkpt lat="68.817981" lon="16.344887"><ele>458.2</ele></trkpt>
   <trkpt lat="68.817980" lon="16.344877"><ele>459.2</ele></trkpt>
   <trkpt lat="68.817978" lon="16.344846"><ele>459.4</ele></trkpt>
   <trkpt lat="68.817977" lon="16.344803"><ele>459.4</ele></trkpt>
   <trkpt lat="68.817976" lon="16.344799"><ele>459.4</ele></trkpt>
   <trkpt lat="68.817975" lon="16.344792"><ele>459.4</ele></trkpt>
   <trkpt lat="68.817974" lon="16.344794"><ele>459.4</ele></trkpt>
   <trkpt lat="68.817973" lon="16.344798"><ele>459.4</ele></trkpt>
   <trkpt lat="68.817973" lon="16.344796"><ele>459.4</ele></trkpt>
   <trkpt lat="68.817973" lon="16.344794"><ele>459.4</ele></trkpt>
   <trkpt lat="68.817973" lon="16.344793"><ele>459.6</ele></trkpt>
   <trkpt lat="68.817973" lon="16.344793"><ele>459.8</ele></trkpt>
   <trkpt lat="68.817974" lon="16.344792"><ele>459.8</ele></trkpt>
   <trkpt lat="68.817975" lon="16.344792"><ele>460.0</ele></trkpt>
   <trkpt lat="68.817976" lon="16.344793"><ele>460.0</ele></trkpt>
   <trkpt lat="68.817973" lon="16.344794"><ele>460.4</ele></trkpt>
   <trkpt lat="68.817956" lon="16.344743"><ele>461.2</ele></trkpt>
   <trkpt lat="68.817956" lon="16.344724"><ele>461.4</ele></trkpt>
   <trkpt lat="68.817953" lon="16.344669"><ele>462.6</ele></trkpt>
   <trkpt lat="68.817954" lon="16.344661"><ele>462.8</ele></trkpt>
   <trkpt lat="68.817951" lon="16.344659"><ele>463.0</ele></trkpt>
   <trkpt lat="68.817945" lon="16.344659"><ele>463.4</ele></trkpt>
   <trkpt lat="68.817931" lon="16.344662"><ele>463.8</ele></trkpt>
   <trkpt lat="68.817910" lon="16.344614"><ele>464.4</ele></trkpt>
   <trkpt lat="68.817905" lon="16.344598"><ele>464.6</ele></trkpt>
   <trkpt lat="68.817896" lon="16.344586"><ele>464.8</ele></trkpt>
   <trkpt lat="68.817885" lon="16.344571"><ele>465.6</ele></trkpt>
   <trkpt lat="68.817881" lon="16.344567"><ele>465.8</ele></trkpt>
   <trkpt lat="68.817877" lon="16.344556"><ele>466.0</ele></trkpt>
   <trkpt lat="68.817883" lon="16.344505"><ele>467.0</ele></trkpt>
   <trkpt lat="68.817886" lon="16.344466"><ele>467.6</ele></trkpt>
   <trkpt lat="68.817880" lon="16.344450"><ele>468.0</ele></trkpt>
   <trkpt lat="68.817859" lon="16.344416"><ele>469.0</ele></trkpt>
   <trkpt lat="68.817855" lon="16.344401"><ele>469.2</ele></trkpt>
   <trkpt lat="68.817854" lon="16.344328"><ele>470.0</ele></trkpt>
   <trkpt lat="68.817856" lon="16.344315"><ele>470.4</ele></trkpt>
   <trkpt lat="68.817859" lon="16.344243"><ele>471.6</ele></trkpt>
   <trkpt lat="68.817862" lon="16.344210"><ele>472.0</ele></trkpt>
   <trkpt lat="68.817850" lon="16.344166"><ele>472.6</ele></trkpt>
   <trkpt lat="68.817835" lon="16.344105"><ele>473.4</ele></trkpt>
   <trkpt lat="68.817837" lon="16.344046"><ele>473.8</ele></trkpt>
   <trkpt lat="68.817828" lon="16.343997"><ele>474.4</ele></trkpt>
   <trkpt lat="68.817814" lon="16.343941"><ele>474.8</ele></trkpt>
   <trkpt lat="68.817799" lon="16.343868"><ele>475.4</ele></trkpt>
   <trkpt lat="68.817784" lon="16.343831"><ele>476.0</ele></trkpt>
   <trkpt lat="68.817774" lon="16.343769"><ele>477.2</ele></trkpt>
   <trkpt lat="68.817772" lon="16.343728"><ele>477.4</ele></trkpt>
   <trkpt lat="68.817774" lon="16.343712"><ele>478.2</ele></trkpt>
   <trkpt lat="68.817774" lon="16.343712"><ele>478.4</ele></trkpt>
   <trkpt lat="68.817775" lon="16.343713"><ele>478.4</ele></trkpt>
   <trkpt lat="68.817775" lon="16.343713"><ele>478.4</ele></trkpt>
   <trkpt lat="68.817775" lon="16.343713"><ele>478.6</ele></trkpt>
   <trkpt lat="68.817775" lon="16.343715"><ele>478.6</ele></trkpt>
   <trkpt lat="68.817774" lon="16.343719"><ele>478.8</ele></trkpt>
   <trkpt lat="68.817774" lon="16.343722"><ele>478.8</ele></trkpt>
   <trkpt lat="68.817774" lon="16.343727"><ele>478.6</ele></trkpt>
   <trkpt lat="68.817772" lon="16.343742"><ele>478.6</ele></trkpt>
   <trkpt lat="68.817771" lon="16.343742"><ele>478.8</ele></trkpt>
   <trkpt lat="68.817771" lon="16.343742"><ele>479.2</ele></trkpt>
   <trkpt lat="68.817770" lon="16.343742"><ele>480.0</ele></trkpt>
   <trkpt lat="68.817768" lon="16.343740"><ele>480.2</ele></trkpt>
   <trkpt lat="68.817744" lon="16.343684"><ele>481.0</ele></trkpt>
   <trkpt lat="68.817739" lon="16.343661"><ele>481.4</ele></trkpt>
   <trkpt lat="68.817724" lon="16.343580"><ele>482.0</ele></trkpt>
   <trkpt lat="68.817718" lon="16.343543"><ele>482.4</ele></trkpt>
   <trkpt lat="68.817707" lon="16.343512"><ele>482.6</ele></trkpt>
   <trkpt lat="68.817658" lon="16.343305"><ele>483.4</ele></trkpt>
   <trkpt lat="68.817646" lon="16.343265"><ele>483.4</ele></trkpt>
   <trkpt lat="68.817613" lon="16.343094"><ele>484.4</ele></trkpt>
   <trkpt lat="68.817611" lon="16.343080"><ele>484.6</ele></trkpt>
   <trkpt lat="68.817614" lon="16.343052"><ele>485.2</ele></trkpt>
   <trkpt lat="68.817614" lon="16.343007"><ele>485.6</ele></trkpt>
   <trkpt lat="68.817621" lon="16.342951"><ele>486.0</ele></trkpt>
   <trkpt lat="68.817611" lon="16.342890"><ele>486.2</ele></trkpt>
   <trkpt lat="68.817603" lon="16.342876"><ele>486.4</ele></trkpt>
   <trkpt lat="68.817595" lon="16.342853"><ele>486.6</ele></trkpt>
   <trkpt lat="68.817579" lon="16.342754"><ele>488.0</ele></trkpt>
   <trkpt lat="68.817571" lon="16.342682"><ele>489.2</ele></trkpt>
   <trkpt lat="68.817574" lon="16.342591"><ele>489.8</ele></trkpt>
   <trkpt lat="68.817572" lon="16.342559"><ele>490.2</ele></trkpt>
   <trkpt lat="68.817575" lon="16.342458"><ele>491.2</ele></trkpt>
   <trkpt lat="68.817576" lon="16.342434"><ele>491.6</ele></trkpt>
   <trkpt lat="68.817575" lon="16.342416"><ele>491.8</ele></trkpt>
   <trkpt lat="68.817568" lon="16.342374"><ele>492.0</ele></trkpt>
   <trkpt lat="68.817545" lon="16.342300"><ele>492.6</ele></trkpt>
   <trkpt lat="68.817534" lon="16.342190"><ele>493.2</ele></trkpt>
   <trkpt lat="68.817532" lon="16.342156"><ele>493.6</ele></trkpt>
   <trkpt lat="68.817490" lon="16.342070"><ele>494.4</ele></trkpt>
   <trkpt lat="68.817483" lon="16.342052"><ele>494.8</ele></trkpt>
   <trkpt lat="68.817447" lon="16.341980"><ele>495.8</ele></trkpt>
   <trkpt lat="68.817446" lon="16.341960"><ele>496.0</ele></trkpt>
   <trkpt lat="68.817440" lon="16.341848"><ele>496.8</ele></trkpt>
   <trkpt lat="68.817438" lon="16.341830"><ele>497.0</ele></trkpt>
   <trkpt lat="68.817435" lon="16.341783"><ele>497.4</ele></trkpt>
   <trkpt lat="68.817434" lon="16.341760"><ele>498.0</ele></trkpt>
   <trkpt lat="68.817420" lon="16.341716"><ele>498.6</ele></trkpt>
   <trkpt lat="68.817417" lon="16.341690"><ele>499.2</ele></trkpt>
   <trkpt lat="68.817400" lon="16.341604"><ele>499.8</ele></trkpt>
   <trkpt lat="68.817399" lon="16.341563"><ele>500.2</ele></trkpt>
   <trkpt lat="68.817397" lon="16.341545"><ele>500.4</ele></trkpt>
   <trkpt lat="68.817394" lon="16.341520"><ele>500.6</ele></trkpt>
   <trkpt lat="68.817389" lon="16.341496"><ele>500.6</ele></trkpt>
   <trkpt lat="68.817383" lon="16.341385"><ele>501.4</ele></trkpt>
   <trkpt lat="68.817379" lon="16.341369"><ele>501.6</ele></trkpt>
   <trkpt lat="68.817376" lon="16.341350"><ele>501.6</ele></trkpt>
   <trkpt lat="68.817371" lon="16.341293"><ele>502.2</ele></trkpt>
   <trkpt lat="68.817368" lon="16.341265"><ele>502.4</ele></trkpt>
   <trkpt lat="68.817359" lon="16.341195"><ele>503.0</ele></trkpt>
   <trkpt lat="68.817360" lon="16.341182"><ele>503.2</ele></trkpt>
   <trkpt lat="68.817356" lon="16.341163"><ele>503.4</ele></trkpt>
   <trkpt lat="68.817350" lon="16.341063"><ele>504.6</ele></trkpt>
   <trkpt lat="68.817346" lon="16.341025"><ele>504.8</ele></trkpt>
   <trkpt lat="68.817349" lon="16.340929"><ele>505.6</ele></trkpt>
   <trkpt lat="68.817356" lon="16.340868"><ele>506.2</ele></trkpt>
   <trkpt lat="68.817360" lon="16.340841"><ele>506.4</ele></trkpt>
   <trkpt lat="68.817359" lon="16.340833"><ele>506.6</ele></trkpt>
   <trkpt lat="68.817362" lon="16.340770"><ele>507.6</ele></trkpt>
   <trkpt lat="68.817359" lon="16.340758"><ele>507.8</ele></trkpt>
   <trkpt lat="68.817333" lon="16.340678"><ele>508.8</ele></trkpt>
   <trkpt lat="68.817329" lon="16.340636"><ele>509.2</ele></trkpt>
   <trkpt lat="68.817327" lon="16.340600"><ele>509.6</ele></trkpt>
   <trkpt lat="68.817328" lon="16.340582"><ele>509.6</ele></trkpt>
   <trkpt lat="68.817333" lon="16.340568"><ele>509.8</ele></trkpt>
   <trkpt lat="68.817334" lon="16.340561"><ele>510.2</ele></trkpt>
   <trkpt lat="68.817332" lon="16.340542"><ele>511.0</ele></trkpt>
   <trkpt lat="68.817325" lon="16.340484"><ele>512.2</ele></trkpt>
   <trkpt lat="68.817327" lon="16.340467"><ele>512.4</ele></trkpt>
   <trkpt lat="68.817333" lon="16.340401"><ele>513.4</ele></trkpt>
   <trkpt lat="68.817343" lon="16.340330"><ele>514.2</ele></trkpt>
   <trkpt lat="68.817344" lon="16.340317"><ele>514.6</ele></trkpt>
   <trkpt lat="68.817348" lon="16.340227"><ele>515.8</ele></trkpt>
   <trkpt lat="68.817343" lon="16.340193"><ele>516.0</ele></trkpt>
   <trkpt lat="68.817348" lon="16.340131"><ele>516.8</ele></trkpt>
   <trkpt lat="68.817362" lon="16.340069"><ele>517.6</ele></trkpt>
   <trkpt lat="68.817364" lon="16.340049"><ele>517.8</ele></trkpt>
   <trkpt lat="68.817372" lon="16.339982"><ele>519.2</ele></trkpt>
   <trkpt lat="68.817387" lon="16.339916"><ele>519.6</ele></trkpt>
   <trkpt lat="68.817391" lon="16.339862"><ele>520.4</ele></trkpt>
   <trkpt lat="68.817412" lon="16.339766"><ele>521.4</ele></trkpt>
   <trkpt lat="68.817418" lon="16.339716"><ele>522.0</ele></trkpt>
   <trkpt lat="68.817409" lon="16.339669"><ele>522.6</ele></trkpt>
   <trkpt lat="68.817378" lon="16.339610"><ele>523.4</ele></trkpt>
   <trkpt lat="68.817377" lon="16.339551"><ele>523.6</ele></trkpt>
   <trkpt lat="68.817376" lon="16.339508"><ele>524.2</ele></trkpt>
   <trkpt lat="68.817373" lon="16.339454"><ele>524.8</ele></trkpt>
   <trkpt lat="68.817371" lon="16.339390"><ele>526.0</ele></trkpt>
   <trkpt lat="68.817363" lon="16.339351"><ele>526.4</ele></trkpt>
   <trkpt lat="68.817359" lon="16.339300"><ele>527.0</ele></trkpt>
   <trkpt lat="68.817375" lon="16.339244"><ele>528.0</ele></trkpt>
   <trkpt lat="68.817376" lon="16.339223"><ele>528.2</ele></trkpt>
   <trkpt lat="68.817397" lon="16.339122"><ele>529.2</ele></trkpt>
   <trkpt lat="68.817409" lon="16.339074"><ele>529.8</ele></trkpt>
   <trkpt lat="68.817423" lon="16.339023"><ele>530.4</ele></trkpt>
   <trkpt lat="68.817439" lon="16.338939"><ele>531.4</ele></trkpt>
  </trkseg>
 </trk>
</gpx>
