<?xml version="1.0" encoding="UTF-8"?>
<gpx version="1.1" creator="HPGT flysteder" xmlns="http://www.topografix.com/GPX/1/1">
 <trk>
  <name>Reinebringen – parkering til start</name>
  <trkseg>
   <trkpt lat="67.921983" lon="13.078698"><ele>8.0</ele></trkpt>
   <trkpt lat="67.922071" lon="13.078600"><ele>8.0</ele></trkpt>
   <trkpt lat="67.922082" lon="13.078571"><ele>8.0</ele></trkpt>
   <trkpt lat="67.922074" lon="13.078551"><ele>8.0</ele></trkpt>
   <trkpt lat="67.922122" lon="13.078496"><ele>9.0</ele></trkpt>
   <trkpt lat="67.922128" lon="13.078484"><ele>9.2</ele></trkpt>
   <trkpt lat="67.922166" lon="13.078436"><ele>9.8</ele></trkpt>
   <trkpt lat="67.922183" lon="13.078426"><ele>10.4</ele></trkpt>
   <trkpt lat="67.922181" lon="13.078434"><ele>10.6</ele></trkpt>
   <trkpt lat="67.922200" lon="13.078441"><ele>11.2</ele></trkpt>
   <trkpt lat="67.922206" lon="13.078433"><ele>11.4</ele></trkpt>
   <trkpt lat="67.922213" lon="13.078430"><ele>11.6</ele></trkpt>
   <trkpt lat="67.922221" lon="13.078436"><ele>11.8</ele></trkpt>
   <trkpt lat="67.922227" lon="13.078442"><ele>12.0</ele></trkpt>
   <trkpt lat="67.922237" lon="13.078447"><ele>12.0</ele></trkpt>
   <trkpt lat="67.922248" lon="13.078447"><ele>12.2</ele></trkpt>
   <trkpt lat="67.922258" lon="13.078445"><ele>12.4</ele></trkpt>
   <trkpt lat="67.922267" lon="13.078440"><ele>12.6</ele></trkpt>
   <trkpt lat="67.922271" lon="13.078429"><ele>12.6</ele></trkpt>
   <trkpt lat="67.922271" lon="13.078401"><ele>12.8</ele></trkpt>
   <trkpt lat="67.922275" lon="13.078378"><ele>13.2</ele></trkpt>
   <trkpt lat="67.922274" lon="13.078379"><ele>13.6</ele></trkpt>
   <trkpt lat="67.922272" lon="13.078378"><ele>13.6</ele></trkpt>
   <trkpt lat="67.922271" lon="13.078389"><ele>13.6</ele></trkpt>
   <trkpt lat="67.922271" lon="13.078389"><ele>13.4</ele></trkpt>
   <trkpt lat="67.922305" lon="13.078296"><ele>13.8</ele></trkpt>
   <trkpt lat="67.922313" lon="13.078263"><ele>14.4</ele></trkpt>
   <trkpt lat="67.922319" lon="13.078248"><ele>14.6</ele></trkpt>
   <trkpt lat="67.922329" lon="13.078232"><ele>15.8</ele></trkpt>
   <trkpt lat="67.922336" lon="13.078219"><ele>16.8</ele></trkpt>
   <trkpt lat="67.922335" lon="13.078216"><ele>16.8</ele></trkpt>
   <trkpt lat="67.922335" lon="13.078216"><ele>17.0</ele></trkpt>
   <trkpt lat="67.922335" lon="13.078216"><ele>17.2</ele></trkpt>
   <trkpt lat="67.922335" lon="13.078216"><ele>17.8</ele></trkpt>
   <trkpt lat="67.922335" lon="13.078216"><ele>18.8</ele></trkpt>
   <trkpt lat="67.922336" lon="13.078198"><ele>19.6</ele></trkpt>
   <trkpt lat="67.922335" lon="13.078142"><ele>20.0</ele></trkpt>
   <trkpt lat="67.922330" lon="13.077988"><ele>20.8</ele></trkpt>
   <trkpt lat="67.922332" lon="13.077933"><ele>21.0</ele></trkpt>
   <trkpt lat="67.922334" lon="13.077824"><ele>21.4</ele></trkpt>
   <trkpt lat="67.922330" lon="13.077679"><ele>21.8</ele></trkpt>
   <trkpt lat="67.922326" lon="13.077658"><ele>22.0</ele></trkpt>
   <trkpt lat="67.922324" lon="13.077640"><ele>22.4</ele></trkpt>
   <trkpt lat="67.922314" lon="13.077607"><ele>23.2</ele></trkpt>
   <trkpt lat="67.922306" lon="13.077578"><ele>24.8</ele></trkpt>
   <trkpt lat="67.922299" lon="13.077553"><ele>25.8</ele></trkpt>
   <trkpt lat="67.922293" lon="13.077516"><ele>26.4</ele></trkpt>
   <trkpt lat="67.922281" lon="13.077458"><ele>27.2</ele></trkpt>
   <trkpt lat="67.922274" lon="13.077395"><ele>28.0</ele></trkpt>
   <trkpt lat="67.922276" lon="13.077377"><ele>28.2</ele></trkpt>
   <trkpt lat="67.922276" lon="13.077336"><ele>29.2</ele></trkpt>
   <trkpt lat="67.922275" lon="13.077319"><ele>29.4</ele></trkpt>
   <trkpt lat="67.922263" lon="13.077260"><ele>30.8</ele></trkpt>
   <trkpt lat="67.922259" lon="13.077224"><ele>31.6</ele></trkpt>
   <trkpt lat="67.922255" lon="13.077192"><ele>32.2</ele></trkpt>
   <trkpt lat="67.922236" lon="13.077170"><ele>33.4</ele></trkpt>
   <trkpt lat="67.922216" lon="13.077099"><ele>34.6</ele></trkpt>
   <trkpt lat="67.922213" lon="13.077076"><ele>35.0</ele></trkpt>
   <trkpt lat="67.922210" lon="13.077021"><ele>36.0</ele></trkpt>
   <trkpt lat="67.922215" lon="13.076968"><ele>37.0</ele></trkpt>
   <trkpt lat="67.922213" lon="13.076940"><ele>37.8</ele></trkpt>
   <trkpt lat="67.922214" lon="13.076923"><ele>38.2</ele></trkpt>
   <trkpt lat="67.922216" lon="13.076858"><ele>39.6</ele></trkpt>
   <trkpt lat="67.922211" lon="13.076802"><ele>40.6</ele></trkpt>
   <trkpt lat="67.922213" lon="13.076775"><ele>41.4</ele></trkpt>
   <trkpt lat="67.922213" lon="13.076766"><ele>41.8</ele></trkpt>
   <trkpt lat="67.922214" lon="13.076755"><ele>42.2</ele></trkpt>
   <trkpt lat="67.922213" lon="13.076725"><ele>43.0</ele></trkpt>
   <trkpt lat="67.922214" lon="13.076693"><ele>43.6</ele></trkpt>
   <trkpt lat="67.922213" lon="13.076685"><ele>44.0</ele></trkpt>
   <trkpt lat="67.922228" lon="13.076651"><ele>45.2</ele></trkpt>
   <trkpt lat="67.922232" lon="13.076641"><ele>45.6</ele></trkpt>
   <trkpt lat="67.922242" lon="13.076622"><ele>46.4</ele></trkpt>
   <trkpt lat="67.922259" lon="13.076610"><ele>47.4</ele></trkpt>
   <trkpt lat="67.922265" lon="13.076585"><ele>47.8</ele></trkpt>
   <trkpt lat="67.922282" lon="13.076542"><ele>48.6</ele></trkpt>
   <trkpt lat="67.922292" lon="13.076528"><ele>49.2</ele></trkpt>
   <trkpt lat="67.922306" lon="13.076510"><ele>49.8</ele></trkpt>
   <trkpt lat="67.922329" lon="13.076496"><ele>51.0</ele></trkpt>
   <trkpt lat="67.922345" lon="13.076478"><ele>51.6</ele></trkpt>
   <trkpt lat="67.922360" lon="13.076463"><ele>52.2</ele></trkpt>
   <trkpt lat="67.922389" lon="13.076429"><ele>53.2</ele></trkpt>
   <trkpt lat="67.922402" lon="13.076413"><ele>53.4</ele></trkpt>
   <trkpt lat="67.922444" lon="13.076362"><ele>54.0</ele></trkpt>
   <trkpt lat="67.922448" lon="13.076359"><ele>54.4</ele></trkpt>
   <trkpt lat="67.922447" lon="13.076323"><ele>55.0</ele></trkpt>
   <trkpt lat="67.922462" lon="13.076274"><ele>55.6</ele></trkpt>
   <trkpt lat="67.922487" lon="13.076238"><ele>56.4</ele></trkpt>
   <trkpt lat="67.922493" lon="13.076228"><ele>56.8</ele></trkpt>
   <trkpt lat="67.922493" lon="13.076224"><ele>57.4</ele></trkpt>
   <trkpt lat="67.922508" lon="13.076215"><ele>58.0</ele></trkpt>
   <trkpt lat="67.922512" lon="13.076210"><ele>58.2</ele></trkpt>
   <trkpt lat="67.922522" lon="13.076186"><ele>59.4</ele></trkpt>
   <trkpt lat="67.922540" lon="13.076153"><ele>60.2</ele></trkpt>
   <trkpt lat="67.922550" lon="13.076153"><ele>60.6</ele></trkpt>
   <trkpt lat="67.922585" lon="13.076156"><ele>61.6</ele></trkpt>
   <trkpt lat="67.922629" lon="13.076182"><ele>62.8</ele></trkpt>
   <trkpt lat="67.922650" lon="13.076207"><ele>63.0</ele></trkpt>
   <trkpt lat="67.922692" lon="13.076213"><ele>63.8</ele></trkpt>
   <trkpt lat="67.922696" lon="13.076210"><ele>64.0</ele></trkpt>
   <trkpt lat="67.922715" lon="13.076154"><ele>65.4</ele></trkpt>
   <trkpt lat="67.922732" lon="13.076111"><ele>66.2</ele></trkpt>
   <trkpt lat="67.922740" lon="13.076095"><ele>66.6</ele></trkpt>
   <trkpt lat="67.922745" lon="13.076087"><ele>66.8</ele></trkpt>
   <trkpt lat="67.922757" lon="13.076064"><ele>67.8</ele></trkpt>
   <trkpt lat="67.922766" lon="13.076057"><ele>68.4</ele></trkpt>
   <trkpt lat="67.922771" lon="13.076051"><ele>68.8</ele></trkpt>
   <trkpt lat="67.922806" lon="13.076043"><ele>70.0</ele></trkpt>
   <trkpt lat="67.922826" lon="13.076038"><ele>70.4</ele></trkpt>
   <trkpt lat="67.922836" lon="13.076031"><ele>70.6</ele></trkpt>
   <trkpt lat="67.922876" lon="13.076035"><ele>71.0</ele></trkpt>
   <trkpt lat="67.922904" lon="13.076046"><ele>71.2</ele></trkpt>
   <trkpt lat="67.922951" lon="13.076087"><ele>72.0</ele></trkpt>
   <trkpt lat="67.922962" lon="13.076091"><ele>72.2</ele></trkpt>
   <trkpt lat="67.922989" lon="13.076097"><ele>72.6</ele></trkpt>
   <trkpt lat="67.923011" lon="13.076083"><ele>73.2</ele></trkpt>
   <trkpt lat="67.923042" lon="13.076041"><ele>74.2</ele></trkpt>
   <trkpt lat="67.923065" lon="13.075990"><ele>75.0</ele></trkpt>
   <trkpt lat="67.923080" lon="13.075961"><ele>75.4</ele></trkpt>
   <trkpt lat="67.923095" lon="13.075943"><ele>76.0</ele></trkpt>
   <trkpt lat="67.923108" lon="13.075920"><ele>76.4</ele></trkpt>
   <trkpt lat="67.923115" lon="13.075908"><ele>76.8</ele></trkpt>
   <trkpt lat="67.923143" lon="13.075870"><ele>77.8</ele></trkpt>
   <trkpt lat="67.923152" lon="13.075861"><ele>78.0</ele></trkpt>
   <trkpt lat="67.923174" lon="13.075863"><ele>78.6</ele></trkpt>
   <trkpt lat="67.923192" lon="13.075874"><ele>78.8</ele></trkpt>
   <trkpt lat="67.923225" lon="13.075963"><ele>79.2</ele></trkpt>
   <trkpt lat="67.923268" lon="13.076020"><ele>79.4</ele></trkpt>
   <trkpt lat="67.923273" lon="13.076020"><ele>79.4</ele></trkpt>
   <trkpt lat="67.923293" lon="13.075992"><ele>79.8</ele></trkpt>
   <trkpt lat="67.923318" lon="13.075952"><ele>80.6</ele></trkpt>
   <trkpt lat="67.923336" lon="13.075923"><ele>81.0</ele></trkpt>
   <trkpt lat="67.923369" lon="13.075878"><ele>81.4</ele></trkpt>
   <trkpt lat="67.923394" lon="13.075855"><ele>82.2</ele></trkpt>
   <trkpt lat="67.923407" lon="13.075844"><ele>82.6</ele></trkpt>
   <trkpt lat="67.923425" lon="13.075820"><ele>83.2</ele></trkpt>
   <trkpt lat="67.923460" lon="13.075828"><ele>84.4</ele></trkpt>
   <trkpt lat="67.923493" lon="13.075846"><ele>85.0</ele></trkpt>
   <trkpt lat="67.923550" lon="13.075869"><ele>85.6</ele></trkpt>
   <trkpt lat="67.923561" lon="13.075874"><ele>85.6</ele></trkpt>
   <trkpt lat="67.923611" lon="13.075821"><ele>86.8</ele></trkpt>
   <trkpt lat="67.923624" lon="13.075795"><ele>87.4</ele></trkpt>
   <trkpt lat="67.923636" lon="13.075778"><ele>87.8</ele></trkpt>
   <trkpt lat="67.923677" lon="13.075750"><ele>88.8</ele></trkpt>
   <trkpt lat="67.923696" lon="13.075722"><ele>89.2</ele></trkpt>
   <trkpt lat="67.923750" lon="13.075680"><ele>90.2</ele></trkpt>
   <trkpt lat="67.923786" lon="13.075591"><ele>91.2</ele></trkpt>
   <trkpt lat="67.923811" lon="13.075529"><ele>92.0</ele></trkpt>
   <trkpt lat="67.923816" lon="13.075506"><ele>92.4</ele></trkpt>
   <trkpt lat="67.923836" lon="13.075413"><ele>93.4</ele></trkpt>
   <trkpt lat="67.923844" lon="13.075363"><ele>94.0</ele></trkpt>
   <trkpt lat="67.923853" lon="13.075339"><ele>94.2</ele></trkpt>
   <trkpt lat="67.923867" lon="13.075303"><ele>94.6</ele></trkpt>
   <trkpt lat="67.923890" lon="13.075261"><ele>95.6</ele></trkpt>
   <trkpt lat="67.923929" lon="13.075200"><ele>97.0</ele></trkpt>
   <trkpt lat="67.923955" lon="13.075169"><ele>97.8</ele></trkpt>
   <trkpt lat="67.923962" lon="13.075156"><ele>98.0</ele></trkpt>
   <trkpt lat="67.923996" lon="13.075079"><ele>99.0</ele></trkpt>
   <trkpt lat="67.924019" lon="13.075032"><ele>100.2</ele></trkpt>
   <trkpt lat="67.924034" lon="13.075007"><ele>101.2</ele></trkpt>
   <trkpt lat="67.924048" lon="13.074960"><ele>102.2</ele></trkpt>
   <trkpt lat="67.924069" lon="13.074908"><ele>103.4</ele></trkpt>
   <trkpt lat="67.924089" lon="13.074854"><ele>104.4</ele></trkpt>
   <trkpt lat="67.924094" lon="13.074830"><ele>105.0</ele></trkpt>
   <trkpt lat="67.924102" lon="13.074801"><ele>105.6</ele></trkpt>
   <trkpt lat="67.924120" lon="13.074750"><ele>106.8</ele></trkpt>
   <trkpt lat="67.924130" lon="13.074713"><ele>107.6</ele></trkpt>
   <trkpt lat="67.924134" lon="13.074703"><ele>107.8</ele></trkpt>
   <trkpt lat="67.924151" lon="13.074657"><ele>109.0</ele></trkpt>
   <trkpt lat="67.924145" lon="13.074631"><ele>110.2</ele></trkpt>
   <trkpt lat="67.924153" lon="13.074563"><ele>111.4</ele></trkpt>
   <trkpt lat="67.924174" lon="13.074500"><ele>112.6</ele></trkpt>
   <trkpt lat="67.924181" lon="13.074483"><ele>113.2</ele></trkpt>
   <trkpt lat="67.924189" lon="13.074470"><ele>113.8</ele></trkpt>
   <trkpt lat="67.924211" lon="13.074429"><ele>115.0</ele></trkpt>
   <trkpt lat="67.924249" lon="13.074403"><ele>116.2</ele></trkpt>
   <trkpt lat="67.924276" lon="13.074387"><ele>117.2</ele></trkpt>
   <trkpt lat="67.924301" lon="13.074374"><ele>118.2</ele></trkpt>
   <trkpt lat="67.924326" lon="13.074344"><ele>119.4</ele></trkpt>
   <trkpt lat="67.924338" lon="13.074301"><ele>120.6</ele></trkpt>
   <trkpt lat="67.924342" lon="13.074282"><ele>121.2</ele></trkpt>
   <trkpt lat="67.924351" lon="13.074259"><ele>121.8</ele></trkpt>
   <trkpt lat="67.924364" lon="13.074235"><ele>123.0</ele></trkpt>
   <trkpt lat="67.924380" lon="13.074219"><ele>124.0</ele></trkpt>
   <trkpt lat="67.924388" lon="13.074182"><ele>125.2</ele></trkpt>
   <trkpt lat="67.924393" lon="13.074126"><ele>126.2</ele></trkpt>
   <trkpt lat="67.924398" lon="13.074113"><ele>126.4</ele></trkpt>
   <trkpt lat="67.924418" lon="13.074088"><ele>127.4</ele></trkpt>
   <trkpt lat="67.924430" lon="13.074050"><ele>128.8</ele></trkpt>
   <trkpt lat="67.924435" lon="13.074045"><ele>129.0</ele></trkpt>
   <trkpt lat="67.924451" lon="13.074045"><ele>129.8</ele></trkpt>
   <trkpt lat="67.924479" lon="13.074019"><ele>131.0</ele></trkpt>
   <trkpt lat="67.924498" lon="13.073996"><ele>132.2</ele></trkpt>
   <trkpt lat="67.924503" lon="13.073990"><ele>132.4</ele></trkpt>
   <trkpt lat="67.924513" lon="13.073960"><ele>133.2</ele></trkpt>
   <trkpt lat="67.924523" lon="13.073945"><ele>134.0</ele></trkpt>
   <trkpt lat="67.924529" lon="13.073935"><ele>134.4</ele></trkpt>
   <trkpt lat="67.924556" lon="13.073904"><ele>135.6</ele></trkpt>
   <trkpt lat="67.924580" lon="13.073885"><ele>136.6</ele></trkpt>
   <trkpt lat="67.924588" lon="13.073871"><ele>137.0</ele></trkpt>
   <trkpt lat="67.924618" lon="13.073828"><ele>138.0</ele></trkpt>
   <trkpt lat="67.924639" lon="13.073812"><ele>139.0</ele></trkpt>
   <trkpt lat="67.924647" lon="13.073798"><ele>139.4</ele></trkpt>
   <trkpt lat="67.924669" lon="13.073769"><ele>140.6</ele></trkpt>
   <trkpt lat="67.924700" lon="13.073752"><ele>141.8</ele></trkpt>
   <trkpt lat="67.924724" lon="13.073710"><ele>142.8</ele></trkpt>
   <trkpt lat="67.924730" lon="13.073706"><ele>144.2</ele></trkpt>
   <trkpt lat="67.924737" lon="13.073687"><ele>144.8</ele></trkpt>
   <trkpt lat="67.924744" lon="13.073684"><ele>145.4</ele></trkpt>
   <trkpt lat="67.924775" lon="13.073696"><ele>146.4</ele></trkpt>
   <trkpt lat="67.924800" lon="13.073677"><ele>147.6</ele></trkpt>
   <trkpt lat="67.924810" lon="13.073610"><ele>148.8</ele></trkpt>
   <trkpt lat="67.924827" lon="13.073576"><ele>150.0</ele></trkpt>
   <trkpt lat="67.924847" lon="13.073506"><ele>151.0</ele></trkpt>
   <trkpt lat="67.924867" lon="13.073483"><ele>152.0</ele></trkpt>
   <trkpt lat="67.924875" lon="13.073475"><ele>152.2</ele></trkpt>
   <trkpt lat="67.924915" lon="13.073456"><ele>153.4</ele></trkpt>
   <trkpt lat="67.924929" lon="13.073434"><ele>154.0</ele></trkpt>
   <trkpt lat="67.924945" lon="13.073429"><ele>154.8</ele></trkpt>
   <trkpt lat="67.924961" lon="13.073422"><ele>155.8</ele></trkpt>
   <trkpt lat="67.924981" lon="13.073446"><ele>156.8</ele></trkpt>
   <trkpt lat="67.924982" lon="13.073449"><ele>157.2</ele></trkpt>
   <trkpt lat="67.924999" lon="13.073468"><ele>158.0</ele></trkpt>
   <trkpt lat="67.925013" lon="13.073486"><ele>159.0</ele></trkpt>
   <trkpt lat="67.925018" lon="13.073523"><ele>160.0</ele></trkpt>
   <trkpt lat="67.925023" lon="13.073532"><ele>160.4</ele></trkpt>
   <trkpt lat="67.925040" lon="13.073601"><ele>161.6</ele></trkpt>
   <trkpt lat="67.925058" lon="13.073678"><ele>162.8</ele></trkpt>
   <trkpt lat="67.925058" lon="13.073695"><ele>163.2</ele></trkpt>
   <trkpt lat="67.925061" lon="13.073792"><ele>164.0</ele></trkpt>
   <trkpt lat="67.925076" lon="13.073836"><ele>164.6</ele></trkpt>
   <trkpt lat="67.925076" lon="13.073855"><ele>165.2</ele></trkpt>
   <trkpt lat="67.925093" lon="13.073876"><ele>166.4</ele></trkpt>
   <trkpt lat="67.925106" lon="13.073871"><ele>167.4</ele></trkpt>
   <trkpt lat="67.925116" lon="13.073879"><ele>167.8</ele></trkpt>
   <trkpt lat="67.925125" lon="13.073896"><ele>168.4</ele></trkpt>
   <trkpt lat="67.925134" lon="13.073950"><ele>169.6</ele></trkpt>
   <trkpt lat="67.925130" lon="13.073973"><ele>170.0</ele></trkpt>
   <trkpt lat="67.925144" lon="13.073985"><ele>170.6</ele></trkpt>
   <trkpt lat="67.925129" lon="13.074017"><ele>171.0</ele></trkpt>
   <trkpt lat="67.925158" lon="13.074073"><ele>171.8</ele></trkpt>
   <trkpt lat="67.925155" lon="13.074124"><ele>172.8</ele></trkpt>
   <trkpt lat="67.925158" lon="13.074135"><ele>173.2</ele></trkpt>
   <trkpt lat="67.925168" lon="13.074168"><ele>174.2</ele></trkpt>
   <trkpt lat="67.925169" lon="13.074178"><ele>174.4</ele></trkpt>
   <trkpt lat="67.925167" lon="13.074195"><ele>175.2</ele></trkpt>
   <trkpt lat="67.925163" lon="13.074204"><ele>175.4</ele></trkpt>
   <trkpt lat="67.925160" lon="13.074258"><ele>176.6</ele></trkpt>
   <trkpt lat="67.925176" lon="13.074304"><ele>177.6</ele></trkpt>
   <trkpt lat="67.925179" lon="13.074325"><ele>177.8</ele></trkpt>
   <trkpt lat="67.925188" lon="13.074349"><ele>178.6</ele></trkpt>
   <trkpt lat="67.925193" lon="13.074356"><ele>178.8</ele></trkpt>
   <trkpt lat="67.925194" lon="13.074374"><ele>179.4</ele></trkpt>
   <trkpt lat="67.925197" lon="13.074394"><ele>180.0</ele></trkpt>
   <trkpt lat="67.925203" lon="13.074447"><ele>181.0</ele></trkpt>
   <trkpt lat="67.925211" lon="13.074457"><ele>181.4</ele></trkpt>
   <trkpt lat="67.925225" lon="13.074481"><ele>182.2</ele></trkpt>
   <trkpt lat="67.925232" lon="13.074520"><ele>183.2</ele></trkpt>
   <trkpt lat="67.925235" lon="13.074533"><ele>183.4</ele></trkpt>
   <trkpt lat="67.925250" lon="13.074576"><ele>184.4</ele></trkpt>
   <trkpt lat="67.925268" lon="13.074634"><ele>185.6</ele></trkpt>
   <trkpt lat="67.925279" lon="13.074609"><ele>186.8</ele></trkpt>
   <trkpt lat="67.925285" lon="13.074548"><ele>188.0</ele></trkpt>
   <trkpt lat="67.925320" lon="13.074527"><ele>189.2</ele></trkpt>
   <trkpt lat="67.925319" lon="13.074519"><ele>189.4</ele></trkpt>
   <trkpt lat="67.925312" lon="13.074470"><ele>190.4</ele></trkpt>
   <trkpt lat="67.925315" lon="13.074421"><ele>191.0</ele></trkpt>
   <trkpt lat="67.925322" lon="13.074364"><ele>191.6</ele></trkpt>
   <trkpt lat="67.925333" lon="13.074344"><ele>191.8</ele></trkpt>
   <trkpt lat="67.925334" lon="13.074267"><ele>192.6</ele></trkpt>
   <trkpt lat="67.925340" lon="13.074214"><ele>193.6</ele></trkpt>
   <trkpt lat="67.925341" lon="13.074197"><ele>193.8</ele></trkpt>
   <trkpt lat="67.925359" lon="13.074153"><ele>195.0</ele></trkpt>
   <trkpt lat="67.925366" lon="13.074112"><ele>195.8</ele></trkpt>
   <trkpt lat="67.925369" lon="13.074095"><ele>196.2</ele></trkpt>
   <trkpt lat="67.925373" lon="13.074012"><ele>197.4</ele></trkpt>
   <trkpt lat="67.925384" lon="13.073992"><ele>198.0</ele></trkpt>
   <trkpt lat="67.925393" lon="13.073994"><ele>198.8</ele></trkpt>
   <trkpt lat="67.925399" lon="13.074012"><ele>199.0</ele></trkpt>
   <trkpt lat="67.925429" lon="13.074109"><ele>199.8</ele></trkpt>
   <trkpt lat="67.925453" lon="13.074209"><ele>201.2</ele></trkpt>
   <trkpt lat="67.925479" lon="13.074306"><ele>202.4</ele></trkpt>
   <trkpt lat="67.925501" lon="13.074319"><ele>203.4</ele></trkpt>
   <trkpt lat="67.925523" lon="13.074318"><ele>204.4</ele></trkpt>
   <trkpt lat="67.925526" lon="13.074323"><ele>204.8</ele></trkpt>
   <trkpt lat="67.925534" lon="13.074332"><ele>205.0</ele></trkpt>
   <trkpt lat="67.925537" lon="13.074356"><ele>205.6</ele></trkpt>
   <trkpt lat="67.925539" lon="13.074409"><ele>206.4</ele></trkpt>
   <trkpt lat="67.925541" lon="13.074438"><ele>206.6</ele></trkpt>
   <trkpt lat="67.925542" lon="13.074497"><ele>207.4</ele></trkpt>
   <trkpt lat="67.925542" lon="13.074512"><ele>207.8</ele></trkpt>
   <trkpt lat="67.925537" lon="13.074570"><ele>209.0</ele></trkpt>
   <trkpt lat="67.925535" lon="13.074595"><ele>209.6</ele></trkpt>
   <trkpt lat="67.925535" lon="13.074640"><ele>210.4</ele></trkpt>
   <trkpt lat="67.925536" lon="13.074694"><ele>211.4</ele></trkpt>
   <trkpt lat="67.925536" lon="13.074710"><ele>212.0</ele></trkpt>
   <trkpt lat="67.925540" lon="13.074738"><ele>212.4</ele></trkpt>
   <trkpt lat="67.925546" lon="13.074771"><ele>213.6</ele></trkpt>
   <trkpt lat="67.925550" lon="13.074779"><ele>214.0</ele></trkpt>
   <trkpt lat="67.925559" lon="13.074779"><ele>214.8</ele></trkpt>
   <trkpt lat="67.925559" lon="13.074786"><ele>215.2</ele></trkpt>
   <trkpt lat="67.925559" lon="13.074786"><ele>215.4</ele></trkpt>
   <trkpt lat="67.925552" lon="13.074780"><ele>215.6</ele></trkpt>
   <trkpt lat="67.925548" lon="13.074779"><ele>215.6</ele></trkpt>
   <trkpt lat="67.925546" lon="13.074779"><ele>215.8</ele></trkpt>
   <trkpt lat="67.925541" lon="13.074774"><ele>216.0</ele></trkpt>
   <trkpt lat="67.925535" lon="13.074770"><ele>216.2</ele></trkpt>
   <trkpt lat="67.925531" lon="13.074763"><ele>216.8</ele></trkpt>
   <trkpt lat="67.925531" lon="13.074758"><ele>217.0</ele></trkpt>
   <trkpt lat="67.925547" lon="13.074747"><ele>218.2</ele></trkpt>
   <trkpt lat="67.925578" lon="13.074731"><ele>219.2</ele></trkpt>
   <trkpt lat="67.925585" lon="13.074735"><ele>219.4</ele></trkpt>
   <trkpt lat="67.925595" lon="13.074760"><ele>220.2</ele></trkpt>
   <trkpt lat="67.925602" lon="13.074795"><ele>221.0</ele></trkpt>
   <trkpt lat="67.925599" lon="13.074811"><ele>221.4</ele></trkpt>
   <trkpt lat="67.925607" lon="13.074859"><ele>222.4</ele></trkpt>
   <trkpt lat="67.925628" lon="13.074897"><ele>223.6</ele></trkpt>
   <trkpt lat="67.925652" lon="13.074906"><ele>224.8</ele></trkpt>
   <trkpt lat="67.925667" lon="13.074910"><ele>225.8</ele></trkpt>
   <trkpt lat="67.925671" lon="13.074917"><ele>226.0</ele></trkpt>
   <trkpt lat="67.925659" lon="13.074960"><ele>227.2</ele></trkpt>
   <trkpt lat="67.925657" lon="13.074963"><ele>227.4</ele></trkpt>
   <trkpt lat="67.925646" lon="13.074952"><ele>228.2</ele></trkpt>
   <trkpt lat="67.925651" lon="13.074953"><ele>229.4</ele></trkpt>
   <trkpt lat="67.925648" lon="13.074942"><ele>230.4</ele></trkpt>
   <trkpt lat="67.925657" lon="13.074997"><ele>231.2</ele></trkpt>
   <trkpt lat="67.925662" lon="13.075013"><ele>231.6</ele></trkpt>
   <trkpt lat="67.925656" lon="13.075055"><ele>232.4</ele></trkpt>
   <trkpt lat="67.925655" lon="13.075071"><ele>232.8</ele></trkpt>
   <trkpt lat="67.925677" lon="13.075124"><ele>233.8</ele></trkpt>
   <trkpt lat="67.925673" lon="13.075157"><ele>235.0</ele></trkpt>
   <trkpt lat="67.925670" lon="13.075219"><ele>236.2</ele></trkpt>
   <trkpt lat="67.925663" lon="13.075252"><ele>237.4</ele></trkpt>
   <trkpt lat="67.925676" lon="13.075305"><ele>238.2</ele></trkpt>
   <trkpt lat="67.925681" lon="13.075324"><ele>238.6</ele></trkpt>
   <trkpt lat="67.925694" lon="13.075380"><ele>239.6</ele></trkpt>
   <trkpt lat="67.925698" lon="13.075404"><ele>240.2</ele></trkpt>
   <trkpt lat="67.925707" lon="13.075418"><ele>240.8</ele></trkpt>
   <trkpt lat="67.925719" lon="13.075456"><ele>241.8</ele></trkpt>
   <trkpt lat="67.925724" lon="13.075461"><ele>242.0</ele></trkpt>
   <trkpt lat="67.925741" lon="13.075478"><ele>243.0</ele></trkpt>
   <trkpt lat="67.925761" lon="13.075515"><ele>244.0</ele></trkpt>
   <trkpt lat="67.925767" lon="13.075548"><ele>245.0</ele></trkpt>
   <trkpt lat="67.925772" lon="13.075558"><ele>245.4</ele></trkpt>
   <trkpt lat="67.925796" lon="13.075611"><ele>246.6</ele></trkpt>
   <trkpt lat="67.925820" lon="13.075663"><ele>247.4</ele></trkpt>
   <trkpt lat="67.925828" lon="13.075678"><ele>247.6</ele></trkpt>
   <trkpt lat="67.925835" lon="13.075692"><ele>247.8</ele></trkpt>
   <trkpt lat="67.925859" lon="13.075784"><ele>249.0</ele></trkpt>
   <trkpt lat="67.925862" lon="13.075813"><ele>249.6</ele></trkpt>
   <trkpt lat="67.925872" lon="13.075835"><ele>250.2</ele></trkpt>
   <trkpt lat="67.925891" lon="13.075886"><ele>251.4</ele></trkpt>
   <trkpt lat="67.925903" lon="13.075947"><ele>252.6</ele></trkpt>
   <trkpt lat="67.925912" lon="13.075973"><ele>253.0</ele></trkpt>
   <trkpt lat="67.925920" lon="13.075993"><ele>253.8</ele></trkpt>
   <trkpt lat="67.925922" lon="13.076036"><ele>254.8</ele></trkpt>
   <trkpt lat="67.925927" lon="13.076080"><ele>255.8</ele></trkpt>
   <trkpt lat="67.925930" lon="13.076092"><ele>256.0</ele></trkpt>
   <trkpt lat="67.925945" lon="13.076148"><ele>257.2</ele></trkpt>
   <trkpt lat="67.925952" lon="13.076192"><ele>258.2</ele></trkpt>
   <trkpt lat="67.925951" lon="13.076203"><ele>258.6</ele></trkpt>
   <trkpt lat="67.925954" lon="13.076231"><ele>259.4</ele></trkpt>
   <trkpt lat="67.925971" lon="13.076260"><ele>260.6</ele></trkpt>
   <trkpt lat="67.925982" lon="13.076287"><ele>261.6</ele></trkpt>
   <trkpt lat="67.925979" lon="13.076292"><ele>262.0</ele></trkpt>
   <trkpt lat="67.925993" lon="13.076322"><ele>263.2</ele></trkpt>
   <trkpt lat="67.926002" lon="13.076329"><ele>263.8</ele></trkpt>
   <trkpt lat="67.926004" lon="13.076328"><ele>264.2</ele></trkpt>
   <trkpt lat="67.925994" lon="13.076299"><ele>265.4</ele></trkpt>
   <trkpt lat="67.925999" lon="13.076311"><ele>265.6</ele></trkpt>
   <trkpt lat="67.926011" lon="13.076302"><ele>266.0</ele></trkpt>
   <trkpt lat="67.926011" lon="13.076297"><ele>266.0</ele></trkpt>
   <trkpt lat="67.926008" lon="13.076304"><ele>266.2</ele></trkpt>
   <trkpt lat="67.926008" lon="13.076304"><ele>266.2</ele></trkpt>
   <trkpt lat="67.926008" lon="13.076304"><ele>266.4</ele></trkpt>
   <trkpt lat="67.926008" lon="13.076304"><ele>266.4</ele></trkpt>
   <trkpt lat="67.926008" lon="13.076311"><ele>266.6</ele></trkpt>
   <trkpt lat="67.926005" lon="13.076313"><ele>266.4</ele></trkpt>
   <trkpt lat="67.926000" lon="13.076315"><ele>266.4</ele></trkpt>
   <trkpt lat="67.926000" lon="13.076315"><ele>267.4</ele></trkpt>
   <trkpt lat="67.926000" lon="13.076315"><ele>268.0</ele></trkpt>
   <trkpt lat="67.926000" lon="13.076314"><ele>268.6</ele></trkpt>
   <trkpt lat="67.926000" lon="13.076311"><ele>269.2</ele></trkpt>
   <trkpt lat="67.926000" lon="13.076308"><ele>269.6</ele></trkpt>
   <trkpt lat="67.926000" lon="13.076285"><ele>270.2</ele></trkpt>
   <trkpt lat="67.926006" lon="13.076272"><ele>270.8</ele></trkpt>
   <trkpt lat="67.926026" lon="13.076226"><ele>272.0</ele></trkpt>
   <trkpt lat="67.926049" lon="13.076190"><ele>273.2</ele></trkpt>
   <trkpt lat="67.926066" lon="13.076183"><ele>274.2</ele></trkpt>
   <trkpt lat="67.926083" lon="13.076183"><ele>275.2</ele></trkpt>
   <trkpt lat="67.926101" lon="13.076183"><ele>276.4</ele></trkpt>
   <trkpt lat="67.926117" lon="13.076181"><ele>277.4</ele></trkpt>
   <trkpt lat="67.926132" lon="13.076186"><ele>278.4</ele></trkpt>
   <trkpt lat="67.926140" lon="13.076194"><ele>279.0</ele></trkpt>
   <trkpt lat="67.926147" lon="13.076200"><ele>279.6</ele></trkpt>
   <trkpt lat="67.926166" lon="13.076213"><ele>280.6</ele></trkpt>
   <trkpt lat="67.926181" lon="13.076223"><ele>281.8</ele></trkpt>
   <trkpt lat="67.926191" lon="13.076263"><ele>283.0</ele></trkpt>
   <trkpt lat="67.926200" lon="13.076297"><ele>284.2</ele></trkpt>
   <trkpt lat="67.926209" lon="13.076330"><ele>285.4</ele></trkpt>
   <trkpt lat="67.926225" lon="13.076374"><ele>286.6</ele></trkpt>
   <trkpt lat="67.926246" lon="13.076391"><ele>287.8</ele></trkpt>
   <trkpt lat="67.926256" lon="13.076407"><ele>289.2</ele></trkpt>
   <trkpt lat="67.926264" lon="13.076452"><ele>290.4</ele></trkpt>
   <trkpt lat="67.926272" lon="13.076465"><ele>291.6</ele></trkpt>
   <trkpt lat="67.926290" lon="13.076485"><ele>292.6</ele></trkpt>
   <trkpt lat="67.926311" lon="13.076492"><ele>293.8</ele></trkpt>
   <trkpt lat="67.926324" lon="13.076493"><ele>295.0</ele></trkpt>
   <trkpt lat="67.926335" lon="13.076493"><ele>296.2</ele></trkpt>
   <trkpt lat="67.926347" lon="13.076482"><ele>297.2</ele></trkpt>
   <trkpt lat="67.926358" lon="13.076456"><ele>298.4</ele></trkpt>
   <trkpt lat="67.926365" lon="13.076439"><ele>299.4</ele></trkpt>
   <trkpt lat="67.926376" lon="13.076433"><ele>300.6</ele></trkpt>
   <trkpt lat="67.926386" lon="13.076432"><ele>301.8</ele></trkpt>
   <trkpt lat="67.926394" lon="13.076429"><ele>303.0</ele></trkpt>
   <trkpt lat="67.926405" lon="13.076427"><ele>304.2</ele></trkpt>
   <trkpt lat="67.926415" lon="13.076427"><ele>305.4</ele></trkpt>
   <trkpt lat="67.926433" lon="13.076426"><ele>306.4</ele></trkpt>
   <trkpt lat="67.926436" lon="13.076425"><ele>306.4</ele></trkpt>
   <trkpt lat="67.926446" lon="13.076404"><ele>307.6</ele></trkpt>
   <trkpt lat="67.926451" lon="13.076391"><ele>308.8</ele></trkpt>
   <trkpt lat="67.926453" lon="13.076385"><ele>309.8</ele></trkpt>
   <trkpt lat="67.926455" lon="13.076376"><ele>311.0</ele></trkpt>
   <trkpt lat="67.926457" lon="13.076369"><ele>312.2</ele></trkpt>
   <trkpt lat="67.926457" lon="13.076367"><ele>313.2</ele></trkpt>
   <trkpt lat="67.926457" lon="13.076365"><ele>314.2</ele></trkpt>
   <trkpt lat="67.926457" lon="13.076364"><ele>314.4</ele></trkpt>
   <trkpt lat="67.926458" lon="13.076362"><ele>315.4</ele></trkpt>
   <trkpt lat="67.926458" lon="13.076361"><ele>316.0</ele></trkpt>
   <trkpt lat="67.926458" lon="13.076360"><ele>316.6</ele></trkpt>
   <trkpt lat="67.926481" lon="13.076244"><ele>317.6</ele></trkpt>
   <trkpt lat="67.926493" lon="13.076177"><ele>318.0</ele></trkpt>
   <trkpt lat="67.926534" lon="13.076023"><ele>319.0</ele></trkpt>
   <trkpt lat="67.926591" lon="13.075802"><ele>320.2</ele></trkpt>
   <trkpt lat="67.926593" lon="13.075799"><ele>320.8</ele></trkpt>
   <trkpt lat="67.926600" lon="13.075788"><ele>321.2</ele></trkpt>
   <trkpt lat="67.926596" lon="13.075777"><ele>321.6</ele></trkpt>
   <trkpt lat="67.926603" lon="13.075767"><ele>322.4</ele></trkpt>
   <trkpt lat="67.926625" lon="13.075745"><ele>323.2</ele></trkpt>
   <trkpt lat="67.926635" lon="13.075744"><ele>323.6</ele></trkpt>
   <trkpt lat="67.926645" lon="13.075733"><ele>324.6</ele></trkpt>
   <trkpt lat="67.926652" lon="13.075744"><ele>324.8</ele></trkpt>
   <trkpt lat="67.926672" lon="13.075777"><ele>326.0</ele></trkpt>
   <trkpt lat="67.926667" lon="13.075767"><ele>326.2</ele></trkpt>
   <trkpt lat="67.926682" lon="13.075754"><ele>327.2</ele></trkpt>
   <trkpt lat="67.926671" lon="13.075701"><ele>328.2</ele></trkpt>
   <trkpt lat="67.926677" lon="13.075670"><ele>329.6</ele></trkpt>
   <trkpt lat="67.926676" lon="13.075659"><ele>329.8</ele></trkpt>
   <trkpt lat="67.926675" lon="13.075628"><ele>330.8</ele></trkpt>
   <trkpt lat="67.926675" lon="13.075589"><ele>331.8</ele></trkpt>
   <trkpt lat="67.926678" lon="13.075579"><ele>332.2</ele></trkpt>
   <trkpt lat="67.926684" lon="13.075564"><ele>333.0</ele></trkpt>
   <trkpt lat="67.926688" lon="13.075555"><ele>333.8</ele></trkpt>
   <trkpt lat="67.926688" lon="13.075553"><ele>334.2</ele></trkpt>
   <trkpt lat="67.926700" lon="13.075546"><ele>335.2</ele></trkpt>
   <trkpt lat="67.926706" lon="13.075549"><ele>335.8</ele></trkpt>
   <trkpt lat="67.926713" lon="13.075556"><ele>336.6</ele></trkpt>
   <trkpt lat="67.926744" lon="13.075576"><ele>337.6</ele></trkpt>
   <trkpt lat="67.926753" lon="13.075591"><ele>338.4</ele></trkpt>
   <trkpt lat="67.926751" lon="13.075599"><ele>338.6</ele></trkpt>
   <trkpt lat="67.926766" lon="13.075652"><ele>339.4</ele></trkpt>
   <trkpt lat="67.926797" lon="13.075695"><ele>340.0</ele></trkpt>
   <trkpt lat="67.926805" lon="13.075694"><ele>340.6</ele></trkpt>
   <trkpt lat="67.926801" lon="13.075685"><ele>341.2</ele></trkpt>
   <trkpt lat="67.926804" lon="13.075705"><ele>342.4</ele></trkpt>
   <trkpt lat="67.926813" lon="13.075704"><ele>343.2</ele></trkpt>
   <trkpt lat="67.926812" lon="13.075690"><ele>343.6</ele></trkpt>
   <trkpt lat="67.926825" lon="13.075690"><ele>345.0</ele></trkpt>
   <trkpt lat="67.926849" lon="13.075711"><ele>345.8</ele></trkpt>
   <trkpt lat="67.926852" lon="13.075711"><ele>346.2</ele></trkpt>
   <trkpt lat="67.926874" lon="13.075723"><ele>347.2</ele></trkpt>
   <trkpt lat="67.926881" lon="13.075726"><ele>347.6</ele></trkpt>
   <trkpt lat="67.926892" lon="13.075720"><ele>348.2</ele></trkpt>
   <trkpt lat="67.926898" lon="13.075665"><ele>349.4</ele></trkpt>
   <trkpt lat="67.926898" lon="13.075654"><ele>349.6</ele></trkpt>
   <trkpt lat="67.926890" lon="13.075604"><ele>350.6</ele></trkpt>
   <trkpt lat="67.926888" lon="13.075560"><ele>351.2</ele></trkpt>
   <trkpt lat="67.926893" lon="13.075532"><ele>351.8</ele></trkpt>
   <trkpt lat="67.926871" lon="13.075418"><ele>352.8</ele></trkpt>
   <trkpt lat="67.926869" lon="13.075381"><ele>354.0</ele></trkpt>
   <trkpt lat="67.926869" lon="13.075379"><ele>354.4</ele></trkpt>
   <trkpt lat="67.926871" lon="13.075366"><ele>354.8</ele></trkpt>
   <trkpt lat="67.926880" lon="13.075356"><ele>355.0</ele></trkpt>
   <trkpt lat="67.926886" lon="13.075352"><ele>355.2</ele></trkpt>
   <trkpt lat="67.926903" lon="13.075350"><ele>356.2</ele></trkpt>
   <trkpt lat="67.926915" lon="13.075342"><ele>357.0</ele></trkpt>
   <trkpt lat="67.926919" lon="13.075337"><ele>357.2</ele></trkpt>
   <trkpt lat="67.926921" lon="13.075326"><ele>357.4</ele></trkpt>
   <trkpt lat="67.926930" lon="13.075366"><ele>358.6</ele></trkpt>
   <trkpt lat="67.926935" lon="13.075370"><ele>359.0</ele></trkpt>
   <trkpt lat="67.926948" lon="13.075371"><ele>359.8</ele></trkpt>
   <trkpt lat="67.926974" lon="13.075407"><ele>360.8</ele></trkpt>
   <trkpt lat="67.926993" lon="13.075434"><ele>362.0</ele></trkpt>
   <trkpt lat="67.926999" lon="13.075418"><ele>362.4</ele></trkpt>
   <trkpt lat="67.927010" lon="13.075397"><ele>363.2</ele></trkpt>
   <trkpt lat="67.927002" lon="13.075396"><ele>364.0</ele></trkpt>
   <trkpt lat="67.927020" lon="13.075433"><ele>364.4</ele></trkpt>
   <trkpt lat="67.927025" lon="13.075437"><ele>364.4</ele></trkpt>
   <trkpt lat="67.927041" lon="13.075433"><ele>365.6</ele></trkpt>
   <trkpt lat="67.927044" lon="13.075435"><ele>366.6</ele></trkpt>
   <trkpt lat="67.927042" lon="13.075428"><ele>366.8</ele></trkpt>
   <trkpt lat="67.927049" lon="13.075432"><ele>368.0</ele></trkpt>
   <trkpt lat="67.927055" lon="13.075423"><ele>368.6</ele></trkpt>
   <trkpt lat="67.927063" lon="13.075411"><ele>369.2</ele></trkpt>
   <trkpt lat="67.927077" lon="13.075385"><ele>370.4</ele></trkpt>
   <trkpt lat="67.927094" lon="13.075413"><ele>371.4</ele></trkpt>
   <trkpt lat="67.927095" lon="13.075424"><ele>371.6</ele></trkpt>
   <trkpt lat="67.927102" lon="13.075437"><ele>372.8</ele></trkpt>
   <trkpt lat="67.927132" lon="13.075454"><ele>374.2</ele></trkpt>
   <trkpt lat="67.927135" lon="13.075439"><ele>374.4</ele></trkpt>
   <trkpt lat="67.927136" lon="13.075408"><ele>375.2</ele></trkpt>
   <trkpt lat="67.927145" lon="13.075373"><ele>376.4</ele></trkpt>
   <trkpt lat="67.927134" lon="13.075357"><ele>377.2</ele></trkpt>
   <trkpt lat="67.927134" lon="13.075332"><ele>377.8</ele></trkpt>
   <trkpt lat="67.927139" lon="13.075300"><ele>378.8</ele></trkpt>
   <trkpt lat="67.927136" lon="13.075284"><ele>379.2</ele></trkpt>
   <trkpt lat="67.927138" lon="13.075289"><ele>379.8</ele></trkpt>
   <trkpt lat="67.927138" lon="13.075289"><ele>380.4</ele></trkpt>
   <trkpt lat="67.927138" lon="13.075289"><ele>380.4</ele></trkpt>
   <trkpt lat="67.927136" lon="13.075289"><ele>381.2</ele></trkpt>
   <trkpt lat="67.927134" lon="13.075289"><ele>381.6</ele></trkpt>
   <trkpt lat="67.927134" lon="13.075282"><ele>382.2</ele></trkpt>
   <trkpt lat="67.927135" lon="13.075268"><ele>383.4</ele></trkpt>
   <trkpt lat="67.927138" lon="13.075238"><ele>384.4</ele></trkpt>
   <trkpt lat="67.927138" lon="13.075202"><ele>385.6</ele></trkpt>
   <trkpt lat="67.927152" lon="13.075191"><ele>386.8</ele></trkpt>
   <trkpt lat="67.927158" lon="13.075179"><ele>388.0</ele></trkpt>
   <trkpt lat="67.927158" lon="13.075151"><ele>389.4</ele></trkpt>
   <trkpt lat="67.927161" lon="13.075081"><ele>390.6</ele></trkpt>
   <trkpt lat="67.927163" lon="13.075047"><ele>391.6</ele></trkpt>
   <trkpt lat="67.927164" lon="13.074993"><ele>392.8</ele></trkpt>
   <trkpt lat="67.927173" lon="13.074955"><ele>394.0</ele></trkpt>
   <trkpt lat="67.927188" lon="13.074919"><ele>395.0</ele></trkpt>
   <trkpt lat="67.927195" lon="13.074860"><ele>396.4</ele></trkpt>
   <trkpt lat="67.927196" lon="13.074835"><ele>397.4</ele></trkpt>
   <trkpt lat="67.927205" lon="13.074787"><ele>397.6</ele></trkpt>
   <trkpt lat="67.927208" lon="13.074727"><ele>398.8</ele></trkpt>
   <trkpt lat="67.927210" lon="13.074704"><ele>399.8</ele></trkpt>
   <trkpt lat="67.927215" lon="13.074702"><ele>401.0</ele></trkpt>
   <trkpt lat="67.927255" lon="13.074702"><ele>401.4</ele></trkpt>
   <trkpt lat="67.927266" lon="13.074699"><ele>402.0</ele></trkpt>
   <trkpt lat="67.927286" lon="13.074682"><ele>403.0</ele></trkpt>
   <trkpt lat="67.927288" lon="13.074672"><ele>403.2</ele></trkpt>
   <trkpt lat="67.927289" lon="13.074669"><ele>404.4</ele></trkpt>
   <trkpt lat="67.927292" lon="13.074648"><ele>405.6</ele></trkpt>
   <trkpt lat="67.927293" lon="13.074622"><ele>406.8</ele></trkpt>
   <trkpt lat="67.927311" lon="13.074588"><ele>408.0</ele></trkpt>
   <trkpt lat="67.927379" lon="13.074576"><ele>409.2</ele></trkpt>
   <trkpt lat="67.927402" lon="13.074551"><ele>410.2</ele></trkpt>
   <trkpt lat="67.927415" lon="13.074570"><ele>410.6</ele></trkpt>
   <trkpt lat="67.927439" lon="13.074581"><ele>411.2</ele></trkpt>
   <trkpt lat="67.927453" lon="13.074592"><ele>412.2</ele></trkpt>
   <trkpt lat="67.927490" lon="13.074638"><ele>413.2</ele></trkpt>
   <trkpt lat="67.927496" lon="13.074613"><ele>414.0</ele></trkpt>
   <trkpt lat="67.927499" lon="13.074597"><ele>414.4</ele></trkpt>
   <trkpt lat="67.927505" lon="13.074547"><ele>415.4</ele></trkpt>
   <trkpt lat="67.927499" lon="13.074516"><ele>415.8</ele></trkpt>
   <trkpt lat="67.927500" lon="13.074490"><ele>416.4</ele></trkpt>
   <trkpt lat="67.927497" lon="13.074435"><ele>417.6</ele></trkpt>
   <trkpt lat="67.927506" lon="13.074426"><ele>418.0</ele></trkpt>
   <trkpt lat="67.927522" lon="13.074427"><ele>419.0</ele></trkpt>
   <trkpt lat="67.927546" lon="13.074415"><ele>420.0</ele></trkpt>
   <trkpt lat="67.927549" lon="13.074407"><ele>420.2</ele></trkpt>
   <trkpt lat="67.927569" lon="13.074403"><ele>421.0</ele></trkpt>
   <trkpt lat="67.927578" lon="13.074373"><ele>422.0</ele></trkpt>
   <trkpt lat="67.927594" lon="13.074373"><ele>423.2</ele></trkpt>
   <trkpt lat="67.927600" lon="13.074402"><ele>424.0</ele></trkpt>
   <trkpt lat="67.927604" lon="13.074412"><ele>424.2</ele></trkpt>
   <trkpt lat="67.927616" lon="13.074441"><ele>425.4</ele></trkpt>
   <trkpt lat="67.927622" lon="13.074475"><ele>426.6</ele></trkpt>
   <trkpt lat="67.927623" lon="13.074482"><ele>426.8</ele></trkpt>
   <trkpt lat="67.927643" lon="13.074501"><ele>427.6</ele></trkpt>
   <trkpt lat="67.927657" lon="13.074504"><ele>428.4</ele></trkpt>
   <trkpt lat="67.927662" lon="13.074515"><ele>428.6</ele></trkpt>
   <trkpt lat="67.927686" lon="13.074547"><ele>429.6</ele></trkpt>
   <trkpt lat="67.927695" lon="13.074564"><ele>430.2</ele></trkpt>
   <trkpt lat="67.927700" lon="13.074574"><ele>430.8</ele></trkpt>
   <trkpt lat="67.927709" lon="13.074584"><ele>431.8</ele></trkpt>
   <trkpt lat="67.927711" lon="13.074592"><ele>432.0</ele></trkpt>
   <trkpt lat="67.927725" lon="13.074583"><ele>433.2</ele></trkpt>
   <trkpt lat="67.927738" lon="13.074561"><ele>434.0</ele></trkpt>
   <trkpt lat="67.927742" lon="13.074548"><ele>434.2</ele></trkpt>
   <trkpt lat="67.927756" lon="13.074510"><ele>435.4</ele></trkpt>
   <trkpt lat="67.927761" lon="13.074519"><ele>436.0</ele></trkpt>
   <trkpt lat="67.927764" lon="13.074525"><ele>436.2</ele></trkpt>
   <trkpt lat="67.927764" lon="13.074524"><ele>436.4</ele></trkpt>
   <trkpt lat="67.927764" lon="13.074522"><ele>436.4</ele></trkpt>
   <trkpt lat="67.927777" lon="13.074421"><ele>437.2</ele></trkpt>
   <trkpt lat="67.927788" lon="13.074392"><ele>437.4</ele></trkpt>
   <trkpt lat="67.927791" lon="13.074393"><ele>437.2</ele></trkpt>
   <trkpt lat="67.927791" lon="13.074393"><ele>437.0</ele></trkpt>
   <trkpt lat="67.927791" lon="13.074393"><ele>436.8</ele></trkpt>
   <trkpt lat="67.927791" lon="13.074392"><ele>437.0</ele></trkpt>
   <trkpt lat="67.927791" lon="13.074388"><ele>438.6</ele></trkpt>
   <trkpt lat="67.927791" lon="13.074379"><ele>439.8</ele></trkpt>
   <trkpt lat="67.927789" lon="13.074352"><ele>440.2</ele></trkpt>
   <trkpt lat="67.927788" lon="13.074322"><ele>440.6</ele></trkpt>
   <trkpt lat="67.927788" lon="13.074308"><ele>441.0</ele></trkpt>
   <trkpt lat="67.927788" lon="13.074255"><ele>442.0</ele></trkpt>
   <trkpt lat="67.927788" lon="13.074212"><ele>443.0</ele></trkpt>
   <trkpt lat="67.927788" lon="13.074168"><ele>444.2</ele></trkpt>
   <trkpt lat="67.927801" lon="13.074071"><ele>445.2</ele></trkpt>
   <trkpt lat="67.927816" lon="13.073896"><ele>446.0</ele></trkpt>
   <trkpt lat="67.927822" lon="13.073853"><ele>446.0</ele></trkpt>
   <trkpt lat="67.927826" lon="13.073816"><ele>446.2</ele></trkpt>
   <trkpt lat="67.927823" lon="13.073644"><ele>447.2</ele></trkpt>
   <trkpt lat="67.927823" lon="13.073628"><ele>447.4</ele></trkpt>
   <trkpt lat="67.927822" lon="13.073611"><ele>447.8</ele></trkpt>
   <trkpt lat="67.927820" lon="13.073553"><ele>448.6</ele></trkpt>
   <trkpt lat="67.927826" lon="13.073519"><ele>449.2</ele></trkpt>
   <trkpt lat="67.927829" lon="13.073490"><ele>449.8</ele></trkpt>
   <trkpt lat="67.927827" lon="13.073435"><ele>451.2</ele></trkpt>
   <trkpt lat="67.927829" lon="13.073423"><ele>451.4</ele></trkpt>
   <trkpt lat="67.927845" lon="13.073399"><ele>452.2</ele></trkpt>
   <trkpt lat="67.927863" lon="13.073399"><ele>453.4</ele></trkpt>
   <trkpt lat="67.927868" lon="13.073403"><ele>453.6</ele></trkpt>
   <trkpt lat="67.927883" lon="13.073391"><ele>454.4</ele></trkpt>
   <trkpt lat="67.927877" lon="13.073333"><ele>455.4</ele></trkpt>
   <trkpt lat="67.927876" lon="13.073317"><ele>455.6</ele></trkpt>
   <trkpt lat="67.927870" lon="13.073240"><ele>457.0</ele></trkpt>
   <trkpt lat="67.927866" lon="13.073226"><ele>457.2</ele></trkpt>
   <trkpt lat="67.927838" lon="13.073151"><ele>458.0</ele></trkpt>
   <trkpt lat="67.927832" lon="13.073054"><ele>458.6</ele></trkpt>
   <trkpt lat="67.927829" lon="13.073022"><ele>459.0</ele></trkpt>
   <trkpt lat="67.927832" lon="13.072973"><ele>459.8</ele></trkpt>
   <trkpt lat="67.927831" lon="13.072956"><ele>460.0</ele></trkpt>
   <trkpt lat="67.927842" lon="13.072859"><ele>461.2</ele></trkpt>
   <trkpt lat="67.927837" lon="13.072804"><ele>462.0</ele></trkpt>
   <trkpt lat="67.927834" lon="13.072788"><ele>462.2</ele></trkpt>
   <trkpt lat="67.927834" lon="13.072677"><ele>463.0</ele></trkpt>
   <trkpt lat="67.927838" lon="13.072663"><ele>463.4</ele></trkpt>
   <trkpt lat="67.927844" lon="13.072642"><ele>463.8</ele></trkpt>
   <trkpt lat="67.927842" lon="13.072597"><ele>464.4</ele></trkpt>
   <trkpt lat="67.927836" lon="13.072513"><ele>465.4</ele></trkpt>
   <trkpt lat="67.927841" lon="13.072500"><ele>465.6</ele></trkpt>
   <trkpt lat="67.927847" lon="13.072451"><ele>466.6</ele></trkpt>
   <trkpt lat="67.927849" lon="13.072403"><ele>467.0</ele></trkpt>
   <trkpt lat="67.927850" lon="13.072374"><ele>468.0</ele></trkpt>
   <trkpt lat="67.927852" lon="13.072378"><ele>468.4</ele></trkpt>
   <trkpt lat="67.927845" lon="13.072341"><ele>468.6</ele></trkpt>
   <trkpt lat="67.927841" lon="13.072319"><ele>468.8</ele></trkpt>
   <trkpt lat="67.927836" lon="13.072274"><ele>468.8</ele></trkpt>
   <trkpt lat="67.927836" lon="13.072233"><ele>469.2</ele></trkpt>
   <trkpt lat="67.927834" lon="13.072197"><ele>470.0</ele></trkpt>
   <trkpt lat="67.927834" lon="13.072194"><ele>470.2</ele></trkpt>
   <trkpt lat="67.927841" lon="13.072144"><ele>470.4</ele></trkpt>
   <trkpt lat="67.927847" lon="13.072133"><ele>471.2</ele></trkpt>
   <trkpt lat="67.927836" lon="13.072069"><ele>472.4</ele></trkpt>
   <trkpt lat="67.927833" lon="13.072054"><ele>472.8</ele></trkpt>
   <trkpt lat="67.927823" lon="13.071974"><ele>473.4</ele></trkpt>
   <trkpt lat="67.927815" lon="13.071836"><ele>474.4</ele></trkpt>
   <trkpt lat="67.927813" lon="13.071814"><ele>474.4</ele></trkpt>
   <trkpt lat="67.927814" lon="13.071743"><ele>475.6</ele></trkpt>
   <trkpt lat="67.927816" lon="13.071731"><ele>476.0</ele></trkpt>
   <trkpt lat="67.927817" lon="13.071678"><ele>477.0</ele></trkpt>
   <trkpt lat="67.927818" lon="13.071627"><ele>477.8</ele></trkpt>
   <trkpt lat="67.927817" lon="13.071607"><ele>478.2</ele></trkpt>
   <trkpt lat="67.927816" lon="13.071563"><ele>478.6</ele></trkpt>
   <trkpt lat="67.927820" lon="13.071527"><ele>479.2</ele></trkpt>
   <trkpt lat="67.927810" lon="13.071476"><ele>480.4</ele></trkpt>
   <trkpt lat="67.927809" lon="13.071460"><ele>480.6</ele></trkpt>
   <trkpt lat="67.927824" lon="13.071403"><ele>481.2</ele></trkpt>
   <trkpt lat="67.927828" lon="13.071395"><ele>481.4</ele></trkpt>
   <trkpt lat="67.927831" lon="13.071393"><ele>481.8</ele></trkpt>
   <trkpt lat="67.927841" lon="13.071395"><ele>482.4</ele></trkpt>
   <trkpt lat="67.927839" lon="13.071418"><ele>482.4</ele></trkpt>
   <trkpt lat="67.927839" lon="13.071428"><ele>482.8</ele></trkpt>
   <trkpt lat="67.927839" lon="13.071428"><ele>483.0</ele></trkpt>
  </trkseg>
 </trk>
</gpx>
