<?xml version="1.0" encoding="UTF-8"?>
<gpx version="1.1" creator="HPGT flysteder" xmlns="http://www.topografix.com/GPX/1/1">
 <trk>
  <name>Haugfjellet – parkering til start</name>
  <trkseg>
   <trkpt lat="68.548157" lon="17.507090"><ele>76.6</ele></trkpt>
   <trkpt lat="68.548157" lon="17.507090"><ele>77.2</ele></trkpt>
   <trkpt lat="68.548157" lon="17.507090"><ele>77.4</ele></trkpt>
   <trkpt lat="68.548157" lon="17.507090"><ele>78.8</ele></trkpt>
   <trkpt lat="68.548157" lon="17.507090"><ele>77.6</ele></trkpt>
   <trkpt lat="68.548161" lon="17.506802"><ele>78.0</ele></trkpt>
   <trkpt lat="68.548185" lon="17.506757"><ele>78.2</ele></trkpt>
   <trkpt lat="68.548191" lon="17.506768"><ele>78.6</ele></trkpt>
   <trkpt lat="68.548271" lon="17.506720"><ele>79.2</ele></trkpt>
   <trkpt lat="68.548312" lon="17.506748"><ele>79.6</ele></trkpt>
   <trkpt lat="68.548322" lon="17.506753"><ele>79.8</ele></trkpt>
   <trkpt lat="68.548330" lon="17.506754"><ele>80.0</ele></trkpt>
   <trkpt lat="68.548374" lon="17.506683"><ele>80.6</ele></trkpt>
   <trkpt lat="68.548379" lon="17.506658"><ele>80.8</ele></trkpt>
   <trkpt lat="68.548389" lon="17.506492"><ele>81.4</ele></trkpt>
   <trkpt lat="68.548383" lon="17.506489"><ele>81.4</ele></trkpt>
   <trkpt lat="68.548368" lon="17.506495"><ele>81.8</ele></trkpt>
   <trkpt lat="68.548335" lon="17.506424"><ele>82.4</ele></trkpt>
   <trkpt lat="68.548324" lon="17.506389"><ele>82.8</ele></trkpt>
   <trkpt lat="68.548320" lon="17.506370"><ele>82.8</ele></trkpt>
   <trkpt lat="68.548314" lon="17.506355"><ele>83.0</ele></trkpt>
   <trkpt lat="68.548296" lon="17.506298"><ele>83.8</ele></trkpt>
   <trkpt lat="68.548292" lon="17.506288"><ele>84.2</ele></trkpt>
   <trkpt lat="68.548276" lon="17.506223"><ele>84.4</ele></trkpt>
   <trkpt lat="68.548270" lon="17.506192"><ele>84.4</ele></trkpt>
   <trkpt lat="68.548263" lon="17.506170"><ele>84.8</ele></trkpt>
   <trkpt lat="68.548250" lon="17.506126"><ele>85.4</ele></trkpt>
   <trkpt lat="68.548241" lon="17.506092"><ele>85.8</ele></trkpt>
   <trkpt lat="68.548226" lon="17.506044"><ele>86.0</ele></trkpt>
   <trkpt lat="68.548211" lon="17.505953"><ele>87.2</ele></trkpt>
   <trkpt lat="68.548208" lon="17.505931"><ele>87.4</ele></trkpt>
   <trkpt lat="68.548196" lon="17.505876"><ele>88.2</ele></trkpt>
   <trkpt lat="68.548171" lon="17.505812"><ele>89.4</ele></trkpt>
   <trkpt lat="68.548167" lon="17.505790"><ele>89.6</ele></trkpt>
   <trkpt lat="68.548161" lon="17.505692"><ele>90.6</ele></trkpt>
   <trkpt lat="68.548159" lon="17.505686"><ele>90.8</ele></trkpt>
   <trkpt lat="68.548142" lon="17.505613"><ele>91.8</ele></trkpt>
   <trkpt lat="68.548131" lon="17.505583"><ele>92.2</ele></trkpt>
   <trkpt lat="68.548127" lon="17.505553"><ele>92.2</ele></trkpt>
   <trkpt lat="68.548114" lon="17.505484"><ele>92.8</ele></trkpt>
   <trkpt lat="68.548104" lon="17.505446"><ele>93.6</ele></trkpt>
   <trkpt lat="68.548095" lon="17.505409"><ele>93.8</ele></trkpt>
   <trkpt lat="68.548071" lon="17.505307"><ele>95.0</ele></trkpt>
   <trkpt lat="68.548055" lon="17.505260"><ele>95.4</ele></trkpt>
   <trkpt lat="68.548037" lon="17.505199"><ele>96.0</ele></trkpt>
   <trkpt lat="68.548014" lon="17.505086"><ele>97.0</ele></trkpt>
   <trkpt lat="68.547978" lon="17.504957"><ele>98.0</ele></trkpt>
   <trkpt lat="68.547963" lon="17.504889"><ele>98.6</ele></trkpt>
   <trkpt lat="68.547949" lon="17.504832"><ele>99.2</ele></trkpt>
   <trkpt lat="68.547926" lon="17.504735"><ele>100.2</ele></trkpt>
   <trkpt lat="68.547922" lon="17.504714"><ele>100.4</ele></trkpt>
   <trkpt lat="68.547914" lon="17.504628"><ele>101.6</ele></trkpt>
   <trkpt lat="68.547900" lon="17.504562"><ele>102.0</ele></trkpt>
   <trkpt lat="68.547883" lon="17.504489"><ele>102.8</ele></trkpt>
   <trkpt lat="68.547867" lon="17.504353"><ele>103.8</ele></trkpt>
   <trkpt lat="68.547865" lon="17.504334"><ele>104.0</ele></trkpt>
   <trkpt lat="68.547852" lon="17.504210"><ele>105.2</ele></trkpt>
   <trkpt lat="68.547812" lon="17.504062"><ele>106.2</ele></trkpt>
   <trkpt lat="68.547798" lon="17.503939"><ele>107.2</ele></trkpt>
   <trkpt lat="68.547787" lon="17.503822"><ele>108.2</ele></trkpt>
   <trkpt lat="68.547784" lon="17.503791"><ele>108.4</ele></trkpt>
   <trkpt lat="68.547755" lon="17.503694"><ele>109.2</ele></trkpt>
   <trkpt lat="68.547751" lon="17.503663"><ele>109.4</ele></trkpt>
   <trkpt lat="68.547747" lon="17.503623"><ele>109.8</ele></trkpt>
   <trkpt lat="68.547738" lon="17.503545"><ele>110.4</ele></trkpt>
   <trkpt lat="68.547716" lon="17.503514"><ele>111.2</ele></trkpt>
   <trkpt lat="68.547715" lon="17.503473"><ele>111.6</ele></trkpt>
   <trkpt lat="68.547693" lon="17.503294"><ele>112.8</ele></trkpt>
   <trkpt lat="68.547690" lon="17.503170"><ele>114.0</ele></trkpt>
   <trkpt lat="68.547690" lon="17.503066"><ele>115.0</ele></trkpt>
   <trkpt lat="68.547693" lon="17.503009"><ele>115.6</ele></trkpt>
   <trkpt lat="68.547718" lon="17.502904"><ele>116.2</ele></trkpt>
   <trkpt lat="68.547725" lon="17.502882"><ele>116.4</ele></trkpt>
   <trkpt lat="68.547745" lon="17.502813"><ele>117.2</ele></trkpt>
   <trkpt lat="68.547765" lon="17.502771"><ele>117.8</ele></trkpt>
   <trkpt lat="68.547792" lon="17.502735"><ele>118.2</ele></trkpt>
   <trkpt lat="68.547814" lon="17.502726"><ele>118.8</ele></trkpt>
   <trkpt lat="68.547825" lon="17.502730"><ele>119.0</ele></trkpt>
   <trkpt lat="68.547836" lon="17.502738"><ele>119.0</ele></trkpt>
   <trkpt lat="68.547858" lon="17.502747"><ele>119.4</ele></trkpt>
   <trkpt lat="68.547917" lon="17.502749"><ele>119.8</ele></trkpt>
   <trkpt lat="68.547926" lon="17.502759"><ele>120.0</ele></trkpt>
   <trkpt lat="68.547962" lon="17.502794"><ele>120.4</ele></trkpt>
   <trkpt lat="68.547983" lon="17.502829"><ele>120.6</ele></trkpt>
   <trkpt lat="68.548023" lon="17.502909"><ele>121.0</ele></trkpt>
   <trkpt lat="68.548044" lon="17.502919"><ele>121.0</ele></trkpt>
   <trkpt lat="68.548083" lon="17.502946"><ele>121.4</ele></trkpt>
   <trkpt lat="68.548133" lon="17.502999"><ele>122.2</ele></trkpt>
   <trkpt lat="68.548161" lon="17.503002"><ele>122.4</ele></trkpt>
   <trkpt lat="68.548173" lon="17.503009"><ele>122.6</ele></trkpt>
   <trkpt lat="68.548244" lon="17.502994"><ele>123.2</ele></trkpt>
   <trkpt lat="68.548267" lon="17.503032"><ele>123.8</ele></trkpt>
   <trkpt lat="68.548303" lon="17.503101"><ele>124.6</ele></trkpt>
   <trkpt lat="68.548320" lon="17.503113"><ele>124.8</ele></trkpt>
   <trkpt lat="68.548354" lon="17.503131"><ele>125.2</ele></trkpt>
   <trkpt lat="68.548375" lon="17.503146"><ele>125.6</ele></trkpt>
   <trkpt lat="68.548392" lon="17.503170"><ele>126.0</ele></trkpt>
   <trkpt lat="68.548448" lon="17.503189"><ele>126.6</ele></trkpt>
   <trkpt lat="68.548477" lon="17.503209"><ele>127.0</ele></trkpt>
   <trkpt lat="68.548506" lon="17.503237"><ele>127.8</ele></trkpt>
   <trkpt lat="68.548526" lon="17.503238"><ele>128.2</ele></trkpt>
   <trkpt lat="68.548559" lon="17.503259"><ele>129.0</ele></trkpt>
   <trkpt lat="68.548574" lon="17.503275"><ele>129.2</ele></trkpt>
   <trkpt lat="68.548609" lon="17.503341"><ele>130.2</ele></trkpt>
   <trkpt lat="68.548621" lon="17.503351"><ele>130.4</ele></trkpt>
   <trkpt lat="68.548652" lon="17.503362"><ele>130.8</ele></trkpt>
   <trkpt lat="68.548709" lon="17.503397"><ele>131.4</ele></trkpt>
   <trkpt lat="68.548805" lon="17.503400"><ele>132.6</ele></trkpt>
   <trkpt lat="68.548832" lon="17.503428"><ele>133.0</ele></trkpt>
   <trkpt lat="68.548864" lon="17.503434"><ele>133.6</ele></trkpt>
   <trkpt lat="68.548887" lon="17.503437"><ele>134.2</ele></trkpt>
   <trkpt lat="68.548924" lon="17.503430"><ele>134.4</ele></trkpt>
   <trkpt lat="68.548942" lon="17.503438"><ele>134.6</ele></trkpt>
   <trkpt lat="68.548953" lon="17.503434"><ele>135.0</ele></trkpt>
   <trkpt lat="68.548967" lon="17.503425"><ele>135.2</ele></trkpt>
   <trkpt lat="68.549002" lon="17.503416"><ele>136.0</ele></trkpt>
   <trkpt lat="68.549017" lon="17.503420"><ele>136.2</ele></trkpt>
   <trkpt lat="68.549049" lon="17.503425"><ele>136.6</ele></trkpt>
   <trkpt lat="68.549059" lon="17.503411"><ele>137.0</ele></trkpt>
   <trkpt lat="68.549102" lon="17.503452"><ele>137.2</ele></trkpt>
   <trkpt lat="68.549161" lon="17.503506"><ele>137.8</ele></trkpt>
   <trkpt lat="68.549177" lon="17.503489"><ele>138.2</ele></trkpt>
   <trkpt lat="68.549206" lon="17.503542"><ele>139.0</ele></trkpt>
   <trkpt lat="68.549206" lon="17.503554"><ele>139.2</ele></trkpt>
   <trkpt lat="68.549226" lon="17.503517"><ele>139.6</ele></trkpt>
   <trkpt lat="68.549261" lon="17.503496"><ele>140.2</ele></trkpt>
   <trkpt lat="68.549315" lon="17.503535"><ele>141.2</ele></trkpt>
   <trkpt lat="68.549324" lon="17.503541"><ele>141.4</ele></trkpt>
   <trkpt lat="68.549376" lon="17.503555"><ele>142.2</ele></trkpt>
   <trkpt lat="68.549419" lon="17.503547"><ele>142.6</ele></trkpt>
   <trkpt lat="68.549502" lon="17.503540"><ele>143.4</ele></trkpt>
   <trkpt lat="68.549526" lon="17.503538"><ele>143.6</ele></trkpt>
   <trkpt lat="68.549562" lon="17.503598"><ele>144.6</ele></trkpt>
   <trkpt lat="68.549623" lon="17.503634"><ele>145.6</ele></trkpt>
   <trkpt lat="68.549665" lon="17.503627"><ele>146.0</ele></trkpt>
   <trkpt lat="68.549689" lon="17.503629"><ele>146.6</ele></trkpt>
   <trkpt lat="68.549746" lon="17.503681"><ele>147.6</ele></trkpt>
   <trkpt lat="68.549755" lon="17.503682"><ele>147.6</ele></trkpt>
   <trkpt lat="68.549778" lon="17.503699"><ele>148.2</ele></trkpt>
   <trkpt lat="68.549804" lon="17.503727"><ele>148.6</ele></trkpt>
   <trkpt lat="68.549814" lon="17.503739"><ele>148.8</ele></trkpt>
   <trkpt lat="68.549891" lon="17.503799"><ele>149.8</ele></trkpt>
   <trkpt lat="68.549900" lon="17.503806"><ele>150.0</ele></trkpt>
   <trkpt lat="68.549957" lon="17.503853"><ele>150.6</ele></trkpt>
   <trkpt lat="68.549968" lon="17.503857"><ele>150.8</ele></trkpt>
   <trkpt lat="68.549975" lon="17.503867"><ele>150.8</ele></trkpt>
   <trkpt lat="68.550027" lon="17.503911"><ele>151.2</ele></trkpt>
   <trkpt lat="68.550096" lon="17.503959"><ele>151.4</ele></trkpt>
   <trkpt lat="68.550125" lon="17.503993"><ele>151.6</ele></trkpt>
   <trkpt lat="68.550213" lon="17.504055"><ele>151.4</ele></trkpt>
   <trkpt lat="68.550238" lon="17.504077"><ele>151.4</ele></trkpt>
   <trkpt lat="68.550271" lon="17.504136"><ele>151.0</ele></trkpt>
   <trkpt lat="68.550307" lon="17.504162"><ele>150.6</ele></trkpt>
   <trkpt lat="68.550358" lon="17.504192"><ele>150.6</ele></trkpt>
   <trkpt lat="68.550387" lon="17.504221"><ele>150.4</ele></trkpt>
   <trkpt lat="68.550459" lon="17.504273"><ele>150.6</ele></trkpt>
   <trkpt lat="68.550478" lon="17.504299"><ele>151.0</ele></trkpt>
   <trkpt lat="68.550539" lon="17.504380"><ele>151.6</ele></trkpt>
   <trkpt lat="68.550546" lon="17.504399"><ele>151.8</ele></trkpt>
   <trkpt lat="68.550551" lon="17.504410"><ele>152.0</ele></trkpt>
   <trkpt lat="68.550593" lon="17.504426"><ele>152.4</ele></trkpt>
   <trkpt lat="68.550637" lon="17.504450"><ele>152.6</ele></trkpt>
   <trkpt lat="68.550649" lon="17.504464"><ele>152.8</ele></trkpt>
   <trkpt lat="68.550665" lon="17.504492"><ele>153.2</ele></trkpt>
   <trkpt lat="68.550670" lon="17.504502"><ele>154.0</ele></trkpt>
   <trkpt lat="68.550670" lon="17.504502"><ele>154.2</ele></trkpt>
   <trkpt lat="68.550671" lon="17.504531"><ele>154.0</ele></trkpt>
   <trkpt lat="68.550720" lon="17.504594"><ele>153.8</ele></trkpt>
   <trkpt lat="68.550747" lon="17.504592"><ele>153.8</ele></trkpt>
   <trkpt lat="68.550802" lon="17.504670"><ele>154.0</ele></trkpt>
   <trkpt lat="68.550842" lon="17.504694"><ele>154.4</ele></trkpt>
   <trkpt lat="68.550917" lon="17.504756"><ele>155.4</ele></trkpt>
   <trkpt lat="68.550943" lon="17.504771"><ele>155.6</ele></trkpt>
   <trkpt lat="68.550959" lon="17.504771"><ele>155.8</ele></trkpt>
   <trkpt lat="68.551025" lon="17.504797"><ele>156.0</ele></trkpt>
   <trkpt lat="68.551068" lon="17.504792"><ele>156.0</ele></trkpt>
   <trkpt lat="68.551081" lon="17.504794"><ele>156.2</ele></trkpt>
   <trkpt lat="68.551146" lon="17.504885"><ele>156.2</ele></trkpt>
   <trkpt lat="68.551207" lon="17.504951"><ele>156.0</ele></trkpt>
   <trkpt lat="68.551263" lon="17.505068"><ele>155.8</ele></trkpt>
   <trkpt lat="68.551293" lon="17.505104"><ele>155.8</ele></trkpt>
   <trkpt lat="68.551341" lon="17.505194"><ele>155.6</ele></trkpt>
   <trkpt lat="68.551366" lon="17.505239"><ele>155.4</ele></trkpt>
   <trkpt lat="68.551371" lon="17.505271"><ele>155.4</ele></trkpt>
   <trkpt lat="68.551416" lon="17.505332"><ele>155.2</ele></trkpt>
   <trkpt lat="68.551430" lon="17.505333"><ele>155.2</ele></trkpt>
   <trkpt lat="68.551442" lon="17.505339"><ele>155.2</ele></trkpt>
   <trkpt lat="68.551453" lon="17.505350"><ele>155.2</ele></trkpt>
   <trkpt lat="68.551464" lon="17.505361"><ele>155.2</ele></trkpt>
   <trkpt lat="68.551473" lon="17.505381"><ele>155.2</ele></trkpt>
   <trkpt lat="68.551510" lon="17.505401"><ele>155.2</ele></trkpt>
   <trkpt lat="68.551521" lon="17.505414"><ele>155.2</ele></trkpt>
   <trkpt lat="68.551553" lon="17.505443"><ele>155.4</ele></trkpt>
   <trkpt lat="68.551554" lon="17.505459"><ele>155.6</ele></trkpt>
   <trkpt lat="68.551587" lon="17.505448"><ele>155.8</ele></trkpt>
   <trkpt lat="68.551608" lon="17.505487"><ele>156.2</ele></trkpt>
   <trkpt lat="68.551616" lon="17.505507"><ele>156.4</ele></trkpt>
   <trkpt lat="68.551659" lon="17.505501"><ele>157.0</ele></trkpt>
   <trkpt lat="68.551667" lon="17.505507"><ele>157.2</ele></trkpt>
   <trkpt lat="68.551690" lon="17.505508"><ele>157.4</ele></trkpt>
   <trkpt lat="68.551718" lon="17.505518"><ele>157.8</ele></trkpt>
   <trkpt lat="68.551753" lon="17.505523"><ele>158.4</ele></trkpt>
   <trkpt lat="68.551762" lon="17.505537"><ele>158.6</ele></trkpt>
   <trkpt lat="68.551770" lon="17.505550"><ele>158.6</ele></trkpt>
   <trkpt lat="68.551778" lon="17.505560"><ele>158.8</ele></trkpt>
   <trkpt lat="68.551825" lon="17.505586"><ele>159.2</ele></trkpt>
   <trkpt lat="68.551832" lon="17.505600"><ele>159.2</ele></trkpt>
   <trkpt lat="68.551862" lon="17.505619"><ele>159.6</ele></trkpt>
   <trkpt lat="68.551875" lon="17.505632"><ele>159.6</ele></trkpt>
   <trkpt lat="68.551965" lon="17.505652"><ele>160.0</ele></trkpt>
   <trkpt lat="68.551982" lon="17.505662"><ele>160.2</ele></trkpt>
   <trkpt lat="68.552021" lon="17.505688"><ele>160.4</ele></trkpt>
   <trkpt lat="68.552037" lon="17.505691"><ele>160.4</ele></trkpt>
   <trkpt lat="68.552044" lon="17.505703"><ele>160.6</ele></trkpt>
   <trkpt lat="68.552050" lon="17.505720"><ele>160.8</ele></trkpt>
   <trkpt lat="68.552075" lon="17.505862"><ele>161.2</ele></trkpt>
   <trkpt lat="68.552092" lon="17.505905"><ele>161.2</ele></trkpt>
   <trkpt lat="68.552178" lon="17.505905"><ele>161.2</ele></trkpt>
   <trkpt lat="68.552193" lon="17.505893"><ele>161.2</ele></trkpt>
   <trkpt lat="68.552233" lon="17.505864"><ele>161.6</ele></trkpt>
   <trkpt lat="68.552242" lon="17.505861"><ele>161.8</ele></trkpt>
   <trkpt lat="68.552280" lon="17.505844"><ele>162.8</ele></trkpt>
   <trkpt lat="68.552284" lon="17.505845"><ele>163.0</ele></trkpt>
   <trkpt lat="68.552306" lon="17.505836"><ele>163.8</ele></trkpt>
   <trkpt lat="68.552323" lon="17.505865"><ele>164.4</ele></trkpt>
   <trkpt lat="68.552349" lon="17.505864"><ele>164.8</ele></trkpt>
   <trkpt lat="68.552362" lon="17.505859"><ele>165.2</ele></trkpt>
   <trkpt lat="68.552411" lon="17.505880"><ele>165.8</ele></trkpt>
   <trkpt lat="68.552438" lon="17.505878"><ele>166.2</ele></trkpt>
   <trkpt lat="68.552456" lon="17.505893"><ele>166.6</ele></trkpt>
   <trkpt lat="68.552482" lon="17.505891"><ele>167.0</ele></trkpt>
   <trkpt lat="68.552483" lon="17.505895"><ele>167.2</ele></trkpt>
   <trkpt lat="68.552512" lon="17.505929"><ele>168.0</ele></trkpt>
   <trkpt lat="68.552516" lon="17.505928"><ele>168.0</ele></trkpt>
   <trkpt lat="68.552534" lon="17.505919"><ele>168.2</ele></trkpt>
   <trkpt lat="68.552578" lon="17.505922"><ele>169.2</ele></trkpt>
   <trkpt lat="68.552614" lon="17.505927"><ele>170.0</ele></trkpt>
   <trkpt lat="68.552636" lon="17.505937"><ele>170.2</ele></trkpt>
   <trkpt lat="68.552660" lon="17.505944"><ele>171.0</ele></trkpt>
   <trkpt lat="68.552664" lon="17.505955"><ele>171.4</ele></trkpt>
   <trkpt lat="68.552672" lon="17.505956"><ele>171.6</ele></trkpt>
   <trkpt lat="68.552702" lon="17.505941"><ele>172.4</ele></trkpt>
   <trkpt lat="68.552739" lon="17.505966"><ele>173.4</ele></trkpt>
   <trkpt lat="68.552751" lon="17.505966"><ele>173.6</ele></trkpt>
   <trkpt lat="68.552781" lon="17.505974"><ele>174.6</ele></trkpt>
   <trkpt lat="68.552799" lon="17.505973"><ele>175.2</ele></trkpt>
   <trkpt lat="68.552817" lon="17.505967"><ele>175.6</ele></trkpt>
   <trkpt lat="68.552843" lon="17.505916"><ele>176.6</ele></trkpt>
   <trkpt lat="68.552853" lon="17.505906"><ele>176.8</ele></trkpt>
   <trkpt lat="68.552863" lon="17.505906"><ele>177.0</ele></trkpt>
   <trkpt lat="68.552873" lon="17.505882"><ele>177.8</ele></trkpt>
   <trkpt lat="68.552871" lon="17.505835"><ele>178.6</ele></trkpt>
   <trkpt lat="68.552870" lon="17.505833"><ele>179.0</ele></trkpt>
   <trkpt lat="68.552872" lon="17.505813"><ele>179.4</ele></trkpt>
   <trkpt lat="68.552863" lon="17.505795"><ele>180.2</ele></trkpt>
   <trkpt lat="68.552849" lon="17.505769"><ele>180.8</ele></trkpt>
   <trkpt lat="68.552847" lon="17.505754"><ele>181.2</ele></trkpt>
   <trkpt lat="68.552846" lon="17.505743"><ele>181.4</ele></trkpt>
   <trkpt lat="68.552828" lon="17.505677"><ele>182.2</ele></trkpt>
   <trkpt lat="68.552827" lon="17.505669"><ele>182.4</ele></trkpt>
   <trkpt lat="68.552825" lon="17.505662"><ele>182.4</ele></trkpt>
   <trkpt lat="68.552810" lon="17.505636"><ele>183.2</ele></trkpt>
   <trkpt lat="68.552808" lon="17.505631"><ele>183.2</ele></trkpt>
   <trkpt lat="68.552801" lon="17.505624"><ele>183.4</ele></trkpt>
   <trkpt lat="68.552775" lon="17.505573"><ele>184.2</ele></trkpt>
   <trkpt lat="68.552770" lon="17.505560"><ele>184.4</ele></trkpt>
   <trkpt lat="68.552727" lon="17.505522"><ele>185.6</ele></trkpt>
   <trkpt lat="68.552714" lon="17.505511"><ele>186.0</ele></trkpt>
   <trkpt lat="68.552700" lon="17.505500"><ele>186.4</ele></trkpt>
   <trkpt lat="68.552695" lon="17.505486"><ele>186.6</ele></trkpt>
   <trkpt lat="68.552690" lon="17.505462"><ele>186.8</ele></trkpt>
   <trkpt lat="68.552684" lon="17.505435"><ele>187.6</ele></trkpt>
   <trkpt lat="68.552661" lon="17.505398"><ele>188.2</ele></trkpt>
   <trkpt lat="68.552654" lon="17.505399"><ele>188.4</ele></trkpt>
   <trkpt lat="68.552646" lon="17.505400"><ele>188.6</ele></trkpt>
   <trkpt lat="68.552612" lon="17.505363"><ele>189.4</ele></trkpt>
   <trkpt lat="68.552601" lon="17.505358"><ele>189.8</ele></trkpt>
   <trkpt lat="68.552591" lon="17.505352"><ele>190.0</ele></trkpt>
   <trkpt lat="68.552576" lon="17.505294"><ele>190.4</ele></trkpt>
   <trkpt lat="68.552553" lon="17.505226"><ele>190.8</ele></trkpt>
   <trkpt lat="68.552523" lon="17.505187"><ele>191.4</ele></trkpt>
   <trkpt lat="68.552494" lon="17.505094"><ele>192.0</ele></trkpt>
   <trkpt lat="68.552478" lon="17.505031"><ele>192.4</ele></trkpt>
   <trkpt lat="68.552462" lon="17.504972"><ele>193.0</ele></trkpt>
   <trkpt lat="68.552428" lon="17.504933"><ele>193.6</ele></trkpt>
   <trkpt lat="68.552408" lon="17.504901"><ele>194.0</ele></trkpt>
   <trkpt lat="68.552396" lon="17.504843"><ele>194.4</ele></trkpt>
   <trkpt lat="68.552370" lon="17.504735"><ele>194.8</ele></trkpt>
   <trkpt lat="68.552365" lon="17.504717"><ele>195.0</ele></trkpt>
   <trkpt lat="68.552363" lon="17.504704"><ele>195.0</ele></trkpt>
   <trkpt lat="68.552339" lon="17.504584"><ele>195.8</ele></trkpt>
   <trkpt lat="68.552335" lon="17.504572"><ele>196.0</ele></trkpt>
   <trkpt lat="68.552328" lon="17.504533"><ele>196.2</ele></trkpt>
   <trkpt lat="68.552316" lon="17.504419"><ele>196.8</ele></trkpt>
   <trkpt lat="68.552311" lon="17.504376"><ele>197.2</ele></trkpt>
   <trkpt lat="68.552310" lon="17.504352"><ele>197.4</ele></trkpt>
   <trkpt lat="68.552309" lon="17.504300"><ele>197.6</ele></trkpt>
   <trkpt lat="68.552307" lon="17.504233"><ele>198.0</ele></trkpt>
   <trkpt lat="68.552309" lon="17.504127"><ele>198.4</ele></trkpt>
   <trkpt lat="68.552300" lon="17.504071"><ele>198.8</ele></trkpt>
   <trkpt lat="68.552306" lon="17.504007"><ele>199.2</ele></trkpt>
   <trkpt lat="68.552319" lon="17.503954"><ele>199.4</ele></trkpt>
   <trkpt lat="68.552338" lon="17.503808"><ele>200.0</ele></trkpt>
   <trkpt lat="68.552355" lon="17.503749"><ele>200.6</ele></trkpt>
   <trkpt lat="68.552372" lon="17.503645"><ele>201.2</ele></trkpt>
   <trkpt lat="68.552369" lon="17.503610"><ele>201.8</ele></trkpt>
   <trkpt lat="68.552364" lon="17.503584"><ele>202.0</ele></trkpt>
   <trkpt lat="68.552329" lon="17.503490"><ele>202.6</ele></trkpt>
   <trkpt lat="68.552323" lon="17.503473"><ele>202.8</ele></trkpt>
   <trkpt lat="68.552317" lon="17.503457"><ele>202.8</ele></trkpt>
   <trkpt lat="68.552284" lon="17.503368"><ele>203.6</ele></trkpt>
   <trkpt lat="68.552283" lon="17.503352"><ele>203.8</ele></trkpt>
   <trkpt lat="68.552272" lon="17.503326"><ele>204.0</ele></trkpt>
   <trkpt lat="68.552263" lon="17.503296"><ele>204.2</ele></trkpt>
   <trkpt lat="68.552247" lon="17.503276"><ele>204.4</ele></trkpt>
   <trkpt lat="68.552226" lon="17.503228"><ele>204.6</ele></trkpt>
   <trkpt lat="68.552187" lon="17.503187"><ele>205.0</ele></trkpt>
   <trkpt lat="68.552172" lon="17.503130"><ele>205.2</ele></trkpt>
   <trkpt lat="68.552165" lon="17.503098"><ele>205.2</ele></trkpt>
   <trkpt lat="68.552131" lon="17.503012"><ele>206.0</ele></trkpt>
   <trkpt lat="68.552123" lon="17.503007"><ele>206.0</ele></trkpt>
   <trkpt lat="68.552112" lon="17.502983"><ele>206.2</ele></trkpt>
   <trkpt lat="68.552064" lon="17.502858"><ele>206.8</ele></trkpt>
   <trkpt lat="68.552056" lon="17.502840"><ele>206.8</ele></trkpt>
   <trkpt lat="68.552052" lon="17.502839"><ele>207.0</ele></trkpt>
   <trkpt lat="68.552041" lon="17.502808"><ele>207.4</ele></trkpt>
   <trkpt lat="68.552032" lon="17.502790"><ele>207.6</ele></trkpt>
   <trkpt lat="68.552027" lon="17.502774"><ele>207.8</ele></trkpt>
   <trkpt lat="68.552025" lon="17.502756"><ele>207.8</ele></trkpt>
   <trkpt lat="68.552015" lon="17.502722"><ele>208.0</ele></trkpt>
   <trkpt lat="68.551985" lon="17.502604"><ele>208.8</ele></trkpt>
   <trkpt lat="68.551983" lon="17.502586"><ele>209.0</ele></trkpt>
   <trkpt lat="68.551968" lon="17.502537"><ele>209.2</ele></trkpt>
   <trkpt lat="68.551939" lon="17.502459"><ele>210.0</ele></trkpt>
   <trkpt lat="68.551899" lon="17.502368"><ele>210.2</ele></trkpt>
   <trkpt lat="68.551873" lon="17.502312"><ele>210.6</ele></trkpt>
   <trkpt lat="68.551841" lon="17.502235"><ele>211.2</ele></trkpt>
   <trkpt lat="68.551826" lon="17.502185"><ele>211.4</ele></trkpt>
   <trkpt lat="68.551820" lon="17.502169"><ele>211.6</ele></trkpt>
   <trkpt lat="68.551771" lon="17.502082"><ele>212.2</ele></trkpt>
   <trkpt lat="68.551750" lon="17.502061"><ele>212.6</ele></trkpt>
   <trkpt lat="68.551708" lon="17.501995"><ele>213.4</ele></trkpt>
   <trkpt lat="68.551673" lon="17.501940"><ele>214.0</ele></trkpt>
   <trkpt lat="68.551661" lon="17.501907"><ele>214.4</ele></trkpt>
   <trkpt lat="68.551645" lon="17.501772"><ele>215.0</ele></trkpt>
   <trkpt lat="68.551650" lon="17.501742"><ele>215.2</ele></trkpt>
   <trkpt lat="68.551667" lon="17.501661"><ele>215.4</ele></trkpt>
   <trkpt lat="68.551671" lon="17.501649"><ele>215.6</ele></trkpt>
   <trkpt lat="68.551686" lon="17.501644"><ele>216.0</ele></trkpt>
   <trkpt lat="68.551715" lon="17.501633"><ele>216.6</ele></trkpt>
   <trkpt lat="68.551752" lon="17.501612"><ele>217.2</ele></trkpt>
   <trkpt lat="68.551778" lon="17.501589"><ele>217.6</ele></trkpt>
   <trkpt lat="68.551813" lon="17.501580"><ele>218.6</ele></trkpt>
   <trkpt lat="68.551817" lon="17.501579"><ele>218.8</ele></trkpt>
   <trkpt lat="68.551859" lon="17.501611"><ele>219.8</ele></trkpt>
   <trkpt lat="68.551879" lon="17.501598"><ele>220.0</ele></trkpt>
   <trkpt lat="68.551917" lon="17.501576"><ele>221.0</ele></trkpt>
   <trkpt lat="68.551965" lon="17.501573"><ele>221.6</ele></trkpt>
   <trkpt lat="68.551976" lon="17.501572"><ele>222.2</ele></trkpt>
   <trkpt lat="68.552014" lon="17.501543"><ele>223.0</ele></trkpt>
   <trkpt lat="68.552026" lon="17.501548"><ele>223.2</ele></trkpt>
   <trkpt lat="68.552049" lon="17.501526"><ele>223.8</ele></trkpt>
   <trkpt lat="68.552073" lon="17.501539"><ele>224.4</ele></trkpt>
   <trkpt lat="68.552118" lon="17.501527"><ele>225.4</ele></trkpt>
   <trkpt lat="68.552151" lon="17.501566"><ele>226.4</ele></trkpt>
   <trkpt lat="68.552177" lon="17.501560"><ele>227.0</ele></trkpt>
   <trkpt lat="68.552204" lon="17.501583"><ele>227.6</ele></trkpt>
   <trkpt lat="68.552238" lon="17.501591"><ele>228.8</ele></trkpt>
   <trkpt lat="68.552285" lon="17.501595"><ele>229.8</ele></trkpt>
   <trkpt lat="68.552305" lon="17.501590"><ele>230.4</ele></trkpt>
   <trkpt lat="68.552329" lon="17.501609"><ele>231.0</ele></trkpt>
   <trkpt lat="68.552360" lon="17.501654"><ele>232.0</ele></trkpt>
   <trkpt lat="68.552378" lon="17.501694"><ele>232.6</ele></trkpt>
   <trkpt lat="68.552397" lon="17.501714"><ele>233.0</ele></trkpt>
   <trkpt lat="68.552445" lon="17.501721"><ele>234.4</ele></trkpt>
   <trkpt lat="68.552482" lon="17.501729"><ele>235.4</ele></trkpt>
   <trkpt lat="68.552506" lon="17.501746"><ele>235.8</ele></trkpt>
   <trkpt lat="68.552525" lon="17.501763"><ele>236.4</ele></trkpt>
   <trkpt lat="68.552571" lon="17.501781"><ele>237.4</ele></trkpt>
   <trkpt lat="68.552595" lon="17.501780"><ele>238.2</ele></trkpt>
   <trkpt lat="68.552600" lon="17.501792"><ele>238.4</ele></trkpt>
   <trkpt lat="68.552646" lon="17.501824"><ele>239.6</ele></trkpt>
   <trkpt lat="68.552662" lon="17.501829"><ele>240.0</ele></trkpt>
   <trkpt lat="68.552693" lon="17.501862"><ele>240.6</ele></trkpt>
   <trkpt lat="68.552741" lon="17.501859"><ele>241.8</ele></trkpt>
   <trkpt lat="68.552787" lon="17.501917"><ele>242.8</ele></trkpt>
   <trkpt lat="68.552793" lon="17.501924"><ele>243.0</ele></trkpt>
   <trkpt lat="68.552840" lon="17.501919"><ele>244.0</ele></trkpt>
   <trkpt lat="68.552847" lon="17.501917"><ele>244.2</ele></trkpt>
   <trkpt lat="68.552866" lon="17.501921"><ele>244.8</ele></trkpt>
   <trkpt lat="68.552885" lon="17.501928"><ele>245.4</ele></trkpt>
   <trkpt lat="68.552917" lon="17.501919"><ele>246.0</ele></trkpt>
   <trkpt lat="68.552932" lon="17.501912"><ele>246.4</ele></trkpt>
   <trkpt lat="68.552983" lon="17.501926"><ele>247.6</ele></trkpt>
   <trkpt lat="68.552989" lon="17.501936"><ele>247.8</ele></trkpt>
   <trkpt lat="68.553023" lon="17.501936"><ele>248.6</ele></trkpt>
   <trkpt lat="68.553063" lon="17.501941"><ele>249.4</ele></trkpt>
   <trkpt lat="68.553082" lon="17.501929"><ele>249.8</ele></trkpt>
   <trkpt lat="68.553126" lon="17.501944"><ele>250.8</ele></trkpt>
   <trkpt lat="68.553136" lon="17.501940"><ele>251.0</ele></trkpt>
   <trkpt lat="68.553152" lon="17.501916"><ele>251.2</ele></trkpt>
   <trkpt lat="68.553180" lon="17.501901"><ele>251.8</ele></trkpt>
   <trkpt lat="68.553213" lon="17.501898"><ele>252.6</ele></trkpt>
   <trkpt lat="68.553218" lon="17.501894"><ele>253.0</ele></trkpt>
   <trkpt lat="68.553256" lon="17.501872"><ele>253.4</ele></trkpt>
   <trkpt lat="68.553305" lon="17.501875"><ele>254.0</ele></trkpt>
   <trkpt lat="68.553344" lon="17.501875"><ele>254.6</ele></trkpt>
   <trkpt lat="68.553395" lon="17.501834"><ele>255.0</ele></trkpt>
   <trkpt lat="68.553422" lon="17.501813"><ele>255.0</ele></trkpt>
   <trkpt lat="68.553429" lon="17.501805"><ele>255.0</ele></trkpt>
   <trkpt lat="68.553461" lon="17.501801"><ele>255.2</ele></trkpt>
   <trkpt lat="68.553512" lon="17.501762"><ele>255.6</ele></trkpt>
   <trkpt lat="68.553520" lon="17.501754"><ele>255.6</ele></trkpt>
   <trkpt lat="68.553549" lon="17.501737"><ele>256.2</ele></trkpt>
   <trkpt lat="68.553567" lon="17.501708"><ele>256.4</ele></trkpt>
   <trkpt lat="68.553606" lon="17.501677"><ele>256.8</ele></trkpt>
   <trkpt lat="68.553636" lon="17.501623"><ele>257.4</ele></trkpt>
   <trkpt lat="68.553671" lon="17.501594"><ele>258.2</ele></trkpt>
   <trkpt lat="68.553682" lon="17.501578"><ele>258.4</ele></trkpt>
   <trkpt lat="68.553721" lon="17.501514"><ele>259.2</ele></trkpt>
   <trkpt lat="68.553739" lon="17.501487"><ele>259.6</ele></trkpt>
   <trkpt lat="68.553774" lon="17.501513"><ele>260.6</ele></trkpt>
   <trkpt lat="68.553780" lon="17.501519"><ele>260.8</ele></trkpt>
   <trkpt lat="68.553811" lon="17.501496"><ele>261.4</ele></trkpt>
   <trkpt lat="68.553821" lon="17.501486"><ele>261.6</ele></trkpt>
   <trkpt lat="68.553857" lon="17.501490"><ele>262.4</ele></trkpt>
   <trkpt lat="68.553874" lon="17.501492"><ele>262.8</ele></trkpt>
   <trkpt lat="68.553908" lon="17.501445"><ele>264.0</ele></trkpt>
   <trkpt lat="68.553916" lon="17.501412"><ele>264.2</ele></trkpt>
   <trkpt lat="68.553921" lon="17.501367"><ele>264.6</ele></trkpt>
   <trkpt lat="68.553926" lon="17.501315"><ele>265.0</ele></trkpt>
   <trkpt lat="68.553921" lon="17.501238"><ele>265.8</ele></trkpt>
   <trkpt lat="68.553912" lon="17.501203"><ele>266.2</ele></trkpt>
   <trkpt lat="68.553902" lon="17.501175"><ele>266.8</ele></trkpt>
   <trkpt lat="68.553889" lon="17.501147"><ele>267.2</ele></trkpt>
   <trkpt lat="68.553865" lon="17.501053"><ele>268.0</ele></trkpt>
   <trkpt lat="68.553864" lon="17.500988"><ele>268.2</ele></trkpt>
   <trkpt lat="68.553883" lon="17.500837"><ele>269.0</ele></trkpt>
   <trkpt lat="68.553887" lon="17.500817"><ele>269.0</ele></trkpt>
   <trkpt lat="68.553899" lon="17.500767"><ele>269.4</ele></trkpt>
   <trkpt lat="68.553945" lon="17.500694"><ele>270.4</ele></trkpt>
   <trkpt lat="68.553951" lon="17.500679"><ele>270.6</ele></trkpt>
   <trkpt lat="68.553984" lon="17.500641"><ele>271.4</ele></trkpt>
   <trkpt lat="68.554029" lon="17.500645"><ele>272.0</ele></trkpt>
   <trkpt lat="68.554070" lon="17.500673"><ele>272.6</ele></trkpt>
   <trkpt lat="68.554116" lon="17.500708"><ele>273.0</ele></trkpt>
   <trkpt lat="68.554125" lon="17.500724"><ele>273.0</ele></trkpt>
   <trkpt lat="68.554170" lon="17.500827"><ele>273.4</ele></trkpt>
   <trkpt lat="68.554179" lon="17.500845"><ele>273.6</ele></trkpt>
   <trkpt lat="68.554193" lon="17.500877"><ele>273.8</ele></trkpt>
   <trkpt lat="68.554252" lon="17.501037"><ele>274.4</ele></trkpt>
   <trkpt lat="68.554260" lon="17.501059"><ele>274.6</ele></trkpt>
   <trkpt lat="68.554261" lon="17.501062"><ele>274.8</ele></trkpt>
   <trkpt lat="68.554262" lon="17.501069"><ele>275.0</ele></trkpt>
   <trkpt lat="68.554269" lon="17.501118"><ele>275.2</ele></trkpt>
   <trkpt lat="68.554303" lon="17.501248"><ele>275.4</ele></trkpt>
   <trkpt lat="68.554325" lon="17.501336"><ele>275.2</ele></trkpt>
   <trkpt lat="68.554363" lon="17.501432"><ele>274.8</ele></trkpt>
   <trkpt lat="68.554379" lon="17.501468"><ele>274.8</ele></trkpt>
   <trkpt lat="68.554395" lon="17.501625"><ele>274.4</ele></trkpt>
   <trkpt lat="68.554407" lon="17.501691"><ele>274.2</ele></trkpt>
   <trkpt lat="68.554424" lon="17.501714"><ele>274.4</ele></trkpt>
   <trkpt lat="68.554437" lon="17.501761"><ele>274.6</ele></trkpt>
   <trkpt lat="68.554455" lon="17.501809"><ele>275.0</ele></trkpt>
   <trkpt lat="68.554475" lon="17.501840"><ele>275.8</ele></trkpt>
   <trkpt lat="68.554523" lon="17.501946"><ele>276.8</ele></trkpt>
   <trkpt lat="68.554531" lon="17.501968"><ele>277.0</ele></trkpt>
   <trkpt lat="68.554574" lon="17.502065"><ele>277.4</ele></trkpt>
   <trkpt lat="68.554580" lon="17.502085"><ele>277.6</ele></trkpt>
   <trkpt lat="68.554595" lon="17.502114"><ele>277.8</ele></trkpt>
   <trkpt lat="68.554637" lon="17.502173"><ele>278.0</ele></trkpt>
   <trkpt lat="68.554643" lon="17.502189"><ele>278.0</ele></trkpt>
   <trkpt lat="68.554652" lon="17.502206"><ele>278.0</ele></trkpt>
   <trkpt lat="68.554691" lon="17.502285"><ele>278.6</ele></trkpt>
   <trkpt lat="68.554732" lon="17.502376"><ele>279.0</ele></trkpt>
   <trkpt lat="68.554753" lon="17.502426"><ele>279.2</ele></trkpt>
   <trkpt lat="68.554760" lon="17.502430"><ele>279.4</ele></trkpt>
   <trkpt lat="68.554787" lon="17.502479"><ele>280.2</ele></trkpt>
   <trkpt lat="68.554794" lon="17.502497"><ele>280.4</ele></trkpt>
   <trkpt lat="68.554838" lon="17.502598"><ele>281.0</ele></trkpt>
   <trkpt lat="68.554854" lon="17.502661"><ele>281.0</ele></trkpt>
   <trkpt lat="68.554871" lon="17.502742"><ele>281.2</ele></trkpt>
   <trkpt lat="68.554880" lon="17.502764"><ele>281.2</ele></trkpt>
   <trkpt lat="68.554915" lon="17.502816"><ele>281.2</ele></trkpt>
   <trkpt lat="68.554966" lon="17.502883"><ele>281.4</ele></trkpt>
   <trkpt lat="68.555001" lon="17.502973"><ele>281.8</ele></trkpt>
   <trkpt lat="68.555020" lon="17.503029"><ele>282.2</ele></trkpt>
   <trkpt lat="68.555054" lon="17.503102"><ele>283.0</ele></trkpt>
   <trkpt lat="68.555087" lon="17.503129"><ele>283.4</ele></trkpt>
   <trkpt lat="68.555118" lon="17.503168"><ele>283.8</ele></trkpt>
   <trkpt lat="68.555146" lon="17.503317"><ele>284.6</ele></trkpt>
   <trkpt lat="68.555155" lon="17.503417"><ele>285.0</ele></trkpt>
   <trkpt lat="68.555169" lon="17.503536"><ele>285.6</ele></trkpt>
   <trkpt lat="68.555185" lon="17.503607"><ele>285.6</ele></trkpt>
   <trkpt lat="68.555243" lon="17.503732"><ele>285.8</ele></trkpt>
   <trkpt lat="68.555250" lon="17.503729"><ele>285.8</ele></trkpt>
   <trkpt lat="68.555255" lon="17.503721"><ele>286.0</ele></trkpt>
   <trkpt lat="68.555276" lon="17.503664"><ele>286.2</ele></trkpt>
   <trkpt lat="68.555295" lon="17.503661"><ele>286.4</ele></trkpt>
   <trkpt lat="68.555312" lon="17.503650"><ele>286.6</ele></trkpt>
   <trkpt lat="68.555333" lon="17.503667"><ele>286.8</ele></trkpt>
   <trkpt lat="68.555393" lon="17.503723"><ele>287.2</ele></trkpt>
   <trkpt lat="68.555417" lon="17.503752"><ele>287.8</ele></trkpt>
   <trkpt lat="68.555433" lon="17.503782"><ele>288.0</ele></trkpt>
   <trkpt lat="68.555475" lon="17.503868"><ele>288.8</ele></trkpt>
   <trkpt lat="68.555483" lon="17.503880"><ele>289.0</ele></trkpt>
   <trkpt lat="68.555514" lon="17.503927"><ele>289.4</ele></trkpt>
   <trkpt lat="68.555533" lon="17.503945"><ele>289.6</ele></trkpt>
   <trkpt lat="68.555562" lon="17.503988"><ele>290.0</ele></trkpt>
   <trkpt lat="68.555628" lon="17.504008"><ele>290.4</ele></trkpt>
   <trkpt lat="68.555637" lon="17.504006"><ele>290.4</ele></trkpt>
   <trkpt lat="68.555657" lon="17.503988"><ele>290.6</ele></trkpt>
   <trkpt lat="68.555719" lon="17.503922"><ele>291.0</ele></trkpt>
   <trkpt lat="68.555727" lon="17.503905"><ele>291.0</ele></trkpt>
   <trkpt lat="68.555760" lon="17.503790"><ele>291.6</ele></trkpt>
   <trkpt lat="68.555768" lon="17.503735"><ele>292.0</ele></trkpt>
   <trkpt lat="68.555774" lon="17.503716"><ele>292.2</ele></trkpt>
   <trkpt lat="68.555811" lon="17.503611"><ele>292.4</ele></trkpt>
   <trkpt lat="68.555830" lon="17.503511"><ele>292.4</ele></trkpt>
   <trkpt lat="68.555841" lon="17.503478"><ele>292.4</ele></trkpt>
   <trkpt lat="68.555883" lon="17.503391"><ele>293.0</ele></trkpt>
   <trkpt lat="68.555889" lon="17.503381"><ele>293.2</ele></trkpt>
   <trkpt lat="68.555897" lon="17.503374"><ele>293.2</ele></trkpt>
   <trkpt lat="68.555951" lon="17.503353"><ele>294.2</ele></trkpt>
   <trkpt lat="68.555955" lon="17.503343"><ele>294.2</ele></trkpt>
   <trkpt lat="68.555999" lon="17.503344"><ele>295.2</ele></trkpt>
   <trkpt lat="68.556007" lon="17.503347"><ele>295.4</ele></trkpt>
   <trkpt lat="68.556019" lon="17.503332"><ele>296.0</ele></trkpt>
   <trkpt lat="68.556030" lon="17.503276"><ele>296.6</ele></trkpt>
   <trkpt lat="68.556036" lon="17.503248"><ele>296.8</ele></trkpt>
   <trkpt lat="68.556037" lon="17.503201"><ele>297.0</ele></trkpt>
   <trkpt lat="68.556027" lon="17.503150"><ele>297.8</ele></trkpt>
   <trkpt lat="68.556028" lon="17.503133"><ele>298.0</ele></trkpt>
   <trkpt lat="68.556032" lon="17.503117"><ele>298.2</ele></trkpt>
   <trkpt lat="68.556029" lon="17.503079"><ele>298.6</ele></trkpt>
   <trkpt lat="68.556023" lon="17.503049"><ele>299.0</ele></trkpt>
   <trkpt lat="68.556029" lon="17.503015"><ele>299.4</ele></trkpt>
   <trkpt lat="68.556028" lon="17.502969"><ele>300.0</ele></trkpt>
   <trkpt lat="68.556024" lon="17.502919"><ele>300.4</ele></trkpt>
   <trkpt lat="68.556029" lon="17.502887"><ele>301.0</ele></trkpt>
   <trkpt lat="68.556029" lon="17.502844"><ele>302.0</ele></trkpt>
   <trkpt lat="68.556031" lon="17.502831"><ele>302.2</ele></trkpt>
   <trkpt lat="68.556062" lon="17.502755"><ele>303.2</ele></trkpt>
   <trkpt lat="68.556069" lon="17.502724"><ele>303.8</ele></trkpt>
   <trkpt lat="68.556081" lon="17.502702"><ele>304.4</ele></trkpt>
   <trkpt lat="68.556109" lon="17.502655"><ele>305.4</ele></trkpt>
   <trkpt lat="68.556111" lon="17.502658"><ele>305.6</ele></trkpt>
   <trkpt lat="68.556125" lon="17.502633"><ele>305.8</ele></trkpt>
   <trkpt lat="68.556157" lon="17.502609"><ele>306.6</ele></trkpt>
   <trkpt lat="68.556176" lon="17.502599"><ele>307.0</ele></trkpt>
   <trkpt lat="68.556202" lon="17.502571"><ele>307.6</ele></trkpt>
   <trkpt lat="68.556227" lon="17.502573"><ele>308.2</ele></trkpt>
   <trkpt lat="68.556259" lon="17.502572"><ele>308.8</ele></trkpt>
   <trkpt lat="68.556287" lon="17.502602"><ele>309.2</ele></trkpt>
   <trkpt lat="68.556313" lon="17.502612"><ele>310.0</ele></trkpt>
   <trkpt lat="68.556335" lon="17.502638"><ele>310.8</ele></trkpt>
   <trkpt lat="68.556347" lon="17.502648"><ele>311.2</ele></trkpt>
   <trkpt lat="68.556390" lon="17.502696"><ele>312.0</ele></trkpt>
   <trkpt lat="68.556402" lon="17.502685"><ele>312.2</ele></trkpt>
   <trkpt lat="68.556444" lon="17.502638"><ele>313.2</ele></trkpt>
   <trkpt lat="68.556462" lon="17.502606"><ele>313.6</ele></trkpt>
   <trkpt lat="68.556494" lon="17.502581"><ele>314.4</ele></trkpt>
   <trkpt lat="68.556518" lon="17.502607"><ele>314.8</ele></trkpt>
   <trkpt lat="68.556527" lon="17.502606"><ele>315.0</ele></trkpt>
   <trkpt lat="68.556542" lon="17.502621"><ele>315.4</ele></trkpt>
   <trkpt lat="68.556569" lon="17.502623"><ele>316.2</ele></trkpt>
   <trkpt lat="68.556590" lon="17.502638"><ele>316.6</ele></trkpt>
   <trkpt lat="68.556598" lon="17.502647"><ele>316.8</ele></trkpt>
   <trkpt lat="68.556639" lon="17.502638"><ele>317.6</ele></trkpt>
   <trkpt lat="68.556658" lon="17.502646"><ele>318.2</ele></trkpt>
   <trkpt lat="68.556671" lon="17.502692"><ele>318.6</ele></trkpt>
   <trkpt lat="68.556698" lon="17.502748"><ele>319.4</ele></trkpt>
   <trkpt lat="68.556710" lon="17.502754"><ele>319.8</ele></trkpt>
   <trkpt lat="68.556754" lon="17.502766"><ele>320.8</ele></trkpt>
   <trkpt lat="68.556760" lon="17.502785"><ele>320.8</ele></trkpt>
   <trkpt lat="68.556787" lon="17.502857"><ele>321.8</ele></trkpt>
   <trkpt lat="68.556793" lon="17.502866"><ele>322.0</ele></trkpt>
   <trkpt lat="68.556848" lon="17.502878"><ele>323.0</ele></trkpt>
   <trkpt lat="68.556901" lon="17.502911"><ele>324.0</ele></trkpt>
   <trkpt lat="68.556907" lon="17.502947"><ele>324.2</ele></trkpt>
   <trkpt lat="68.556933" lon="17.503023"><ele>325.4</ele></trkpt>
   <trkpt lat="68.556940" lon="17.503060"><ele>326.0</ele></trkpt>
   <trkpt lat="68.556940" lon="17.503059"><ele>326.4</ele></trkpt>
   <trkpt lat="68.556939" lon="17.503048"><ele>326.8</ele></trkpt>
   <trkpt lat="68.556941" lon="17.503051"><ele>326.8</ele></trkpt>
   <trkpt lat="68.556958" lon="17.503073"><ele>327.0</ele></trkpt>
   <trkpt lat="68.556978" lon="17.503125"><ele>327.6</ele></trkpt>
   <trkpt lat="68.556983" lon="17.503140"><ele>327.8</ele></trkpt>
   <trkpt lat="68.557003" lon="17.503159"><ele>328.6</ele></trkpt>
   <trkpt lat="68.557043" lon="17.503222"><ele>329.6</ele></trkpt>
   <trkpt lat="68.557054" lon="17.503234"><ele>329.6</ele></trkpt>
   <trkpt lat="68.557106" lon="17.503260"><ele>330.6</ele></trkpt>
   <trkpt lat="68.557113" lon="17.503268"><ele>330.6</ele></trkpt>
   <trkpt lat="68.557150" lon="17.503239"><ele>331.6</ele></trkpt>
   <trkpt lat="68.557156" lon="17.503216"><ele>331.8</ele></trkpt>
   <trkpt lat="68.557209" lon="17.503215"><ele>332.8</ele></trkpt>
   <trkpt lat="68.557222" lon="17.503202"><ele>333.0</ele></trkpt>
   <trkpt lat="68.557233" lon="17.503209"><ele>333.4</ele></trkpt>
   <trkpt lat="68.557270" lon="17.503261"><ele>334.2</ele></trkpt>
   <trkpt lat="68.557283" lon="17.503272"><ele>334.4</ele></trkpt>
   <trkpt lat="68.557322" lon="17.503372"><ele>335.2</ele></trkpt>
   <trkpt lat="68.557330" lon="17.503392"><ele>335.2</ele></trkpt>
   <trkpt lat="68.557352" lon="17.503435"><ele>335.8</ele></trkpt>
   <trkpt lat="68.557353" lon="17.503433"><ele>336.0</ele></trkpt>
   <trkpt lat="68.557372" lon="17.503422"><ele>336.2</ele></trkpt>
   <trkpt lat="68.557379" lon="17.503418"><ele>336.2</ele></trkpt>
   <trkpt lat="68.557396" lon="17.503426"><ele>336.4</ele></trkpt>
   <trkpt lat="68.557406" lon="17.503417"><ele>336.8</ele></trkpt>
   <trkpt lat="68.557405" lon="17.503403"><ele>337.0</ele></trkpt>
   <trkpt lat="68.557401" lon="17.503392"><ele>337.4</ele></trkpt>
   <trkpt lat="68.557409" lon="17.503342"><ele>337.8</ele></trkpt>
   <trkpt lat="68.557418" lon="17.503335"><ele>338.2</ele></trkpt>
   <trkpt lat="68.557418" lon="17.503335"><ele>338.4</ele></trkpt>
   <trkpt lat="68.557418" lon="17.503335"><ele>338.4</ele></trkpt>
   <trkpt lat="68.557417" lon="17.503363"><ele>338.6</ele></trkpt>
   <trkpt lat="68.557417" lon="17.503367"><ele>338.4</ele></trkpt>
   <trkpt lat="68.557418" lon="17.503368"><ele>338.4</ele></trkpt>
   <trkpt lat="68.557422" lon="17.503371"><ele>338.6</ele></trkpt>
   <trkpt lat="68.557423" lon="17.503374"><ele>339.0</ele></trkpt>
   <trkpt lat="68.557425" lon="17.503375"><ele>339.2</ele></trkpt>
   <trkpt lat="68.557425" lon="17.503375"><ele>339.4</ele></trkpt>
   <trkpt lat="68.557427" lon="17.503374"><ele>340.2</ele></trkpt>
   <trkpt lat="68.557427" lon="17.503374"><ele>340.4</ele></trkpt>
   <trkpt lat="68.557430" lon="17.503373"><ele>341.2</ele></trkpt>
   <trkpt lat="68.557435" lon="17.503372"><ele>341.4</ele></trkpt>
   <trkpt lat="68.557442" lon="17.503371"><ele>341.4</ele></trkpt>
   <trkpt lat="68.557450" lon="17.503363"><ele>341.6</ele></trkpt>
   <trkpt lat="68.557450" lon="17.503310"><ele>342.6</ele></trkpt>
   <trkpt lat="68.557453" lon="17.503275"><ele>343.0</ele></trkpt>
   <trkpt lat="68.557456" lon="17.503243"><ele>343.6</ele></trkpt>
   <trkpt lat="68.557457" lon="17.503151"><ele>344.4</ele></trkpt>
   <trkpt lat="68.557457" lon="17.503124"><ele>344.8</ele></trkpt>
   <trkpt lat="68.557481" lon="17.503050"><ele>345.2</ele></trkpt>
   <trkpt lat="68.557490" lon="17.503033"><ele>345.2</ele></trkpt>
   <trkpt lat="68.557533" lon="17.502998"><ele>345.8</ele></trkpt>
   <trkpt lat="68.557543" lon="17.502991"><ele>346.0</ele></trkpt>
   <trkpt lat="68.557559" lon="17.502975"><ele>346.4</ele></trkpt>
   <trkpt lat="68.557564" lon="17.502974"><ele>346.4</ele></trkpt>
   <trkpt lat="68.557567" lon="17.502930"><ele>347.0</ele></trkpt>
   <trkpt lat="68.557564" lon="17.502898"><ele>347.4</ele></trkpt>
   <trkpt lat="68.557570" lon="17.502815"><ele>348.0</ele></trkpt>
   <trkpt lat="68.557575" lon="17.502810"><ele>348.2</ele></trkpt>
   <trkpt lat="68.557580" lon="17.502800"><ele>349.0</ele></trkpt>
   <trkpt lat="68.557580" lon="17.502800"><ele>349.2</ele></trkpt>
   <trkpt lat="68.557583" lon="17.502789"><ele>349.4</ele></trkpt>
   <trkpt lat="68.557583" lon="17.502789"><ele>349.2</ele></trkpt>
   <trkpt lat="68.557583" lon="17.502789"><ele>349.2</ele></trkpt>
   <trkpt lat="68.557584" lon="17.502789"><ele>349.2</ele></trkpt>
   <trkpt lat="68.557587" lon="17.502782"><ele>349.2</ele></trkpt>
   <trkpt lat="68.557589" lon="17.502776"><ele>349.2</ele></trkpt>
   <trkpt lat="68.557589" lon="17.502776"><ele>349.2</ele></trkpt>
   <trkpt lat="68.557589" lon="17.502775"><ele>348.8</ele></trkpt>
   <trkpt lat="68.557588" lon="17.502772"><ele>348.6</ele></trkpt>
   <trkpt lat="68.557587" lon="17.502767"><ele>348.8</ele></trkpt>
   <trkpt lat="68.557586" lon="17.502762"><ele>349.2</ele></trkpt>
   <trkpt lat="68.557585" lon="17.502752"><ele>350.2</ele></trkpt>
   <trkpt lat="68.557586" lon="17.502708"><ele>350.4</ele></trkpt>
   <trkpt lat="68.557589" lon="17.502685"><ele>350.4</ele></trkpt>
   <trkpt lat="68.557591" lon="17.502685"><ele>350.4</ele></trkpt>
   <trkpt lat="68.557594" lon="17.502685"><ele>350.2</ele></trkpt>
   <trkpt lat="68.557594" lon="17.502690"><ele>350.2</ele></trkpt>
   <trkpt lat="68.557595" lon="17.502693"><ele>350.4</ele></trkpt>
   <trkpt lat="68.557597" lon="17.502700"><ele>351.2</ele></trkpt>
   <trkpt lat="68.557597" lon="17.502701"><ele>351.4</ele></trkpt>
   <trkpt lat="68.557599" lon="17.502701"><ele>352.4</ele></trkpt>
   <trkpt lat="68.557613" lon="17.502701"><ele>353.4</ele></trkpt>
   <trkpt lat="68.557630" lon="17.502677"><ele>354.0</ele></trkpt>
   <trkpt lat="68.557634" lon="17.502660"><ele>354.6</ele></trkpt>
   <trkpt lat="68.557639" lon="17.502647"><ele>355.0</ele></trkpt>
   <trkpt lat="68.557643" lon="17.502641"><ele>355.4</ele></trkpt>
   <trkpt lat="68.557646" lon="17.502635"><ele>355.4</ele></trkpt>
   <trkpt lat="68.557653" lon="17.502610"><ele>355.6</ele></trkpt>
   <trkpt lat="68.557661" lon="17.502587"><ele>355.6</ele></trkpt>
   <trkpt lat="68.557663" lon="17.502582"><ele>355.6</ele></trkpt>
   <trkpt lat="68.557663" lon="17.502581"><ele>355.4</ele></trkpt>
   <trkpt lat="68.557663" lon="17.502583"><ele>355.2</ele></trkpt>
   <trkpt lat="68.557663" lon="17.502584"><ele>355.6</ele></trkpt>
   <trkpt lat="68.557663" lon="17.502584"><ele>356.6</ele></trkpt>
   <trkpt lat="68.557663" lon="17.502584"><ele>356.8</ele></trkpt>
   <trkpt lat="68.557669" lon="17.502574"><ele>356.8</ele></trkpt>
   <trkpt lat="68.557681" lon="17.502546"><ele>357.4</ele></trkpt>
   <trkpt lat="68.557686" lon="17.502522"><ele>357.8</ele></trkpt>
   <trkpt lat="68.557692" lon="17.502499"><ele>358.0</ele></trkpt>
   <trkpt lat="68.557718" lon="17.502445"><ele>358.6</ele></trkpt>
   <trkpt lat="68.557718" lon="17.502432"><ele>359.0</ele></trkpt>
   <trkpt lat="68.557718" lon="17.502432"><ele>359.0</ele></trkpt>
   <trkpt lat="68.557718" lon="17.502432"><ele>359.0</ele></trkpt>
   <trkpt lat="68.557718" lon="17.502435"><ele>359.0</ele></trkpt>
   <trkpt lat="68.557718" lon="17.502435"><ele>359.2</ele></trkpt>
   <trkpt lat="68.557720" lon="17.502432"><ele>359.0</ele></trkpt>
   <trkpt lat="68.557720" lon="17.502425"><ele>359.0</ele></trkpt>
   <trkpt lat="68.557721" lon="17.502421"><ele>359.2</ele></trkpt>
   <trkpt lat="68.557721" lon="17.502415"><ele>360.2</ele></trkpt>
   <trkpt lat="68.557722" lon="17.502408"><ele>361.0</ele></trkpt>
   <trkpt lat="68.557721" lon="17.502406"><ele>361.2</ele></trkpt>
   <trkpt lat="68.557722" lon="17.502402"><ele>361.4</ele></trkpt>
   <trkpt lat="68.557722" lon="17.502397"><ele>361.4</ele></trkpt>
   <trkpt lat="68.557723" lon="17.502396"><ele>361.6</ele></trkpt>
   <trkpt lat="68.557723" lon="17.502390"><ele>362.0</ele></trkpt>
   <trkpt lat="68.557725" lon="17.502380"><ele>361.8</ele></trkpt>
   <trkpt lat="68.557734" lon="17.502362"><ele>361.6</ele></trkpt>
   <trkpt lat="68.557737" lon="17.502356"><ele>361.8</ele></trkpt>
   <trkpt lat="68.557739" lon="17.502354"><ele>362.4</ele></trkpt>
   <trkpt lat="68.557742" lon="17.502348"><ele>362.8</ele></trkpt>
   <trkpt lat="68.557745" lon="17.502325"><ele>363.4</ele></trkpt>
   <trkpt lat="68.557746" lon="17.502320"><ele>363.6</ele></trkpt>
   <trkpt lat="68.557749" lon="17.502300"><ele>364.6</ele></trkpt>
   <trkpt lat="68.557753" lon="17.502289"><ele>365.6</ele></trkpt>
   <trkpt lat="68.557772" lon="17.502205"><ele>366.2</ele></trkpt>
   <trkpt lat="68.557780" lon="17.502173"><ele>366.6</ele></trkpt>
   <trkpt lat="68.557789" lon="17.502167"><ele>367.0</ele></trkpt>
   <trkpt lat="68.557792" lon="17.502166"><ele>367.2</ele></trkpt>
   <trkpt lat="68.557794" lon="17.502164"><ele>367.6</ele></trkpt>
   <trkpt lat="68.557795" lon="17.502164"><ele>367.8</ele></trkpt>
   <trkpt lat="68.557796" lon="17.502164"><ele>369.0</ele></trkpt>
   <trkpt lat="68.557799" lon="17.502160"><ele>369.0</ele></trkpt>
   <trkpt lat="68.557807" lon="17.502154"><ele>369.2</ele></trkpt>
   <trkpt lat="68.557816" lon="17.502152"><ele>369.6</ele></trkpt>
   <trkpt lat="68.557818" lon="17.502152"><ele>370.0</ele></trkpt>
   <trkpt lat="68.557820" lon="17.502149"><ele>370.2</ele></trkpt>
   <trkpt lat="68.557822" lon="17.502146"><ele>370.2</ele></trkpt>
   <trkpt lat="68.557824" lon="17.502145"><ele>370.8</ele></trkpt>
   <trkpt lat="68.557825" lon="17.502146"><ele>371.0</ele></trkpt>
   <trkpt lat="68.557825" lon="17.502146"><ele>371.2</ele></trkpt>
   <trkpt lat="68.557825" lon="17.502146"><ele>371.2</ele></trkpt>
   <trkpt lat="68.557826" lon="17.502148"><ele>371.6</ele></trkpt>
   <trkpt lat="68.557826" lon="17.502149"><ele>372.2</ele></trkpt>
   <trkpt lat="68.557825" lon="17.502149"><ele>372.6</ele></trkpt>
   <trkpt lat="68.557825" lon="17.502150"><ele>372.4</ele></trkpt>
   <trkpt lat="68.557826" lon="17.502150"><ele>372.6</ele></trkpt>
   <trkpt lat="68.557826" lon="17.502150"><ele>373.4</ele></trkpt>
   <trkpt lat="68.557827" lon="17.502149"><ele>374.0</ele></trkpt>
   <trkpt lat="68.557827" lon="17.502150"><ele>374.4</ele></trkpt>
   <trkpt lat="68.557827" lon="17.502150"><ele>374.4</ele></trkpt>
   <trkpt lat="68.557828" lon="17.502150"><ele>374.4</ele></trkpt>
   <trkpt lat="68.557828" lon="17.502150"><ele>374.4</ele></trkpt>
   <trkpt lat="68.557828" lon="17.502151"><ele>375.2</ele></trkpt>
   <trkpt lat="68.557829" lon="17.502151"><ele>375.6</ele></trkpt>
   <trkpt lat="68.557829" lon="17.502153"><ele>375.8</ele></trkpt>
   <trkpt lat="68.557829" lon="17.502155"><ele>376.4</ele></trkpt>
   <trkpt lat="68.557830" lon="17.502156"><ele>376.6</ele></trkpt>
   <trkpt lat="68.557830" lon="17.502158"><ele>376.8</ele></trkpt>
   <trkpt lat="68.557831" lon="17.502159"><ele>376.6</ele></trkpt>
   <trkpt lat="68.557831" lon="17.502163"><ele>377.2</ele></trkpt>
   <trkpt lat="68.557831" lon="17.502165"><ele>377.8</ele></trkpt>
   <trkpt lat="68.557831" lon="17.502166"><ele>379.0</ele></trkpt>
   <trkpt lat="68.557832" lon="17.502167"><ele>380.2</ele></trkpt>
   <trkpt lat="68.557833" lon="17.502169"><ele>381.4</ele></trkpt>
   <trkpt lat="68.557833" lon="17.502169"><ele>381.6</ele></trkpt>
   <trkpt lat="68.557834" lon="17.502170"><ele>382.6</ele></trkpt>
   <trkpt lat="68.557835" lon="17.502172"><ele>383.6</ele></trkpt>
   <trkpt lat="68.557835" lon="17.502172"><ele>384.6</ele></trkpt>
   <trkpt lat="68.557835" lon="17.502172"><ele>384.8</ele></trkpt>
   <trkpt lat="68.557836" lon="17.502175"><ele>384.8</ele></trkpt>
   <trkpt lat="68.557871" lon="17.502250"><ele>385.8</ele></trkpt>
   <trkpt lat="68.557904" lon="17.502323"><ele>386.0</ele></trkpt>
   <trkpt lat="68.557992" lon="17.502470"><ele>386.8</ele></trkpt>
   <trkpt lat="68.558011" lon="17.502497"><ele>387.0</ele></trkpt>
   <trkpt lat="68.558021" lon="17.502515"><ele>388.0</ele></trkpt>
   <trkpt lat="68.558026" lon="17.502520"><ele>388.2</ele></trkpt>
   <trkpt lat="68.558024" lon="17.502555"><ele>388.6</ele></trkpt>
   <trkpt lat="68.558024" lon="17.502555"><ele>389.0</ele></trkpt>
   <trkpt lat="68.558024" lon="17.502555"><ele>389.0</ele></trkpt>
   <trkpt lat="68.558024" lon="17.502553"><ele>388.8</ele></trkpt>
   <trkpt lat="68.558025" lon="17.502545"><ele>388.8</ele></trkpt>
   <trkpt lat="68.558026" lon="17.502545"><ele>389.2</ele></trkpt>
   <trkpt lat="68.558028" lon="17.502545"><ele>390.2</ele></trkpt>
   <trkpt lat="68.558031" lon="17.502552"><ele>391.0</ele></trkpt>
   <trkpt lat="68.558031" lon="17.502546"><ele>391.2</ele></trkpt>
   <trkpt lat="68.558032" lon="17.502536"><ele>392.0</ele></trkpt>
   <trkpt lat="68.558035" lon="17.502533"><ele>392.4</ele></trkpt>
   <trkpt lat="68.558042" lon="17.502471"><ele>393.0</ele></trkpt>
   <trkpt lat="68.558043" lon="17.502460"><ele>393.0</ele></trkpt>
   <trkpt lat="68.558048" lon="17.502429"><ele>393.4</ele></trkpt>
   <trkpt lat="68.558056" lon="17.502403"><ele>394.0</ele></trkpt>
   <trkpt lat="68.558058" lon="17.502396"><ele>394.4</ele></trkpt>
   <trkpt lat="68.558062" lon="17.502387"><ele>395.4</ele></trkpt>
   <trkpt lat="68.558085" lon="17.502359"><ele>396.2</ele></trkpt>
   <trkpt lat="68.558093" lon="17.502343"><ele>396.4</ele></trkpt>
   <trkpt lat="68.558095" lon="17.502335"><ele>397.4</ele></trkpt>
   <trkpt lat="68.558096" lon="17.502335"><ele>397.6</ele></trkpt>
   <trkpt lat="68.558097" lon="17.502333"><ele>398.6</ele></trkpt>
   <trkpt lat="68.558097" lon="17.502332"><ele>399.0</ele></trkpt>
   <trkpt lat="68.558098" lon="17.502330"><ele>400.0</ele></trkpt>
   <trkpt lat="68.558098" lon="17.502330"><ele>400.0</ele></trkpt>
   <trkpt lat="68.558099" lon="17.502329"><ele>400.2</ele></trkpt>
   <trkpt lat="68.558101" lon="17.502326"><ele>400.6</ele></trkpt>
   <trkpt lat="68.558111" lon="17.502318"><ele>401.2</ele></trkpt>
   <trkpt lat="68.558121" lon="17.502315"><ele>401.8</ele></trkpt>
   <trkpt lat="68.558123" lon="17.502313"><ele>402.2</ele></trkpt>
   <trkpt lat="68.558128" lon="17.502308"><ele>403.0</ele></trkpt>
   <trkpt lat="68.558130" lon="17.502307"><ele>403.4</ele></trkpt>
   <trkpt lat="68.558136" lon="17.502301"><ele>404.0</ele></trkpt>
   <trkpt lat="68.558142" lon="17.502291"><ele>404.4</ele></trkpt>
   <trkpt lat="68.558156" lon="17.502284"><ele>405.4</ele></trkpt>
   <trkpt lat="68.558176" lon="17.502270"><ele>405.6</ele></trkpt>
   <trkpt lat="68.558195" lon="17.502250"><ele>405.6</ele></trkpt>
   <trkpt lat="68.558208" lon="17.502248"><ele>405.8</ele></trkpt>
   <trkpt lat="68.558215" lon="17.502248"><ele>406.6</ele></trkpt>
   <trkpt lat="68.558218" lon="17.502250"><ele>407.4</ele></trkpt>
   <trkpt lat="68.558219" lon="17.502250"><ele>407.6</ele></trkpt>
   <trkpt lat="68.558254" lon="17.502273"><ele>408.4</ele></trkpt>
   <trkpt lat="68.558268" lon="17.502276"><ele>408.8</ele></trkpt>
   <trkpt lat="68.558280" lon="17.502269"><ele>409.4</ele></trkpt>
   <trkpt lat="68.558285" lon="17.502266"><ele>409.4</ele></trkpt>
   <trkpt lat="68.558283" lon="17.502255"><ele>409.4</ele></trkpt>
   <trkpt lat="68.558285" lon="17.502215"><ele>409.8</ele></trkpt>
   <trkpt lat="68.558293" lon="17.502186"><ele>410.2</ele></trkpt>
   <trkpt lat="68.558308" lon="17.502175"><ele>410.0</ele></trkpt>
   <trkpt lat="68.558312" lon="17.502174"><ele>409.8</ele></trkpt>
   <trkpt lat="68.558314" lon="17.502173"><ele>410.2</ele></trkpt>
   <trkpt lat="68.558314" lon="17.502173"><ele>410.2</ele></trkpt>
   <trkpt lat="68.558314" lon="17.502173"><ele>410.6</ele></trkpt>
   <trkpt lat="68.558314" lon="17.502174"><ele>410.8</ele></trkpt>
   <trkpt lat="68.558316" lon="17.502176"><ele>411.0</ele></trkpt>
   <trkpt lat="68.558318" lon="17.502179"><ele>411.2</ele></trkpt>
   <trkpt lat="68.558319" lon="17.502179"><ele>411.2</ele></trkpt>
   <trkpt lat="68.558319" lon="17.502179"><ele>411.2</ele></trkpt>
   <trkpt lat="68.558320" lon="17.502177"><ele>411.2</ele></trkpt>
   <trkpt lat="68.558322" lon="17.502175"><ele>411.2</ele></trkpt>
   <trkpt lat="68.558324" lon="17.502175"><ele>411.2</ele></trkpt>
   <trkpt lat="68.558324" lon="17.502175"><ele>411.2</ele></trkpt>
   <trkpt lat="68.558324" lon="17.502182"><ele>411.2</ele></trkpt>
   <trkpt lat="68.558323" lon="17.502185"><ele>411.2</ele></trkpt>
   <trkpt lat="68.558323" lon="17.502189"><ele>411.2</ele></trkpt>
   <trkpt lat="68.558319" lon="17.502191"><ele>411.6</ele></trkpt>
   <trkpt lat="68.558318" lon="17.502191"><ele>411.8</ele></trkpt>
   <trkpt lat="68.558313" lon="17.502193"><ele>411.8</ele></trkpt>
   <trkpt lat="68.558313" lon="17.502193"><ele>411.8</ele></trkpt>
   <trkpt lat="68.558310" lon="17.502193"><ele>412.2</ele></trkpt>
   <trkpt lat="68.558310" lon="17.502194"><ele>412.2</ele></trkpt>
   <trkpt lat="68.558309" lon="17.502193"><ele>412.0</ele></trkpt>
   <trkpt lat="68.558310" lon="17.502192"><ele>412.2</ele></trkpt>
   <trkpt lat="68.558310" lon="17.502190"><ele>412.0</ele></trkpt>
   <trkpt lat="68.558312" lon="17.502189"><ele>412.0</ele></trkpt>
   <trkpt lat="68.558312" lon="17.502189"><ele>412.2</ele></trkpt>
   <trkpt lat="68.558312" lon="17.502189"><ele>412.4</ele></trkpt>
   <trkpt lat="68.558312" lon="17.502189"><ele>412.6</ele></trkpt>
   <trkpt lat="68.558312" lon="17.502190"><ele>412.4</ele></trkpt>
   <trkpt lat="68.558312" lon="17.502193"><ele>411.8</ele></trkpt>
   <trkpt lat="68.558313" lon="17.502194"><ele>411.6</ele></trkpt>
   <trkpt lat="68.558313" lon="17.502195"><ele>412.0</ele></trkpt>
   <trkpt lat="68.558314" lon="17.502197"><ele>412.2</ele></trkpt>
   <trkpt lat="68.558314" lon="17.502198"><ele>412.2</ele></trkpt>
   <trkpt lat="68.558314" lon="17.502199"><ele>412.0</ele></trkpt>
   <trkpt lat="68.558314" lon="17.502201"><ele>411.8</ele></trkpt>
   <trkpt lat="68.558315" lon="17.502203"><ele>411.8</ele></trkpt>
   <trkpt lat="68.558316" lon="17.502205"><ele>412.0</ele></trkpt>
   <trkpt lat="68.558317" lon="17.502207"><ele>412.0</ele></trkpt>
   <trkpt lat="68.558318" lon="17.502209"><ele>412.6</ele></trkpt>
   <trkpt lat="68.558318" lon="17.502210"><ele>412.2</ele></trkpt>
   <trkpt lat="68.558319" lon="17.502211"><ele>412.2</ele></trkpt>
   <trkpt lat="68.558319" lon="17.502211"><ele>412.0</ele></trkpt>
   <trkpt lat="68.558319" lon="17.502211"><ele>411.8</ele></trkpt>
   <trkpt lat="68.558319" lon="17.502210"><ele>412.0</ele></trkpt>
   <trkpt lat="68.558319" lon="17.502210"><ele>412.0</ele></trkpt>
   <trkpt lat="68.558320" lon="17.502212"><ele>412.0</ele></trkpt>
   <trkpt lat="68.558320" lon="17.502214"><ele>411.8</ele></trkpt>
   <trkpt lat="68.558320" lon="17.502214"><ele>412.0</ele></trkpt>
   <trkpt lat="68.558320" lon="17.502214"><ele>412.0</ele></trkpt>
   <trkpt lat="68.558320" lon="17.502214"><ele>412.2</ele></trkpt>
   <trkpt lat="68.558320" lon="17.502213"><ele>412.0</ele></trkpt>
   <trkpt lat="68.558320" lon="17.502213"><ele>412.0</ele></trkpt>
   <trkpt lat="68.558320" lon="17.502214"><ele>412.2</ele></trkpt>
   <trkpt lat="68.558321" lon="17.502214"><ele>412.4</ele></trkpt>
   <trkpt lat="68.558321" lon="17.502214"><ele>412.8</ele></trkpt>
   <trkpt lat="68.558321" lon="17.502214"><ele>412.8</ele></trkpt>
   <trkpt lat="68.558321" lon="17.502213"><ele>412.4</ele></trkpt>
   <trkpt lat="68.558321" lon="17.502213"><ele>412.4</ele></trkpt>
   <trkpt lat="68.558321" lon="17.502214"><ele>412.6</ele></trkpt>
   <trkpt lat="68.558321" lon="17.502214"><ele>413.0</ele></trkpt>
   <trkpt lat="68.558321" lon="17.502214"><ele>412.8</ele></trkpt>
   <trkpt lat="68.558321" lon="17.502214"><ele>412.8</ele></trkpt>
   <trkpt lat="68.558321" lon="17.502214"><ele>413.0</ele></trkpt>
   <trkpt lat="68.558322" lon="17.502214"><ele>413.0</ele></trkpt>
   <trkpt lat="68.558322" lon="17.502215"><ele>413.0</ele></trkpt>
   <trkpt lat="68.558322" lon="17.502215"><ele>413.0</ele></trkpt>
   <trkpt lat="68.558322" lon="17.502215"><ele>413.0</ele></trkpt>
   <trkpt lat="68.558322" lon="17.502215"><ele>413.0</ele></trkpt>
   <trkpt lat="68.558322" lon="17.502215"><ele>413.0</ele></trkpt>
   <trkpt lat="68.558322" lon="17.502215"><ele>413.0</ele></trkpt>
   <trkpt lat="68.558322" lon="17.502215"><ele>413.0</ele></trkpt>
   <trkpt lat="68.558322" lon="17.502215"><ele>413.0</ele></trkpt>
   <trkpt lat="68.558322" lon="17.502215"><ele>413.0</ele></trkpt>
   <trkpt lat="68.558322" lon="17.502215"><ele>413.0</ele></trkpt>
   <trkpt lat="68.558322" lon="17.502214"><ele>412.8</ele></trkpt>
   <trkpt lat="68.558323" lon="17.502213"><ele>413.4</ele></trkpt>
   <trkpt lat="68.558323" lon="17.502213"><ele>413.6</ele></trkpt>
   <trkpt lat="68.558323" lon="17.502212"><ele>413.6</ele></trkpt>
   <trkpt lat="68.558323" lon="17.502212"><ele>413.8</ele></trkpt>
   <trkpt lat="68.558323" lon="17.502211"><ele>414.2</ele></trkpt>
   <trkpt lat="68.558324" lon="17.502210"><ele>414.8</ele></trkpt>
   <trkpt lat="68.558324" lon="17.502209"><ele>415.4</ele></trkpt>
   <trkpt lat="68.558325" lon="17.502208"><ele>415.8</ele></trkpt>
   <trkpt lat="68.558325" lon="17.502206"><ele>416.4</ele></trkpt>
   <trkpt lat="68.558326" lon="17.502205"><ele>417.2</ele></trkpt>
   <trkpt lat="68.558327" lon="17.502203"><ele>417.6</ele></trkpt>
   <trkpt lat="68.558328" lon="17.502200"><ele>418.2</ele></trkpt>
   <trkpt lat="68.558329" lon="17.502198"><ele>418.4</ele></trkpt>
   <trkpt lat="68.558329" lon="17.502196"><ele>418.6</ele></trkpt>
   <trkpt lat="68.558331" lon="17.502194"><ele>418.6</ele></trkpt>
   <trkpt lat="68.558332" lon="17.502190"><ele>418.6</ele></trkpt>
   <trkpt lat="68.558333" lon="17.502188"><ele>418.2</ele></trkpt>
   <trkpt lat="68.558333" lon="17.502187"><ele>418.2</ele></trkpt>
   <trkpt lat="68.558334" lon="17.502184"><ele>418.0</ele></trkpt>
   <trkpt lat="68.558335" lon="17.502181"><ele>417.8</ele></trkpt>
   <trkpt lat="68.558336" lon="17.502178"><ele>417.6</ele></trkpt>
   <trkpt lat="68.558337" lon="17.502174"><ele>417.4</ele></trkpt>
   <trkpt lat="68.558338" lon="17.502171"><ele>417.4</ele></trkpt>
   <trkpt lat="68.558338" lon="17.502170"><ele>417.4</ele></trkpt>
   <trkpt lat="68.558339" lon="17.502166"><ele>417.2</ele></trkpt>
   <trkpt lat="68.558340" lon="17.502162"><ele>417.2</ele></trkpt>
   <trkpt lat="68.558341" lon="17.502161"><ele>417.4</ele></trkpt>
   <trkpt lat="68.558341" lon="17.502158"><ele>417.4</ele></trkpt>
   <trkpt lat="68.558343" lon="17.502154"><ele>417.6</ele></trkpt>
   <trkpt lat="68.558344" lon="17.502150"><ele>417.8</ele></trkpt>
   <trkpt lat="68.558344" lon="17.502149"><ele>418.0</ele></trkpt>
   <trkpt lat="68.558346" lon="17.502144"><ele>418.2</ele></trkpt>
   <trkpt lat="68.558377" lon="17.502067"><ele>418.6</ele></trkpt>
   <trkpt lat="68.558546" lon="17.501646"><ele>419.0</ele></trkpt>
   <trkpt lat="68.558675" lon="17.501286"><ele>419.6</ele></trkpt>
   <trkpt lat="68.558681" lon="17.501241"><ele>420.2</ele></trkpt>
   <trkpt lat="68.558694" lon="17.501152"><ele>420.4</ele></trkpt>
   <trkpt lat="68.558699" lon="17.501159"><ele>420.6</ele></trkpt>
   <trkpt lat="68.558684" lon="17.501168"><ele>420.4</ele></trkpt>
   <trkpt lat="68.558659" lon="17.501118"><ele>419.4</ele></trkpt>
   <trkpt lat="68.558655" lon="17.501077"><ele>419.0</ele></trkpt>
   <trkpt lat="68.558655" lon="17.501077"><ele>418.8</ele></trkpt>
   <trkpt lat="68.558656" lon="17.501063"><ele>418.6</ele></trkpt>
   <trkpt lat="68.558660" lon="17.500985"><ele>418.6</ele></trkpt>
   <trkpt lat="68.558664" lon="17.500911"><ele>418.4</ele></trkpt>
   <trkpt lat="68.558664" lon="17.500880"><ele>418.4</ele></trkpt>
   <trkpt lat="68.558668" lon="17.500783"><ele>418.4</ele></trkpt>
   <trkpt lat="68.558674" lon="17.500730"><ele>418.4</ele></trkpt>
   <trkpt lat="68.558692" lon="17.500671"><ele>418.2</ele></trkpt>
   <trkpt lat="68.558718" lon="17.500626"><ele>418.4</ele></trkpt>
   <trkpt lat="68.558719" lon="17.500628"><ele>418.6</ele></trkpt>
   <trkpt lat="68.558733" lon="17.500629"><ele>418.6</ele></trkpt>
   <trkpt lat="68.558756" lon="17.500659"><ele>418.6</ele></trkpt>
   <trkpt lat="68.558784" lon="17.500729"><ele>418.8</ele></trkpt>
   <trkpt lat="68.558789" lon="17.500761"><ele>419.0</ele></trkpt>
   <trkpt lat="68.558797" lon="17.500853"><ele>419.4</ele></trkpt>
   <trkpt lat="68.558826" lon="17.500865"><ele>420.0</ele></trkpt>
   <trkpt lat="68.558869" lon="17.500890"><ele>420.0</ele></trkpt>
   <trkpt lat="68.558879" lon="17.500919"><ele>420.0</ele></trkpt>
   <trkpt lat="68.558910" lon="17.500993"><ele>420.0</ele></trkpt>
   <trkpt lat="68.558916" lon="17.501009"><ele>420.2</ele></trkpt>
   <trkpt lat="68.558923" lon="17.501024"><ele>420.4</ele></trkpt>
   <trkpt lat="68.558940" lon="17.501042"><ele>420.4</ele></trkpt>
   <trkpt lat="68.558959" lon="17.501065"><ele>420.2</ele></trkpt>
   <trkpt lat="68.558991" lon="17.501045"><ele>420.2</ele></trkpt>
   <trkpt lat="68.559009" lon="17.501019"><ele>420.0</ele></trkpt>
   <trkpt lat="68.559053" lon="17.500989"><ele>419.8</ele></trkpt>
   <trkpt lat="68.559074" lon="17.500971"><ele>419.8</ele></trkpt>
   <trkpt lat="68.559098" lon="17.500971"><ele>420.0</ele></trkpt>
   <trkpt lat="68.559114" lon="17.500974"><ele>420.0</ele></trkpt>
   <trkpt lat="68.559149" lon="17.500962"><ele>420.4</ele></trkpt>
   <trkpt lat="68.559165" lon="17.500984"><ele>420.6</ele></trkpt>
   <trkpt lat="68.559203" lon="17.501033"><ele>421.0</ele></trkpt>
   <trkpt lat="68.559211" lon="17.501065"><ele>421.2</ele></trkpt>
   <trkpt lat="68.559221" lon="17.501130"><ele>421.6</ele></trkpt>
   <trkpt lat="68.559228" lon="17.501170"><ele>421.6</ele></trkpt>
   <trkpt lat="68.559271" lon="17.501218"><ele>422.2</ele></trkpt>
   <trkpt lat="68.559278" lon="17.501220"><ele>422.4</ele></trkpt>
   <trkpt lat="68.559292" lon="17.501226"><ele>422.6</ele></trkpt>
   <trkpt lat="68.559303" lon="17.501250"><ele>423.0</ele></trkpt>
   <trkpt lat="68.559312" lon="17.501246"><ele>423.0</ele></trkpt>
   <trkpt lat="68.559320" lon="17.501256"><ele>423.0</ele></trkpt>
   <trkpt lat="68.559320" lon="17.501255"><ele>423.0</ele></trkpt>
   <trkpt lat="68.559323" lon="17.501246"><ele>423.0</ele></trkpt>
   <trkpt lat="68.559323" lon="17.501246"><ele>423.0</ele></trkpt>
   <trkpt lat="68.559323" lon="17.501246"><ele>423.8</ele></trkpt>
   <trkpt lat="68.559323" lon="17.501246"><ele>424.4</ele></trkpt>
   <trkpt lat="68.559325" lon="17.501242"><ele>425.2</ele></trkpt>
   <trkpt lat="68.559335" lon="17.501237"><ele>426.2</ele></trkpt>
   <trkpt lat="68.559337" lon="17.501237"><ele>426.2</ele></trkpt>
   <trkpt lat="68.559339" lon="17.501235"><ele>426.4</ele></trkpt>
   <trkpt lat="68.559340" lon="17.501233"><ele>426.6</ele></trkpt>
   <trkpt lat="68.559341" lon="17.501232"><ele>427.4</ele></trkpt>
   <trkpt lat="68.559341" lon="17.501229"><ele>428.6</ele></trkpt>
   <trkpt lat="68.559343" lon="17.501225"><ele>429.6</ele></trkpt>
   <trkpt lat="68.559345" lon="17.501214"><ele>430.8</ele></trkpt>
   <trkpt lat="68.559358" lon="17.501180"><ele>431.0</ele></trkpt>
   <trkpt lat="68.559362" lon="17.501117"><ele>431.8</ele></trkpt>
   <trkpt lat="68.559362" lon="17.501111"><ele>431.8</ele></trkpt>
   <trkpt lat="68.559364" lon="17.501093"><ele>432.8</ele></trkpt>
   <trkpt lat="68.559364" lon="17.501079"><ele>433.0</ele></trkpt>
   <trkpt lat="68.559364" lon="17.501043"><ele>433.4</ele></trkpt>
   <trkpt lat="68.559370" lon="17.501007"><ele>434.0</ele></trkpt>
   <trkpt lat="68.559377" lon="17.500960"><ele>434.6</ele></trkpt>
   <trkpt lat="68.559386" lon="17.500918"><ele>435.0</ele></trkpt>
   <trkpt lat="68.559394" lon="17.500902"><ele>435.4</ele></trkpt>
   <trkpt lat="68.559407" lon="17.500881"><ele>436.2</ele></trkpt>
   <trkpt lat="68.559429" lon="17.500873"><ele>436.4</ele></trkpt>
   <trkpt lat="68.559451" lon="17.500803"><ele>437.0</ele></trkpt>
   <trkpt lat="68.559456" lon="17.500796"><ele>437.4</ele></trkpt>
   <trkpt lat="68.559467" lon="17.500791"><ele>437.6</ele></trkpt>
   <trkpt lat="68.559474" lon="17.500775"><ele>438.4</ele></trkpt>
   <trkpt lat="68.559474" lon="17.500775"><ele>438.6</ele></trkpt>
   <trkpt lat="68.559474" lon="17.500775"><ele>438.8</ele></trkpt>
   <trkpt lat="68.559474" lon="17.500771"><ele>439.2</ele></trkpt>
   <trkpt lat="68.559475" lon="17.500767"><ele>439.4</ele></trkpt>
   <trkpt lat="68.559482" lon="17.500750"><ele>440.0</ele></trkpt>
   <trkpt lat="68.559490" lon="17.500747"><ele>440.2</ele></trkpt>
   <trkpt lat="68.559500" lon="17.500744"><ele>440.6</ele></trkpt>
   <trkpt lat="68.559527" lon="17.500728"><ele>441.4</ele></trkpt>
   <trkpt lat="68.559533" lon="17.500716"><ele>441.8</ele></trkpt>
   <trkpt lat="68.559591" lon="17.500625"><ele>442.6</ele></trkpt>
   <trkpt lat="68.559616" lon="17.500598"><ele>443.0</ele></trkpt>
   <trkpt lat="68.559645" lon="17.500574"><ele>443.4</ele></trkpt>
   <trkpt lat="68.559666" lon="17.500536"><ele>443.8</ele></trkpt>
   <trkpt lat="68.559683" lon="17.500508"><ele>444.0</ele></trkpt>
   <trkpt lat="68.559697" lon="17.500480"><ele>444.6</ele></trkpt>
   <trkpt lat="68.559701" lon="17.500470"><ele>444.6</ele></trkpt>
   <trkpt lat="68.559706" lon="17.500455"><ele>444.8</ele></trkpt>
   <trkpt lat="68.559711" lon="17.500441"><ele>445.0</ele></trkpt>
   <trkpt lat="68.559711" lon="17.500432"><ele>445.2</ele></trkpt>
   <trkpt lat="68.559732" lon="17.500344"><ele>445.6</ele></trkpt>
   <trkpt lat="68.559746" lon="17.500326"><ele>446.2</ele></trkpt>
   <trkpt lat="68.559792" lon="17.500294"><ele>447.0</ele></trkpt>
   <trkpt lat="68.559807" lon="17.500290"><ele>447.2</ele></trkpt>
   <trkpt lat="68.559822" lon="17.500293"><ele>447.2</ele></trkpt>
   <trkpt lat="68.559845" lon="17.500315"><ele>447.8</ele></trkpt>
   <trkpt lat="68.559857" lon="17.500326"><ele>448.0</ele></trkpt>
   <trkpt lat="68.559869" lon="17.500336"><ele>448.2</ele></trkpt>
   <trkpt lat="68.559898" lon="17.500374"><ele>448.4</ele></trkpt>
   <trkpt lat="68.559913" lon="17.500388"><ele>448.6</ele></trkpt>
   <trkpt lat="68.559934" lon="17.500405"><ele>449.0</ele></trkpt>
   <trkpt lat="68.559946" lon="17.500416"><ele>449.2</ele></trkpt>
   <trkpt lat="68.559968" lon="17.500427"><ele>449.8</ele></trkpt>
   <trkpt lat="68.559972" lon="17.500452"><ele>450.4</ele></trkpt>
   <trkpt lat="68.559994" lon="17.500480"><ele>451.2</ele></trkpt>
   <trkpt lat="68.560000" lon="17.500489"><ele>451.4</ele></trkpt>
   <trkpt lat="68.560009" lon="17.500489"><ele>451.6</ele></trkpt>
   <trkpt lat="68.560031" lon="17.500478"><ele>452.4</ele></trkpt>
   <trkpt lat="68.560036" lon="17.500471"><ele>452.6</ele></trkpt>
   <trkpt lat="68.560056" lon="17.500481"><ele>453.0</ele></trkpt>
   <trkpt lat="68.560078" lon="17.500489"><ele>453.6</ele></trkpt>
   <trkpt lat="68.560085" lon="17.500494"><ele>454.0</ele></trkpt>
   <trkpt lat="68.560095" lon="17.500497"><ele>454.8</ele></trkpt>
   <trkpt lat="68.560115" lon="17.500479"><ele>455.2</ele></trkpt>
   <trkpt lat="68.560134" lon="17.500475"><ele>455.8</ele></trkpt>
   <trkpt lat="68.560148" lon="17.500466"><ele>456.4</ele></trkpt>
   <trkpt lat="68.560156" lon="17.500456"><ele>457.0</ele></trkpt>
   <trkpt lat="68.560160" lon="17.500445"><ele>457.8</ele></trkpt>
   <trkpt lat="68.560160" lon="17.500442"><ele>458.0</ele></trkpt>
   <trkpt lat="68.560162" lon="17.500412"><ele>458.4</ele></trkpt>
   <trkpt lat="68.560161" lon="17.500397"><ele>458.4</ele></trkpt>
   <trkpt lat="68.560164" lon="17.500372"><ele>459.0</ele></trkpt>
   <trkpt lat="68.560169" lon="17.500353"><ele>459.4</ele></trkpt>
   <trkpt lat="68.560179" lon="17.500329"><ele>460.0</ele></trkpt>
   <trkpt lat="68.560182" lon="17.500326"><ele>460.2</ele></trkpt>
   <trkpt lat="68.560194" lon="17.500290"><ele>461.2</ele></trkpt>
   <trkpt lat="68.560199" lon="17.500252"><ele>461.6</ele></trkpt>
   <trkpt lat="68.560206" lon="17.500227"><ele>462.2</ele></trkpt>
   <trkpt lat="68.560208" lon="17.500212"><ele>462.6</ele></trkpt>
   <trkpt lat="68.560216" lon="17.500179"><ele>463.0</ele></trkpt>
   <trkpt lat="68.560216" lon="17.500179"><ele>463.2</ele></trkpt>
   <trkpt lat="68.560216" lon="17.500179"><ele>463.4</ele></trkpt>
   <trkpt lat="68.560216" lon="17.500179"><ele>464.0</ele></trkpt>
   <trkpt lat="68.560218" lon="17.500173"><ele>464.4</ele></trkpt>
   <trkpt lat="68.560223" lon="17.500169"><ele>464.8</ele></trkpt>
   <trkpt lat="68.560231" lon="17.500167"><ele>465.4</ele></trkpt>
   <trkpt lat="68.560241" lon="17.500161"><ele>466.4</ele></trkpt>
   <trkpt lat="68.560241" lon="17.500152"><ele>466.6</ele></trkpt>
   <trkpt lat="68.560257" lon="17.500132"><ele>467.4</ele></trkpt>
   <trkpt lat="68.560260" lon="17.500127"><ele>467.6</ele></trkpt>
   <trkpt lat="68.560273" lon="17.500079"><ele>468.8</ele></trkpt>
   <trkpt lat="68.560287" lon="17.500079"><ele>469.8</ele></trkpt>
   <trkpt lat="68.560306" lon="17.500069"><ele>470.8</ele></trkpt>
   <trkpt lat="68.560324" lon="17.500052"><ele>471.8</ele></trkpt>
   <trkpt lat="68.560331" lon="17.500058"><ele>471.8</ele></trkpt>
   <trkpt lat="68.560344" lon="17.500071"><ele>472.8</ele></trkpt>
   <trkpt lat="68.560349" lon="17.500074"><ele>473.0</ele></trkpt>
   <trkpt lat="68.560357" lon="17.500077"><ele>473.4</ele></trkpt>
   <trkpt lat="68.560370" lon="17.500077"><ele>474.0</ele></trkpt>
   <trkpt lat="68.560376" lon="17.500078"><ele>474.6</ele></trkpt>
   <trkpt lat="68.560376" lon="17.500079"><ele>474.8</ele></trkpt>
   <trkpt lat="68.560380" lon="17.500081"><ele>474.4</ele></trkpt>
   <trkpt lat="68.560381" lon="17.500081"><ele>475.0</ele></trkpt>
   <trkpt lat="68.560381" lon="17.500082"><ele>476.0</ele></trkpt>
   <trkpt lat="68.560381" lon="17.500083"><ele>476.0</ele></trkpt>
   <trkpt lat="68.560381" lon="17.500083"><ele>475.8</ele></trkpt>
   <trkpt lat="68.560381" lon="17.500087"><ele>476.2</ele></trkpt>
   <trkpt lat="68.560381" lon="17.500087"><ele>476.2</ele></trkpt>
   <trkpt lat="68.560381" lon="17.500087"><ele>476.2</ele></trkpt>
   <trkpt lat="68.560381" lon="17.500087"><ele>476.4</ele></trkpt>
   <trkpt lat="68.560384" lon="17.500087"><ele>477.0</ele></trkpt>
   <trkpt lat="68.560385" lon="17.500087"><ele>477.8</ele></trkpt>
   <trkpt lat="68.560385" lon="17.500087"><ele>478.2</ele></trkpt>
   <trkpt lat="68.560404" lon="17.500159"><ele>478.6</ele></trkpt>
   <trkpt lat="68.560431" lon="17.500294"><ele>478.6</ele></trkpt>
   <trkpt lat="68.560495" lon="17.500479"><ele>479.0</ele></trkpt>
   <trkpt lat="68.560502" lon="17.500493"><ele>479.2</ele></trkpt>
   <trkpt lat="68.560508" lon="17.500513"><ele>479.4</ele></trkpt>
   <trkpt lat="68.560553" lon="17.500609"><ele>480.0</ele></trkpt>
   <trkpt lat="68.560569" lon="17.500651"><ele>480.0</ele></trkpt>
   <trkpt lat="68.560589" lon="17.500692"><ele>480.2</ele></trkpt>
   <trkpt lat="68.560630" lon="17.500720"><ele>481.0</ele></trkpt>
   <trkpt lat="68.560652" lon="17.500706"><ele>481.4</ele></trkpt>
   <trkpt lat="68.560679" lon="17.500706"><ele>482.0</ele></trkpt>
   <trkpt lat="68.560686" lon="17.500701"><ele>482.4</ele></trkpt>
   <trkpt lat="68.560693" lon="17.500694"><ele>482.4</ele></trkpt>
   <trkpt lat="68.560731" lon="17.500670"><ele>483.4</ele></trkpt>
   <trkpt lat="68.560740" lon="17.500664"><ele>483.6</ele></trkpt>
   <trkpt lat="68.560757" lon="17.500662"><ele>483.8</ele></trkpt>
   <trkpt lat="68.560795" lon="17.500692"><ele>484.4</ele></trkpt>
   <trkpt lat="68.560801" lon="17.500697"><ele>484.6</ele></trkpt>
   <trkpt lat="68.560808" lon="17.500697"><ele>484.8</ele></trkpt>
   <trkpt lat="68.560837" lon="17.500753"><ele>485.2</ele></trkpt>
   <trkpt lat="68.560847" lon="17.500785"><ele>485.6</ele></trkpt>
   <trkpt lat="68.560852" lon="17.500802"><ele>485.8</ele></trkpt>
   <trkpt lat="68.560863" lon="17.500838"><ele>486.2</ele></trkpt>
   <trkpt lat="68.560863" lon="17.500840"><ele>486.2</ele></trkpt>
   <trkpt lat="68.560875" lon="17.500830"><ele>486.4</ele></trkpt>
   <trkpt lat="68.560887" lon="17.500818"><ele>486.4</ele></trkpt>
   <trkpt lat="68.560911" lon="17.500833"><ele>486.6</ele></trkpt>
   <trkpt lat="68.560935" lon="17.500975"><ele>487.0</ele></trkpt>
   <trkpt lat="68.560955" lon="17.501118"><ele>487.2</ele></trkpt>
   <trkpt lat="68.560957" lon="17.501163"><ele>487.4</ele></trkpt>
   <trkpt lat="68.560982" lon="17.501208"><ele>487.6</ele></trkpt>
   <trkpt lat="68.560991" lon="17.501225"><ele>487.6</ele></trkpt>
   <trkpt lat="68.560995" lon="17.501230"><ele>487.6</ele></trkpt>
   <trkpt lat="68.561011" lon="17.501300"><ele>487.8</ele></trkpt>
   <trkpt lat="68.561017" lon="17.501375"><ele>488.4</ele></trkpt>
   <trkpt lat="68.561037" lon="17.501447"><ele>488.8</ele></trkpt>
   <trkpt lat="68.561040" lon="17.501508"><ele>489.0</ele></trkpt>
   <trkpt lat="68.561044" lon="17.501617"><ele>489.6</ele></trkpt>
   <trkpt lat="68.561047" lon="17.501631"><ele>489.8</ele></trkpt>
   <trkpt lat="68.561069" lon="17.501717"><ele>490.2</ele></trkpt>
   <trkpt lat="68.561083" lon="17.501768"><ele>490.8</ele></trkpt>
   <trkpt lat="68.561084" lon="17.501771"><ele>490.8</ele></trkpt>
   <trkpt lat="68.561085" lon="17.501775"><ele>490.8</ele></trkpt>
   <trkpt lat="68.561095" lon="17.501838"><ele>491.8</ele></trkpt>
   <trkpt lat="68.561107" lon="17.501890"><ele>492.2</ele></trkpt>
   <trkpt lat="68.561116" lon="17.501947"><ele>492.8</ele></trkpt>
   <trkpt lat="68.561133" lon="17.502012"><ele>493.4</ele></trkpt>
   <trkpt lat="68.561133" lon="17.502047"><ele>493.6</ele></trkpt>
   <trkpt lat="68.561138" lon="17.502098"><ele>493.6</ele></trkpt>
   <trkpt lat="68.561146" lon="17.502162"><ele>493.8</ele></trkpt>
   <trkpt lat="68.561151" lon="17.502203"><ele>494.0</ele></trkpt>
   <trkpt lat="68.561162" lon="17.502293"><ele>494.6</ele></trkpt>
   <trkpt lat="68.561170" lon="17.502312"><ele>495.0</ele></trkpt>
   <trkpt lat="68.561174" lon="17.502326"><ele>495.2</ele></trkpt>
   <trkpt lat="68.561184" lon="17.502358"><ele>496.0</ele></trkpt>
   <trkpt lat="68.561189" lon="17.502402"><ele>496.2</ele></trkpt>
   <trkpt lat="68.561204" lon="17.502428"><ele>496.6</ele></trkpt>
   <trkpt lat="68.561221" lon="17.502419"><ele>497.0</ele></trkpt>
   <trkpt lat="68.561221" lon="17.502415"><ele>497.2</ele></trkpt>
   <trkpt lat="68.561222" lon="17.502386"><ele>497.8</ele></trkpt>
   <trkpt lat="68.561220" lon="17.502355"><ele>498.2</ele></trkpt>
   <trkpt lat="68.561234" lon="17.502250"><ele>499.0</ele></trkpt>
   <trkpt lat="68.561239" lon="17.502214"><ele>499.0</ele></trkpt>
   <trkpt lat="68.561261" lon="17.502149"><ele>499.4</ele></trkpt>
   <trkpt lat="68.561281" lon="17.502124"><ele>499.4</ele></trkpt>
   <trkpt lat="68.561296" lon="17.502099"><ele>500.0</ele></trkpt>
   <trkpt lat="68.561296" lon="17.502074"><ele>500.2</ele></trkpt>
   <trkpt lat="68.561295" lon="17.502059"><ele>500.4</ele></trkpt>
   <trkpt lat="68.561306" lon="17.502020"><ele>501.4</ele></trkpt>
   <trkpt lat="68.561338" lon="17.502017"><ele>502.0</ele></trkpt>
   <trkpt lat="68.561359" lon="17.502017"><ele>502.6</ele></trkpt>
   <trkpt lat="68.561394" lon="17.502066"><ele>503.4</ele></trkpt>
   <trkpt lat="68.561409" lon="17.502085"><ele>503.6</ele></trkpt>
   <trkpt lat="68.561431" lon="17.502124"><ele>504.4</ele></trkpt>
   <trkpt lat="68.561442" lon="17.502130"><ele>504.8</ele></trkpt>
   <trkpt lat="68.561455" lon="17.502128"><ele>505.2</ele></trkpt>
   <trkpt lat="68.561479" lon="17.502111"><ele>505.8</ele></trkpt>
   <trkpt lat="68.561484" lon="17.502105"><ele>506.0</ele></trkpt>
   <trkpt lat="68.561500" lon="17.502110"><ele>506.2</ele></trkpt>
   <trkpt lat="68.561525" lon="17.502112"><ele>507.0</ele></trkpt>
   <trkpt lat="68.561542" lon="17.502114"><ele>507.2</ele></trkpt>
   <trkpt lat="68.561576" lon="17.502099"><ele>507.8</ele></trkpt>
   <trkpt lat="68.561589" lon="17.502078"><ele>508.0</ele></trkpt>
   <trkpt lat="68.561607" lon="17.502070"><ele>508.4</ele></trkpt>
   <trkpt lat="68.561626" lon="17.502065"><ele>509.0</ele></trkpt>
   <trkpt lat="68.561629" lon="17.502056"><ele>509.6</ele></trkpt>
   <trkpt lat="68.561643" lon="17.502022"><ele>510.2</ele></trkpt>
   <trkpt lat="68.561655" lon="17.502038"><ele>510.8</ele></trkpt>
   <trkpt lat="68.561660" lon="17.502069"><ele>511.2</ele></trkpt>
   <trkpt lat="68.561667" lon="17.502140"><ele>512.2</ele></trkpt>
   <trkpt lat="68.561672" lon="17.502144"><ele>512.4</ele></trkpt>
   <trkpt lat="68.561684" lon="17.502140"><ele>512.8</ele></trkpt>
   <trkpt lat="68.561684" lon="17.502140"><ele>513.4</ele></trkpt>
   <trkpt lat="68.561684" lon="17.502140"><ele>513.8</ele></trkpt>
   <trkpt lat="68.561694" lon="17.502137"><ele>514.4</ele></trkpt>
   <trkpt lat="68.561713" lon="17.502134"><ele>515.0</ele></trkpt>
   <trkpt lat="68.561727" lon="17.502124"><ele>515.6</ele></trkpt>
   <trkpt lat="68.561744" lon="17.502121"><ele>516.2</ele></trkpt>
   <trkpt lat="68.561757" lon="17.502121"><ele>516.4</ele></trkpt>
   <trkpt lat="68.561777" lon="17.502121"><ele>516.6</ele></trkpt>
   <trkpt lat="68.561802" lon="17.502137"><ele>517.0</ele></trkpt>
   <trkpt lat="68.561813" lon="17.502148"><ele>517.6</ele></trkpt>
   <trkpt lat="68.561827" lon="17.502167"><ele>518.6</ele></trkpt>
   <trkpt lat="68.561828" lon="17.502168"><ele>518.8</ele></trkpt>
   <trkpt lat="68.561839" lon="17.502221"><ele>519.8</ele></trkpt>
   <trkpt lat="68.561856" lon="17.502372"><ele>520.8</ele></trkpt>
   <trkpt lat="68.561861" lon="17.502415"><ele>521.0</ele></trkpt>
   <trkpt lat="68.561875" lon="17.502497"><ele>521.2</ele></trkpt>
   <trkpt lat="68.561896" lon="17.502663"><ele>522.0</ele></trkpt>
   <trkpt lat="68.561900" lon="17.502703"><ele>522.2</ele></trkpt>
   <trkpt lat="68.561903" lon="17.502722"><ele>522.6</ele></trkpt>
   <trkpt lat="68.561906" lon="17.502725"><ele>522.6</ele></trkpt>
   <trkpt lat="68.561909" lon="17.502729"><ele>522.6</ele></trkpt>
   <trkpt lat="68.561919" lon="17.502757"><ele>523.0</ele></trkpt>
   <trkpt lat="68.561925" lon="17.502777"><ele>523.0</ele></trkpt>
   <trkpt lat="68.561968" lon="17.502896"><ele>524.0</ele></trkpt>
   <trkpt lat="68.561973" lon="17.502913"><ele>524.0</ele></trkpt>
   <trkpt lat="68.561973" lon="17.502916"><ele>524.2</ele></trkpt>
   <trkpt lat="68.561971" lon="17.502917"><ele>524.6</ele></trkpt>
   <trkpt lat="68.561977" lon="17.502912"><ele>525.2</ele></trkpt>
   <trkpt lat="68.561982" lon="17.502917"><ele>525.6</ele></trkpt>
   <trkpt lat="68.561981" lon="17.502914"><ele>525.8</ele></trkpt>
   <trkpt lat="68.561981" lon="17.502914"><ele>526.0</ele></trkpt>
   <trkpt lat="68.561981" lon="17.502914"><ele>526.2</ele></trkpt>
   <trkpt lat="68.561997" lon="17.502966"><ele>527.2</ele></trkpt>
  </trkseg>
 </trk>
</gpx>
