<?xml version="1.0" encoding="UTF-8"?>
<gpx version="1.1" creator="HPGT flysteder" xmlns="http://www.topografix.com/GPX/1/1">
 <trk>
  <name>Ramnskogheia – parkering til start</name>
  <trkseg>
   <trkpt lat="68.989913" lon="15.451979"><ele>15.8</ele></trkpt>
   <trkpt lat="68.989940" lon="15.451962"><ele>15.8</ele></trkpt>
   <trkpt lat="68.989994" lon="15.452043"><ele>15.2</ele></trkpt>
   <trkpt lat="68.990001" lon="15.452243"><ele>15.8</ele></trkpt>
   <trkpt lat="68.989992" lon="15.452264"><ele>15.8</ele></trkpt>
   <trkpt lat="68.989922" lon="15.452394"><ele>15.8</ele></trkpt>
   <trkpt lat="68.989887" lon="15.452461"><ele>15.8</ele></trkpt>
   <trkpt lat="68.989825" lon="15.452606"><ele>16.0</ele></trkpt>
   <trkpt lat="68.989754" lon="15.452734"><ele>16.0</ele></trkpt>
   <trkpt lat="68.989716" lon="15.452803"><ele>16.0</ele></trkpt>
   <trkpt lat="68.989705" lon="15.452833"><ele>16.0</ele></trkpt>
   <trkpt lat="68.989677" lon="15.452888"><ele>16.0</ele></trkpt>
   <trkpt lat="68.989651" lon="15.452931"><ele>16.0</ele></trkpt>
   <trkpt lat="68.989613" lon="15.453004"><ele>16.2</ele></trkpt>
   <trkpt lat="68.989550" lon="15.453156"><ele>16.6</ele></trkpt>
   <trkpt lat="68.989483" lon="15.453291"><ele>16.6</ele></trkpt>
   <trkpt lat="68.989462" lon="15.453338"><ele>16.6</ele></trkpt>
   <trkpt lat="68.989416" lon="15.453449"><ele>17.0</ele></trkpt>
   <trkpt lat="68.989364" lon="15.453586"><ele>17.0</ele></trkpt>
   <trkpt lat="68.989337" lon="15.453652"><ele>17.4</ele></trkpt>
   <trkpt lat="68.989275" lon="15.453815"><ele>17.6</ele></trkpt>
   <trkpt lat="68.989250" lon="15.453888"><ele>17.6</ele></trkpt>
   <trkpt lat="68.989185" lon="15.454047"><ele>17.6</ele></trkpt>
   <trkpt lat="68.989139" lon="15.454141"><ele>17.8</ele></trkpt>
   <trkpt lat="68.989130" lon="15.454169"><ele>17.8</ele></trkpt>
   <trkpt lat="68.989094" lon="15.454262"><ele>18.0</ele></trkpt>
   <trkpt lat="68.989038" lon="15.454421"><ele>18.2</ele></trkpt>
   <trkpt lat="68.989006" lon="15.454488"><ele>18.4</ele></trkpt>
   <trkpt lat="68.988952" lon="15.454614"><ele>18.4</ele></trkpt>
   <trkpt lat="68.988922" lon="15.454726"><ele>18.6</ele></trkpt>
   <trkpt lat="68.988872" lon="15.454853"><ele>19.0</ele></trkpt>
   <trkpt lat="68.988833" lon="15.454937"><ele>19.2</ele></trkpt>
   <trkpt lat="68.988779" lon="15.455071"><ele>19.4</ele></trkpt>
   <trkpt lat="68.988740" lon="15.455154"><ele>19.6</ele></trkpt>
   <trkpt lat="68.988732" lon="15.455176"><ele>19.6</ele></trkpt>
   <trkpt lat="68.988717" lon="15.455226"><ele>19.6</ele></trkpt>
   <trkpt lat="68.988661" lon="15.455374"><ele>20.0</ele></trkpt>
   <trkpt lat="68.988622" lon="15.455460"><ele>20.2</ele></trkpt>
   <trkpt lat="68.988586" lon="15.455542"><ele>20.6</ele></trkpt>
   <trkpt lat="68.988556" lon="15.455614"><ele>20.8</ele></trkpt>
   <trkpt lat="68.988546" lon="15.455632"><ele>21.0</ele></trkpt>
   <trkpt lat="68.988539" lon="15.455639"><ele>21.2</ele></trkpt>
   <trkpt lat="68.988493" lon="15.455769"><ele>21.6</ele></trkpt>
   <trkpt lat="68.988445" lon="15.455916"><ele>22.0</ele></trkpt>
   <trkpt lat="68.988437" lon="15.455937"><ele>22.2</ele></trkpt>
   <trkpt lat="68.988413" lon="15.455996"><ele>22.6</ele></trkpt>
   <trkpt lat="68.988378" lon="15.456109"><ele>23.2</ele></trkpt>
   <trkpt lat="68.988363" lon="15.456157"><ele>23.4</ele></trkpt>
   <trkpt lat="68.988341" lon="15.456250"><ele>24.0</ele></trkpt>
   <trkpt lat="68.988336" lon="15.456304"><ele>24.4</ele></trkpt>
   <trkpt lat="68.988336" lon="15.456481"><ele>25.4</ele></trkpt>
   <trkpt lat="68.988339" lon="15.456599"><ele>25.8</ele></trkpt>
   <trkpt lat="68.988351" lon="15.456718"><ele>26.6</ele></trkpt>
   <trkpt lat="68.988354" lon="15.456805"><ele>27.0</ele></trkpt>
   <trkpt lat="68.988356" lon="15.456833"><ele>27.2</ele></trkpt>
   <trkpt lat="68.988361" lon="15.456889"><ele>27.4</ele></trkpt>
   <trkpt lat="68.988361" lon="15.456918"><ele>27.6</ele></trkpt>
   <trkpt lat="68.988370" lon="15.457052"><ele>28.6</ele></trkpt>
   <trkpt lat="68.988361" lon="15.457195"><ele>29.6</ele></trkpt>
   <trkpt lat="68.988357" lon="15.457232"><ele>29.8</ele></trkpt>
   <trkpt lat="68.988307" lon="15.457408"><ele>30.2</ele></trkpt>
   <trkpt lat="68.988284" lon="15.457455"><ele>30.4</ele></trkpt>
   <trkpt lat="68.988223" lon="15.457543"><ele>30.6</ele></trkpt>
   <trkpt lat="68.988183" lon="15.457558"><ele>30.8</ele></trkpt>
   <trkpt lat="68.988170" lon="15.457567"><ele>30.8</ele></trkpt>
   <trkpt lat="68.988109" lon="15.457527"><ele>31.2</ele></trkpt>
   <trkpt lat="68.988080" lon="15.457450"><ele>31.6</ele></trkpt>
   <trkpt lat="68.988039" lon="15.457323"><ele>31.8</ele></trkpt>
   <trkpt lat="68.987996" lon="15.457214"><ele>32.2</ele></trkpt>
   <trkpt lat="68.987936" lon="15.457118"><ele>32.6</ele></trkpt>
   <trkpt lat="68.987891" lon="15.457106"><ele>32.8</ele></trkpt>
   <trkpt lat="68.987836" lon="15.457175"><ele>33.8</ele></trkpt>
   <trkpt lat="68.987818" lon="15.457214"><ele>34.2</ele></trkpt>
   <trkpt lat="68.987802" lon="15.457255"><ele>34.6</ele></trkpt>
   <trkpt lat="68.987798" lon="15.457267"><ele>34.8</ele></trkpt>
   <trkpt lat="68.987786" lon="15.457299"><ele>35.2</ele></trkpt>
   <trkpt lat="68.987755" lon="15.457391"><ele>35.8</ele></trkpt>
   <trkpt lat="68.987733" lon="15.457452"><ele>36.4</ele></trkpt>
   <trkpt lat="68.987691" lon="15.457564"><ele>37.4</ele></trkpt>
   <trkpt lat="68.987684" lon="15.457585"><ele>37.4</ele></trkpt>
   <trkpt lat="68.987669" lon="15.457637"><ele>37.8</ele></trkpt>
   <trkpt lat="68.987649" lon="15.457698"><ele>38.0</ele></trkpt>
   <trkpt lat="68.987629" lon="15.457782"><ele>38.6</ele></trkpt>
   <trkpt lat="68.987597" lon="15.457948"><ele>39.8</ele></trkpt>
   <trkpt lat="68.987571" lon="15.458083"><ele>41.0</ele></trkpt>
   <trkpt lat="68.987557" lon="15.458153"><ele>41.6</ele></trkpt>
   <trkpt lat="68.987545" lon="15.458214"><ele>42.2</ele></trkpt>
   <trkpt lat="68.987519" lon="15.458320"><ele>42.8</ele></trkpt>
   <trkpt lat="68.987511" lon="15.458375"><ele>43.2</ele></trkpt>
   <trkpt lat="68.987506" lon="15.458399"><ele>43.4</ele></trkpt>
   <trkpt lat="68.987499" lon="15.458423"><ele>43.6</ele></trkpt>
   <trkpt lat="68.987462" lon="15.458520"><ele>44.2</ele></trkpt>
   <trkpt lat="68.987435" lon="15.458588"><ele>44.8</ele></trkpt>
   <trkpt lat="68.987418" lon="15.458631"><ele>45.4</ele></trkpt>
   <trkpt lat="68.987365" lon="15.458748"><ele>46.4</ele></trkpt>
   <trkpt lat="68.987338" lon="15.458819"><ele>47.2</ele></trkpt>
   <trkpt lat="68.987327" lon="15.458834"><ele>47.4</ele></trkpt>
   <trkpt lat="68.987318" lon="15.458853"><ele>47.6</ele></trkpt>
   <trkpt lat="68.987293" lon="15.458917"><ele>48.2</ele></trkpt>
   <trkpt lat="68.987273" lon="15.458958"><ele>48.6</ele></trkpt>
   <trkpt lat="68.987206" lon="15.459062"><ele>49.2</ele></trkpt>
   <trkpt lat="68.987182" lon="15.459085"><ele>49.4</ele></trkpt>
   <trkpt lat="68.987170" lon="15.459091"><ele>49.6</ele></trkpt>
   <trkpt lat="68.987095" lon="15.459090"><ele>50.2</ele></trkpt>
   <trkpt lat="68.987060" lon="15.459078"><ele>50.2</ele></trkpt>
   <trkpt lat="68.987019" lon="15.459005"><ele>50.0</ele></trkpt>
   <trkpt lat="68.986989" lon="15.458935"><ele>49.8</ele></trkpt>
   <trkpt lat="68.986965" lon="15.458891"><ele>49.8</ele></trkpt>
   <trkpt lat="68.986906" lon="15.458779"><ele>49.0</ele></trkpt>
   <trkpt lat="68.986885" lon="15.458811"><ele>48.8</ele></trkpt>
   <trkpt lat="68.986864" lon="15.458893"><ele>48.6</ele></trkpt>
   <trkpt lat="68.986842" lon="15.459028"><ele>48.4</ele></trkpt>
   <trkpt lat="68.986825" lon="15.459228"><ele>48.2</ele></trkpt>
   <trkpt lat="68.986820" lon="15.459310"><ele>48.0</ele></trkpt>
   <trkpt lat="68.986817" lon="15.459354"><ele>48.0</ele></trkpt>
   <trkpt lat="68.986798" lon="15.459584"><ele>48.0</ele></trkpt>
   <trkpt lat="68.986783" lon="15.459737"><ele>48.2</ele></trkpt>
   <trkpt lat="68.986777" lon="15.459808"><ele>48.2</ele></trkpt>
   <trkpt lat="68.986758" lon="15.460023"><ele>48.4</ele></trkpt>
   <trkpt lat="68.986733" lon="15.460153"><ele>48.6</ele></trkpt>
   <trkpt lat="68.986711" lon="15.460365"><ele>49.0</ele></trkpt>
   <trkpt lat="68.986704" lon="15.460473"><ele>49.6</ele></trkpt>
   <trkpt lat="68.986699" lon="15.460505"><ele>49.8</ele></trkpt>
   <trkpt lat="68.986692" lon="15.460569"><ele>50.0</ele></trkpt>
   <trkpt lat="68.986680" lon="15.460682"><ele>50.4</ele></trkpt>
   <trkpt lat="68.986663" lon="15.460778"><ele>50.6</ele></trkpt>
   <trkpt lat="68.986659" lon="15.460811"><ele>50.6</ele></trkpt>
   <trkpt lat="68.986649" lon="15.460951"><ele>51.6</ele></trkpt>
   <trkpt lat="68.986646" lon="15.460987"><ele>51.6</ele></trkpt>
   <trkpt lat="68.986646" lon="15.461051"><ele>51.8</ele></trkpt>
   <trkpt lat="68.986664" lon="15.461136"><ele>52.6</ele></trkpt>
   <trkpt lat="68.986667" lon="15.461167"><ele>52.8</ele></trkpt>
   <trkpt lat="68.986673" lon="15.461226"><ele>53.2</ele></trkpt>
   <trkpt lat="68.986674" lon="15.461297"><ele>54.0</ele></trkpt>
   <trkpt lat="68.986683" lon="15.461354"><ele>54.6</ele></trkpt>
   <trkpt lat="68.986698" lon="15.461387"><ele>55.0</ele></trkpt>
   <trkpt lat="68.986734" lon="15.461473"><ele>56.2</ele></trkpt>
   <trkpt lat="68.986779" lon="15.461595"><ele>57.2</ele></trkpt>
   <trkpt lat="68.986788" lon="15.461617"><ele>57.4</ele></trkpt>
   <trkpt lat="68.986842" lon="15.461791"><ele>57.8</ele></trkpt>
   <trkpt lat="68.986860" lon="15.461851"><ele>58.0</ele></trkpt>
   <trkpt lat="68.986868" lon="15.461881"><ele>58.0</ele></trkpt>
   <trkpt lat="68.986877" lon="15.462108"><ele>58.2</ele></trkpt>
   <trkpt lat="68.986872" lon="15.462177"><ele>58.2</ele></trkpt>
   <trkpt lat="68.986863" lon="15.462274"><ele>58.4</ele></trkpt>
   <trkpt lat="68.986857" lon="15.462375"><ele>58.6</ele></trkpt>
   <trkpt lat="68.986847" lon="15.462439"><ele>58.8</ele></trkpt>
   <trkpt lat="68.986817" lon="15.462535"><ele>59.4</ele></trkpt>
   <trkpt lat="68.986811" lon="15.462577"><ele>59.8</ele></trkpt>
   <trkpt lat="68.986806" lon="15.462598"><ele>60.2</ele></trkpt>
   <trkpt lat="68.986803" lon="15.462641"><ele>60.6</ele></trkpt>
   <trkpt lat="68.986804" lon="15.462713"><ele>61.6</ele></trkpt>
   <trkpt lat="68.986798" lon="15.462739"><ele>61.6</ele></trkpt>
   <trkpt lat="68.986789" lon="15.462768"><ele>62.0</ele></trkpt>
   <trkpt lat="68.986775" lon="15.462834"><ele>62.8</ele></trkpt>
   <trkpt lat="68.986766" lon="15.462914"><ele>63.4</ele></trkpt>
   <trkpt lat="68.986763" lon="15.462945"><ele>63.8</ele></trkpt>
   <trkpt lat="68.986758" lon="15.462960"><ele>64.0</ele></trkpt>
   <trkpt lat="68.986746" lon="15.463014"><ele>64.8</ele></trkpt>
   <trkpt lat="68.986730" lon="15.463045"><ele>65.4</ele></trkpt>
   <trkpt lat="68.986713" lon="15.463055"><ele>66.0</ele></trkpt>
   <trkpt lat="68.986691" lon="15.463065"><ele>67.0</ele></trkpt>
   <trkpt lat="68.986683" lon="15.463069"><ele>67.4</ele></trkpt>
   <trkpt lat="68.986669" lon="15.463061"><ele>68.0</ele></trkpt>
   <trkpt lat="68.986653" lon="15.463094"><ele>69.2</ele></trkpt>
   <trkpt lat="68.986649" lon="15.463100"><ele>69.6</ele></trkpt>
   <trkpt lat="68.986634" lon="15.463109"><ele>70.2</ele></trkpt>
   <trkpt lat="68.986598" lon="15.463173"><ele>71.6</ele></trkpt>
   <trkpt lat="68.986565" lon="15.463215"><ele>72.6</ele></trkpt>
   <trkpt lat="68.986549" lon="15.463254"><ele>73.6</ele></trkpt>
   <trkpt lat="68.986545" lon="15.463257"><ele>73.8</ele></trkpt>
   <trkpt lat="68.986514" lon="15.463289"><ele>75.0</ele></trkpt>
   <trkpt lat="68.986493" lon="15.463302"><ele>75.6</ele></trkpt>
   <trkpt lat="68.986480" lon="15.463300"><ele>76.0</ele></trkpt>
   <trkpt lat="68.986452" lon="15.463332"><ele>77.2</ele></trkpt>
   <trkpt lat="68.986447" lon="15.463333"><ele>77.4</ele></trkpt>
   <trkpt lat="68.986417" lon="15.463317"><ele>78.4</ele></trkpt>
   <trkpt lat="68.986395" lon="15.463294"><ele>79.0</ele></trkpt>
   <trkpt lat="68.986385" lon="15.463293"><ele>79.2</ele></trkpt>
   <trkpt lat="68.986374" lon="15.463281"><ele>79.4</ele></trkpt>
   <trkpt lat="68.986346" lon="15.463279"><ele>80.2</ele></trkpt>
   <trkpt lat="68.986338" lon="15.463288"><ele>80.6</ele></trkpt>
   <trkpt lat="68.986308" lon="15.463337"><ele>81.6</ele></trkpt>
   <trkpt lat="68.986294" lon="15.463392"><ele>82.2</ele></trkpt>
   <trkpt lat="68.986281" lon="15.463442"><ele>82.8</ele></trkpt>
   <trkpt lat="68.986254" lon="15.463501"><ele>83.6</ele></trkpt>
   <trkpt lat="68.986247" lon="15.463506"><ele>83.8</ele></trkpt>
   <trkpt lat="68.986215" lon="15.463508"><ele>84.8</ele></trkpt>
   <trkpt lat="68.986182" lon="15.463494"><ele>85.6</ele></trkpt>
   <trkpt lat="68.986168" lon="15.463480"><ele>86.0</ele></trkpt>
   <trkpt lat="68.986125" lon="15.463457"><ele>86.8</ele></trkpt>
   <trkpt lat="68.986116" lon="15.463453"><ele>87.0</ele></trkpt>
   <trkpt lat="68.986109" lon="15.463450"><ele>87.2</ele></trkpt>
   <trkpt lat="68.986064" lon="15.463475"><ele>87.6</ele></trkpt>
   <trkpt lat="68.986060" lon="15.463480"><ele>87.8</ele></trkpt>
   <trkpt lat="68.986059" lon="15.463482"><ele>87.6</ele></trkpt>
   <trkpt lat="68.986056" lon="15.463471"><ele>87.6</ele></trkpt>
   <trkpt lat="68.986056" lon="15.463469"><ele>87.0</ele></trkpt>
   <trkpt lat="68.986058" lon="15.463469"><ele>87.0</ele></trkpt>
   <trkpt lat="68.986058" lon="15.463469"><ele>86.4</ele></trkpt>
   <trkpt lat="68.986059" lon="15.463464"><ele>86.6</ele></trkpt>
   <trkpt lat="68.986059" lon="15.463459"><ele>86.8</ele></trkpt>
   <trkpt lat="68.986058" lon="15.463458"><ele>87.0</ele></trkpt>
   <trkpt lat="68.986058" lon="15.463457"><ele>87.2</ele></trkpt>
   <trkpt lat="68.986058" lon="15.463457"><ele>87.2</ele></trkpt>
   <trkpt lat="68.986049" lon="15.463457"><ele>87.6</ele></trkpt>
   <trkpt lat="68.986044" lon="15.463457"><ele>87.6</ele></trkpt>
   <trkpt lat="68.986036" lon="15.463457"><ele>87.6</ele></trkpt>
   <trkpt lat="68.986008" lon="15.463473"><ele>88.0</ele></trkpt>
   <trkpt lat="68.986001" lon="15.463486"><ele>88.0</ele></trkpt>
   <trkpt lat="68.985989" lon="15.463495"><ele>88.8</ele></trkpt>
   <trkpt lat="68.985963" lon="15.463505"><ele>89.0</ele></trkpt>
   <trkpt lat="68.985949" lon="15.463508"><ele>88.2</ele></trkpt>
   <trkpt lat="68.985922" lon="15.463647"><ele>88.4</ele></trkpt>
   <trkpt lat="68.985853" lon="15.463730"><ele>89.0</ele></trkpt>
   <trkpt lat="68.985831" lon="15.463754"><ele>89.0</ele></trkpt>
   <trkpt lat="68.985769" lon="15.463787"><ele>89.6</ele></trkpt>
   <trkpt lat="68.985760" lon="15.463794"><ele>89.8</ele></trkpt>
   <trkpt lat="68.985741" lon="15.463806"><ele>90.2</ele></trkpt>
   <trkpt lat="68.985700" lon="15.463829"><ele>91.2</ele></trkpt>
   <trkpt lat="68.985662" lon="15.463865"><ele>92.4</ele></trkpt>
   <trkpt lat="68.985632" lon="15.463886"><ele>93.4</ele></trkpt>
   <trkpt lat="68.985622" lon="15.463892"><ele>93.6</ele></trkpt>
   <trkpt lat="68.985592" lon="15.463912"><ele>94.2</ele></trkpt>
   <trkpt lat="68.985572" lon="15.463926"><ele>94.4</ele></trkpt>
   <trkpt lat="68.985542" lon="15.463964"><ele>94.8</ele></trkpt>
   <trkpt lat="68.985506" lon="15.463996"><ele>95.0</ele></trkpt>
   <trkpt lat="68.985472" lon="15.464018"><ele>95.2</ele></trkpt>
   <trkpt lat="68.985450" lon="15.464042"><ele>95.4</ele></trkpt>
   <trkpt lat="68.985388" lon="15.464112"><ele>96.4</ele></trkpt>
   <trkpt lat="68.985378" lon="15.464127"><ele>96.8</ele></trkpt>
   <trkpt lat="68.985319" lon="15.464174"><ele>98.0</ele></trkpt>
   <trkpt lat="68.985291" lon="15.464237"><ele>99.0</ele></trkpt>
   <trkpt lat="68.985280" lon="15.464244"><ele>99.2</ele></trkpt>
   <trkpt lat="68.985239" lon="15.464291"><ele>100.2</ele></trkpt>
   <trkpt lat="68.985228" lon="15.464310"><ele>100.4</ele></trkpt>
   <trkpt lat="68.985178" lon="15.464418"><ele>100.6</ele></trkpt>
   <trkpt lat="68.985149" lon="15.464494"><ele>100.6</ele></trkpt>
   <trkpt lat="68.985089" lon="15.464610"><ele>100.4</ele></trkpt>
   <trkpt lat="68.985063" lon="15.464663"><ele>100.6</ele></trkpt>
   <trkpt lat="68.985022" lon="15.464737"><ele>101.4</ele></trkpt>
   <trkpt lat="68.984979" lon="15.464813"><ele>102.4</ele></trkpt>
   <trkpt lat="68.984929" lon="15.464895"><ele>103.4</ele></trkpt>
   <trkpt lat="68.984922" lon="15.464907"><ele>103.6</ele></trkpt>
   <trkpt lat="68.984915" lon="15.464922"><ele>103.8</ele></trkpt>
   <trkpt lat="68.984878" lon="15.464986"><ele>104.6</ele></trkpt>
   <trkpt lat="68.984838" lon="15.465060"><ele>105.6</ele></trkpt>
   <trkpt lat="68.984828" lon="15.465073"><ele>106.0</ele></trkpt>
   <trkpt lat="68.984800" lon="15.465119"><ele>106.6</ele></trkpt>
   <trkpt lat="68.984759" lon="15.465191"><ele>108.0</ele></trkpt>
   <trkpt lat="68.984716" lon="15.465307"><ele>109.0</ele></trkpt>
   <trkpt lat="68.984682" lon="15.465378"><ele>110.0</ele></trkpt>
   <trkpt lat="68.984672" lon="15.465397"><ele>110.2</ele></trkpt>
   <trkpt lat="68.984632" lon="15.465495"><ele>111.2</ele></trkpt>
   <trkpt lat="68.984613" lon="15.465532"><ele>111.6</ele></trkpt>
   <trkpt lat="68.984589" lon="15.465565"><ele>112.6</ele></trkpt>
   <trkpt lat="68.984550" lon="15.465653"><ele>113.4</ele></trkpt>
   <trkpt lat="68.984535" lon="15.465675"><ele>113.8</ele></trkpt>
   <trkpt lat="68.984502" lon="15.465768"><ele>114.6</ele></trkpt>
   <trkpt lat="68.984500" lon="15.465794"><ele>114.8</ele></trkpt>
   <trkpt lat="68.984481" lon="15.465894"><ele>115.8</ele></trkpt>
   <trkpt lat="68.984476" lon="15.465910"><ele>116.2</ele></trkpt>
   <trkpt lat="68.984469" lon="15.465956"><ele>117.0</ele></trkpt>
   <trkpt lat="68.984475" lon="15.466033"><ele>118.0</ele></trkpt>
   <trkpt lat="68.984464" lon="15.466134"><ele>119.4</ele></trkpt>
   <trkpt lat="68.984445" lon="15.466207"><ele>120.0</ele></trkpt>
   <trkpt lat="68.984436" lon="15.466218"><ele>120.4</ele></trkpt>
   <trkpt lat="68.984401" lon="15.466291"><ele>121.4</ele></trkpt>
   <trkpt lat="68.984397" lon="15.466306"><ele>121.8</ele></trkpt>
   <trkpt lat="68.984392" lon="15.466325"><ele>122.0</ele></trkpt>
   <trkpt lat="68.984376" lon="15.466371"><ele>122.6</ele></trkpt>
   <trkpt lat="68.984350" lon="15.466456"><ele>123.8</ele></trkpt>
   <trkpt lat="68.984328" lon="15.466529"><ele>124.8</ele></trkpt>
   <trkpt lat="68.984310" lon="15.466590"><ele>125.4</ele></trkpt>
   <trkpt lat="68.984286" lon="15.466649"><ele>126.0</ele></trkpt>
   <trkpt lat="68.984268" lon="15.466686"><ele>126.4</ele></trkpt>
   <trkpt lat="68.984264" lon="15.466700"><ele>126.6</ele></trkpt>
   <trkpt lat="68.984256" lon="15.466724"><ele>126.8</ele></trkpt>
   <trkpt lat="68.984248" lon="15.466739"><ele>127.0</ele></trkpt>
   <trkpt lat="68.984201" lon="15.466811"><ele>128.0</ele></trkpt>
   <trkpt lat="68.984177" lon="15.466843"><ele>128.6</ele></trkpt>
   <trkpt lat="68.984166" lon="15.466873"><ele>129.2</ele></trkpt>
   <trkpt lat="68.984152" lon="15.466906"><ele>129.4</ele></trkpt>
   <trkpt lat="68.984128" lon="15.466983"><ele>130.2</ele></trkpt>
   <trkpt lat="68.984123" lon="15.467004"><ele>130.4</ele></trkpt>
   <trkpt lat="68.984099" lon="15.467079"><ele>131.4</ele></trkpt>
   <trkpt lat="68.984079" lon="15.467182"><ele>132.6</ele></trkpt>
   <trkpt lat="68.984074" lon="15.467203"><ele>132.8</ele></trkpt>
   <trkpt lat="68.984062" lon="15.467273"><ele>133.6</ele></trkpt>
   <trkpt lat="68.984046" lon="15.467350"><ele>134.6</ele></trkpt>
   <trkpt lat="68.984046" lon="15.467402"><ele>135.2</ele></trkpt>
   <trkpt lat="68.984047" lon="15.467424"><ele>135.4</ele></trkpt>
   <trkpt lat="68.984049" lon="15.467445"><ele>135.8</ele></trkpt>
   <trkpt lat="68.984052" lon="15.467553"><ele>137.0</ele></trkpt>
   <trkpt lat="68.984062" lon="15.467626"><ele>138.0</ele></trkpt>
   <trkpt lat="68.984067" lon="15.467648"><ele>138.2</ele></trkpt>
   <trkpt lat="68.984078" lon="15.467750"><ele>139.4</ele></trkpt>
   <trkpt lat="68.984101" lon="15.467845"><ele>140.6</ele></trkpt>
   <trkpt lat="68.984119" lon="15.467932"><ele>141.8</ele></trkpt>
   <trkpt lat="68.984152" lon="15.467992"><ele>142.8</ele></trkpt>
   <trkpt lat="68.984151" lon="15.468001"><ele>143.0</ele></trkpt>
   <trkpt lat="68.984151" lon="15.468012"><ele>142.8</ele></trkpt>
   <trkpt lat="68.984152" lon="15.468031"><ele>143.2</ele></trkpt>
   <trkpt lat="68.984151" lon="15.468041"><ele>143.0</ele></trkpt>
   <trkpt lat="68.984150" lon="15.468036"><ele>143.0</ele></trkpt>
   <trkpt lat="68.984150" lon="15.468036"><ele>142.8</ele></trkpt>
   <trkpt lat="68.984150" lon="15.468036"><ele>142.8</ele></trkpt>
   <trkpt lat="68.984150" lon="15.468040"><ele>142.8</ele></trkpt>
   <trkpt lat="68.984173" lon="15.468116"><ele>143.6</ele></trkpt>
   <trkpt lat="68.984180" lon="15.468149"><ele>143.8</ele></trkpt>
   <trkpt lat="68.984188" lon="15.468186"><ele>144.4</ele></trkpt>
   <trkpt lat="68.984231" lon="15.468339"><ele>145.4</ele></trkpt>
   <trkpt lat="68.984241" lon="15.468362"><ele>145.6</ele></trkpt>
   <trkpt lat="68.984247" lon="15.468386"><ele>145.8</ele></trkpt>
   <trkpt lat="68.984261" lon="15.468476"><ele>146.6</ele></trkpt>
   <trkpt lat="68.984270" lon="15.468544"><ele>147.2</ele></trkpt>
   <trkpt lat="68.984273" lon="15.468590"><ele>147.8</ele></trkpt>
   <trkpt lat="68.984270" lon="15.468668"><ele>148.6</ele></trkpt>
   <trkpt lat="68.984271" lon="15.468689"><ele>148.8</ele></trkpt>
   <trkpt lat="68.984261" lon="15.468729"><ele>149.0</ele></trkpt>
   <trkpt lat="68.984247" lon="15.468880"><ele>149.8</ele></trkpt>
   <trkpt lat="68.984239" lon="15.469030"><ele>150.6</ele></trkpt>
   <trkpt lat="68.984240" lon="15.469065"><ele>150.8</ele></trkpt>
   <trkpt lat="68.984245" lon="15.469089"><ele>151.0</ele></trkpt>
   <trkpt lat="68.984243" lon="15.469234"><ele>151.8</ele></trkpt>
   <trkpt lat="68.984239" lon="15.469279"><ele>152.0</ele></trkpt>
   <trkpt lat="68.984225" lon="15.469385"><ele>152.6</ele></trkpt>
   <trkpt lat="68.984222" lon="15.469434"><ele>153.0</ele></trkpt>
   <trkpt lat="68.984223" lon="15.469517"><ele>153.8</ele></trkpt>
   <trkpt lat="68.984225" lon="15.469557"><ele>154.2</ele></trkpt>
   <trkpt lat="68.984218" lon="15.469604"><ele>155.0</ele></trkpt>
   <trkpt lat="68.984217" lon="15.469661"><ele>155.2</ele></trkpt>
   <trkpt lat="68.984234" lon="15.469730"><ele>156.0</ele></trkpt>
   <trkpt lat="68.984235" lon="15.469753"><ele>156.4</ele></trkpt>
   <trkpt lat="68.984230" lon="15.469862"><ele>157.6</ele></trkpt>
   <trkpt lat="68.984232" lon="15.469907"><ele>158.0</ele></trkpt>
   <trkpt lat="68.984246" lon="15.470036"><ele>158.6</ele></trkpt>
   <trkpt lat="68.984243" lon="15.470062"><ele>158.8</ele></trkpt>
   <trkpt lat="68.984240" lon="15.470085"><ele>158.8</ele></trkpt>
   <trkpt lat="68.984230" lon="15.470214"><ele>159.4</ele></trkpt>
   <trkpt lat="68.984225" lon="15.470285"><ele>159.8</ele></trkpt>
   <trkpt lat="68.984222" lon="15.470307"><ele>159.8</ele></trkpt>
   <trkpt lat="68.984205" lon="15.470420"><ele>160.4</ele></trkpt>
   <trkpt lat="68.984202" lon="15.470443"><ele>160.4</ele></trkpt>
   <trkpt lat="68.984185" lon="15.470491"><ele>160.8</ele></trkpt>
   <trkpt lat="68.984176" lon="15.470579"><ele>161.4</ele></trkpt>
   <trkpt lat="68.984167" lon="15.470652"><ele>161.8</ele></trkpt>
   <trkpt lat="68.984168" lon="15.470731"><ele>162.2</ele></trkpt>
   <trkpt lat="68.984187" lon="15.470819"><ele>162.8</ele></trkpt>
   <trkpt lat="68.984188" lon="15.470841"><ele>163.0</ele></trkpt>
   <trkpt lat="68.984188" lon="15.470873"><ele>163.4</ele></trkpt>
   <trkpt lat="68.984177" lon="15.470965"><ele>164.0</ele></trkpt>
   <trkpt lat="68.984181" lon="15.471035"><ele>164.8</ele></trkpt>
   <trkpt lat="68.984179" lon="15.471098"><ele>165.2</ele></trkpt>
   <trkpt lat="68.984181" lon="15.471204"><ele>166.0</ele></trkpt>
   <trkpt lat="68.984182" lon="15.471217"><ele>166.2</ele></trkpt>
   <trkpt lat="68.984182" lon="15.471228"><ele>166.2</ele></trkpt>
   <trkpt lat="68.984172" lon="15.471337"><ele>167.2</ele></trkpt>
   <trkpt lat="68.984170" lon="15.471357"><ele>167.2</ele></trkpt>
   <trkpt lat="68.984170" lon="15.471417"><ele>167.6</ele></trkpt>
   <trkpt lat="68.984169" lon="15.471553"><ele>168.2</ele></trkpt>
   <trkpt lat="68.984166" lon="15.471578"><ele>168.4</ele></trkpt>
   <trkpt lat="68.984168" lon="15.471599"><ele>168.4</ele></trkpt>
   <trkpt lat="68.984170" lon="15.471642"><ele>168.8</ele></trkpt>
   <trkpt lat="68.984168" lon="15.471759"><ele>169.4</ele></trkpt>
   <trkpt lat="68.984167" lon="15.471826"><ele>170.0</ele></trkpt>
   <trkpt lat="68.984167" lon="15.471894"><ele>170.6</ele></trkpt>
   <trkpt lat="68.984172" lon="15.471977"><ele>171.2</ele></trkpt>
   <trkpt lat="68.984170" lon="15.472010"><ele>171.6</ele></trkpt>
   <trkpt lat="68.984171" lon="15.472112"><ele>172.6</ele></trkpt>
   <trkpt lat="68.984169" lon="15.472205"><ele>173.4</ele></trkpt>
   <trkpt lat="68.984169" lon="15.472224"><ele>173.4</ele></trkpt>
   <trkpt lat="68.984166" lon="15.472274"><ele>173.8</ele></trkpt>
   <trkpt lat="68.984170" lon="15.472351"><ele>174.6</ele></trkpt>
   <trkpt lat="68.984171" lon="15.472372"><ele>174.8</ele></trkpt>
   <trkpt lat="68.984169" lon="15.472487"><ele>175.6</ele></trkpt>
   <trkpt lat="68.984167" lon="15.472500"><ele>175.8</ele></trkpt>
   <trkpt lat="68.984174" lon="15.472599"><ele>176.4</ele></trkpt>
   <trkpt lat="68.984173" lon="15.472643"><ele>176.6</ele></trkpt>
   <trkpt lat="68.984173" lon="15.472695"><ele>177.0</ele></trkpt>
   <trkpt lat="68.984171" lon="15.472819"><ele>177.6</ele></trkpt>
   <trkpt lat="68.984173" lon="15.472880"><ele>178.0</ele></trkpt>
   <trkpt lat="68.984172" lon="15.472989"><ele>178.8</ele></trkpt>
   <trkpt lat="68.984169" lon="15.473019"><ele>179.0</ele></trkpt>
   <trkpt lat="68.984174" lon="15.473126"><ele>179.6</ele></trkpt>
   <trkpt lat="68.984172" lon="15.473188"><ele>180.0</ele></trkpt>
   <trkpt lat="68.984177" lon="15.473267"><ele>180.8</ele></trkpt>
   <trkpt lat="68.984177" lon="15.473282"><ele>181.0</ele></trkpt>
   <trkpt lat="68.984179" lon="15.473361"><ele>182.0</ele></trkpt>
   <trkpt lat="68.984171" lon="15.473472"><ele>183.0</ele></trkpt>
   <trkpt lat="68.984172" lon="15.473482"><ele>183.2</ele></trkpt>
   <trkpt lat="68.984175" lon="15.473520"><ele>184.0</ele></trkpt>
   <trkpt lat="68.984175" lon="15.473546"><ele>184.2</ele></trkpt>
   <trkpt lat="68.984180" lon="15.473615"><ele>185.2</ele></trkpt>
   <trkpt lat="68.984178" lon="15.473677"><ele>186.0</ele></trkpt>
   <trkpt lat="68.984178" lon="15.473717"><ele>186.2</ele></trkpt>
   <trkpt lat="68.984183" lon="15.473791"><ele>187.0</ele></trkpt>
   <trkpt lat="68.984185" lon="15.473835"><ele>187.4</ele></trkpt>
   <trkpt lat="68.984182" lon="15.473881"><ele>187.8</ele></trkpt>
   <trkpt lat="68.984178" lon="15.473956"><ele>188.4</ele></trkpt>
   <trkpt lat="68.984170" lon="15.474064"><ele>189.6</ele></trkpt>
   <trkpt lat="68.984170" lon="15.474171"><ele>190.2</ele></trkpt>
   <trkpt lat="68.984167" lon="15.474221"><ele>190.6</ele></trkpt>
   <trkpt lat="68.984164" lon="15.474313"><ele>191.0</ele></trkpt>
   <trkpt lat="68.984150" lon="15.474383"><ele>191.8</ele></trkpt>
   <trkpt lat="68.984145" lon="15.474437"><ele>192.2</ele></trkpt>
   <trkpt lat="68.984146" lon="15.474518"><ele>192.8</ele></trkpt>
   <trkpt lat="68.984141" lon="15.474567"><ele>193.0</ele></trkpt>
   <trkpt lat="68.984137" lon="15.474684"><ele>193.8</ele></trkpt>
   <trkpt lat="68.984137" lon="15.474741"><ele>194.0</ele></trkpt>
   <trkpt lat="68.984138" lon="15.474791"><ele>194.4</ele></trkpt>
   <trkpt lat="68.984130" lon="15.474878"><ele>195.0</ele></trkpt>
   <trkpt lat="68.984128" lon="15.474901"><ele>195.4</ele></trkpt>
   <trkpt lat="68.984129" lon="15.475006"><ele>196.2</ele></trkpt>
   <trkpt lat="68.984126" lon="15.475054"><ele>196.4</ele></trkpt>
   <trkpt lat="68.984113" lon="15.475187"><ele>197.2</ele></trkpt>
   <trkpt lat="68.984106" lon="15.475247"><ele>197.4</ele></trkpt>
   <trkpt lat="68.984091" lon="15.475343"><ele>198.0</ele></trkpt>
   <trkpt lat="68.984086" lon="15.475358"><ele>198.2</ele></trkpt>
   <trkpt lat="68.984086" lon="15.475379"><ele>198.6</ele></trkpt>
   <trkpt lat="68.984081" lon="15.475461"><ele>199.0</ele></trkpt>
   <trkpt lat="68.984081" lon="15.475516"><ele>199.6</ele></trkpt>
   <trkpt lat="68.984081" lon="15.475535"><ele>199.8</ele></trkpt>
   <trkpt lat="68.984079" lon="15.475586"><ele>200.0</ele></trkpt>
   <trkpt lat="68.984076" lon="15.475674"><ele>200.8</ele></trkpt>
   <trkpt lat="68.984074" lon="15.475735"><ele>201.2</ele></trkpt>
   <trkpt lat="68.984076" lon="15.475825"><ele>201.8</ele></trkpt>
   <trkpt lat="68.984073" lon="15.475901"><ele>202.4</ele></trkpt>
   <trkpt lat="68.984070" lon="15.475975"><ele>203.0</ele></trkpt>
   <trkpt lat="68.984071" lon="15.476021"><ele>203.4</ele></trkpt>
   <trkpt lat="68.984060" lon="15.476110"><ele>204.0</ele></trkpt>
   <trkpt lat="68.984044" lon="15.476194"><ele>204.6</ele></trkpt>
   <trkpt lat="68.984035" lon="15.476295"><ele>205.2</ele></trkpt>
   <trkpt lat="68.984018" lon="15.476384"><ele>205.8</ele></trkpt>
   <trkpt lat="68.984018" lon="15.476438"><ele>206.4</ele></trkpt>
   <trkpt lat="68.984008" lon="15.476520"><ele>207.2</ele></trkpt>
   <trkpt lat="68.984004" lon="15.476542"><ele>207.4</ele></trkpt>
   <trkpt lat="68.983997" lon="15.476573"><ele>207.4</ele></trkpt>
   <trkpt lat="68.983969" lon="15.476698"><ele>208.2</ele></trkpt>
   <trkpt lat="68.983961" lon="15.476750"><ele>208.6</ele></trkpt>
   <trkpt lat="68.983932" lon="15.476837"><ele>209.0</ele></trkpt>
   <trkpt lat="68.983916" lon="15.476939"><ele>209.4</ele></trkpt>
   <trkpt lat="68.983908" lon="15.476970"><ele>209.6</ele></trkpt>
   <trkpt lat="68.983887" lon="15.477063"><ele>209.6</ele></trkpt>
   <trkpt lat="68.983882" lon="15.477104"><ele>210.0</ele></trkpt>
   <trkpt lat="68.983865" lon="15.477226"><ele>210.6</ele></trkpt>
   <trkpt lat="68.983861" lon="15.477301"><ele>211.0</ele></trkpt>
   <trkpt lat="68.983853" lon="15.477379"><ele>211.4</ele></trkpt>
   <trkpt lat="68.983848" lon="15.477414"><ele>211.8</ele></trkpt>
   <trkpt lat="68.983839" lon="15.477519"><ele>212.6</ele></trkpt>
   <trkpt lat="68.983835" lon="15.477554"><ele>212.8</ele></trkpt>
   <trkpt lat="68.983820" lon="15.477685"><ele>213.2</ele></trkpt>
   <trkpt lat="68.983816" lon="15.477725"><ele>213.6</ele></trkpt>
   <trkpt lat="68.983807" lon="15.477757"><ele>213.8</ele></trkpt>
   <trkpt lat="68.983792" lon="15.477853"><ele>214.2</ele></trkpt>
   <trkpt lat="68.983782" lon="15.477919"><ele>214.4</ele></trkpt>
   <trkpt lat="68.983776" lon="15.477973"><ele>214.8</ele></trkpt>
   <trkpt lat="68.983755" lon="15.478121"><ele>215.4</ele></trkpt>
   <trkpt lat="68.983751" lon="15.478148"><ele>215.4</ele></trkpt>
   <trkpt lat="68.983741" lon="15.478246"><ele>215.8</ele></trkpt>
   <trkpt lat="68.983729" lon="15.478378"><ele>216.4</ele></trkpt>
   <trkpt lat="68.983726" lon="15.478398"><ele>216.6</ele></trkpt>
   <trkpt lat="68.983711" lon="15.478503"><ele>217.0</ele></trkpt>
   <trkpt lat="68.983700" lon="15.478630"><ele>217.6</ele></trkpt>
   <trkpt lat="68.983693" lon="15.478692"><ele>218.0</ele></trkpt>
   <trkpt lat="68.983682" lon="15.478815"><ele>218.6</ele></trkpt>
   <trkpt lat="68.983675" lon="15.478843"><ele>218.6</ele></trkpt>
   <trkpt lat="68.983662" lon="15.478933"><ele>219.0</ele></trkpt>
   <trkpt lat="68.983647" lon="15.479013"><ele>219.2</ele></trkpt>
   <trkpt lat="68.983619" lon="15.479097"><ele>219.4</ele></trkpt>
   <trkpt lat="68.983610" lon="15.479143"><ele>219.6</ele></trkpt>
   <trkpt lat="68.983604" lon="15.479207"><ele>220.0</ele></trkpt>
   <trkpt lat="68.983599" lon="15.479232"><ele>220.0</ele></trkpt>
   <trkpt lat="68.983575" lon="15.479367"><ele>220.6</ele></trkpt>
   <trkpt lat="68.983567" lon="15.479438"><ele>220.6</ele></trkpt>
   <trkpt lat="68.983561" lon="15.479494"><ele>220.8</ele></trkpt>
   <trkpt lat="68.983534" lon="15.479644"><ele>221.0</ele></trkpt>
   <trkpt lat="68.983508" lon="15.479764"><ele>221.2</ele></trkpt>
   <trkpt lat="68.983504" lon="15.479779"><ele>221.4</ele></trkpt>
   <trkpt lat="68.983489" lon="15.479888"><ele>221.8</ele></trkpt>
   <trkpt lat="68.983485" lon="15.479926"><ele>222.2</ele></trkpt>
   <trkpt lat="68.983483" lon="15.479949"><ele>222.2</ele></trkpt>
   <trkpt lat="68.983472" lon="15.480020"><ele>223.0</ele></trkpt>
   <trkpt lat="68.983467" lon="15.480038"><ele>223.0</ele></trkpt>
   <trkpt lat="68.983457" lon="15.480070"><ele>223.2</ele></trkpt>
   <trkpt lat="68.983446" lon="15.480143"><ele>223.6</ele></trkpt>
   <trkpt lat="68.983430" lon="15.480250"><ele>224.0</ele></trkpt>
   <trkpt lat="68.983417" lon="15.480310"><ele>224.2</ele></trkpt>
   <trkpt lat="68.983406" lon="15.480366"><ele>224.4</ele></trkpt>
   <trkpt lat="68.983399" lon="15.480423"><ele>224.6</ele></trkpt>
   <trkpt lat="68.983392" lon="15.480486"><ele>224.8</ele></trkpt>
   <trkpt lat="68.983378" lon="15.480569"><ele>225.2</ele></trkpt>
   <trkpt lat="68.983377" lon="15.480579"><ele>225.4</ele></trkpt>
   <trkpt lat="68.983373" lon="15.480633"><ele>226.0</ele></trkpt>
   <trkpt lat="68.983374" lon="15.480634"><ele>225.6</ele></trkpt>
   <trkpt lat="68.983374" lon="15.480634"><ele>225.6</ele></trkpt>
   <trkpt lat="68.983374" lon="15.480634"><ele>225.8</ele></trkpt>
   <trkpt lat="68.983373" lon="15.480634"><ele>226.4</ele></trkpt>
   <trkpt lat="68.983369" lon="15.480643"><ele>226.6</ele></trkpt>
   <trkpt lat="68.983340" lon="15.480824"><ele>227.6</ele></trkpt>
   <trkpt lat="68.983329" lon="15.480921"><ele>227.8</ele></trkpt>
   <trkpt lat="68.983299" lon="15.481163"><ele>228.6</ele></trkpt>
   <trkpt lat="68.983294" lon="15.481176"><ele>228.8</ele></trkpt>
   <trkpt lat="68.983283" lon="15.481240"><ele>229.2</ele></trkpt>
   <trkpt lat="68.983280" lon="15.481285"><ele>229.4</ele></trkpt>
   <trkpt lat="68.983272" lon="15.481349"><ele>229.8</ele></trkpt>
   <trkpt lat="68.983270" lon="15.481409"><ele>230.2</ele></trkpt>
   <trkpt lat="68.983267" lon="15.481457"><ele>230.4</ele></trkpt>
   <trkpt lat="68.983259" lon="15.481537"><ele>230.8</ele></trkpt>
   <trkpt lat="68.983254" lon="15.481561"><ele>230.8</ele></trkpt>
   <trkpt lat="68.983237" lon="15.481674"><ele>231.8</ele></trkpt>
   <trkpt lat="68.983235" lon="15.481688"><ele>231.8</ele></trkpt>
   <trkpt lat="68.983233" lon="15.481710"><ele>232.0</ele></trkpt>
   <trkpt lat="68.983214" lon="15.481852"><ele>232.4</ele></trkpt>
   <trkpt lat="68.983213" lon="15.481870"><ele>232.6</ele></trkpt>
   <trkpt lat="68.983210" lon="15.481901"><ele>233.0</ele></trkpt>
   <trkpt lat="68.983203" lon="15.481976"><ele>233.2</ele></trkpt>
   <trkpt lat="68.983203" lon="15.481985"><ele>233.2</ele></trkpt>
   <trkpt lat="68.983207" lon="15.482036"><ele>233.8</ele></trkpt>
   <trkpt lat="68.983210" lon="15.482045"><ele>234.0</ele></trkpt>
   <trkpt lat="68.983212" lon="15.482054"><ele>234.2</ele></trkpt>
   <trkpt lat="68.983223" lon="15.482077"><ele>234.6</ele></trkpt>
   <trkpt lat="68.983229" lon="15.482099"><ele>235.2</ele></trkpt>
   <trkpt lat="68.983252" lon="15.482147"><ele>236.0</ele></trkpt>
   <trkpt lat="68.983257" lon="15.482157"><ele>236.2</ele></trkpt>
   <trkpt lat="68.983276" lon="15.482196"><ele>237.4</ele></trkpt>
   <trkpt lat="68.983278" lon="15.482239"><ele>238.2</ele></trkpt>
   <trkpt lat="68.983282" lon="15.482248"><ele>238.6</ele></trkpt>
   <trkpt lat="68.983296" lon="15.482263"><ele>239.0</ele></trkpt>
   <trkpt lat="68.983298" lon="15.482276"><ele>239.4</ele></trkpt>
   <trkpt lat="68.983299" lon="15.482285"><ele>239.6</ele></trkpt>
   <trkpt lat="68.983306" lon="15.482322"><ele>240.2</ele></trkpt>
   <trkpt lat="68.983316" lon="15.482334"><ele>240.6</ele></trkpt>
   <trkpt lat="68.983313" lon="15.482410"><ele>241.6</ele></trkpt>
   <trkpt lat="68.983311" lon="15.482427"><ele>241.6</ele></trkpt>
   <trkpt lat="68.983320" lon="15.482425"><ele>241.8</ele></trkpt>
   <trkpt lat="68.983344" lon="15.482409"><ele>242.6</ele></trkpt>
   <trkpt lat="68.983348" lon="15.482409"><ele>242.6</ele></trkpt>
   <trkpt lat="68.983355" lon="15.482405"><ele>242.8</ele></trkpt>
   <trkpt lat="68.983377" lon="15.482405"><ele>243.2</ele></trkpt>
   <trkpt lat="68.983386" lon="15.482387"><ele>243.4</ele></trkpt>
   <trkpt lat="68.983406" lon="15.482357"><ele>243.8</ele></trkpt>
   <trkpt lat="68.983423" lon="15.482383"><ele>244.4</ele></trkpt>
   <trkpt lat="68.983432" lon="15.482395"><ele>244.8</ele></trkpt>
   <trkpt lat="68.983436" lon="15.482394"><ele>245.4</ele></trkpt>
   <trkpt lat="68.983436" lon="15.482393"><ele>245.4</ele></trkpt>
   <trkpt lat="68.983436" lon="15.482393"><ele>245.2</ele></trkpt>
   <trkpt lat="68.983436" lon="15.482393"><ele>245.0</ele></trkpt>
   <trkpt lat="68.983436" lon="15.482393"><ele>244.8</ele></trkpt>
   <trkpt lat="68.983435" lon="15.482394"><ele>244.6</ele></trkpt>
   <trkpt lat="68.983436" lon="15.482394"><ele>244.4</ele></trkpt>
   <trkpt lat="68.983436" lon="15.482398"><ele>244.2</ele></trkpt>
   <trkpt lat="68.983437" lon="15.482406"><ele>244.2</ele></trkpt>
   <trkpt lat="68.983439" lon="15.482410"><ele>245.0</ele></trkpt>
   <trkpt lat="68.983448" lon="15.482434"><ele>245.6</ele></trkpt>
   <trkpt lat="68.983470" lon="15.482451"><ele>246.0</ele></trkpt>
   <trkpt lat="68.983505" lon="15.482470"><ele>246.6</ele></trkpt>
   <trkpt lat="68.983534" lon="15.482515"><ele>247.2</ele></trkpt>
   <trkpt lat="68.983549" lon="15.482562"><ele>248.4</ele></trkpt>
   <trkpt lat="68.983576" lon="15.482553"><ele>249.2</ele></trkpt>
   <trkpt lat="68.983585" lon="15.482569"><ele>249.4</ele></trkpt>
   <trkpt lat="68.983594" lon="15.482568"><ele>250.0</ele></trkpt>
   <trkpt lat="68.983603" lon="15.482563"><ele>250.4</ele></trkpt>
   <trkpt lat="68.983634" lon="15.482566"><ele>251.2</ele></trkpt>
   <trkpt lat="68.983641" lon="15.482578"><ele>251.4</ele></trkpt>
   <trkpt lat="68.983646" lon="15.482583"><ele>251.8</ele></trkpt>
   <trkpt lat="68.983661" lon="15.482628"><ele>252.6</ele></trkpt>
   <trkpt lat="68.983663" lon="15.482634"><ele>252.8</ele></trkpt>
   <trkpt lat="68.983674" lon="15.482669"><ele>253.4</ele></trkpt>
   <trkpt lat="68.983676" lon="15.482708"><ele>253.8</ele></trkpt>
   <trkpt lat="68.983685" lon="15.482717"><ele>254.6</ele></trkpt>
   <trkpt lat="68.983689" lon="15.482717"><ele>255.0</ele></trkpt>
   <trkpt lat="68.983705" lon="15.482712"><ele>255.6</ele></trkpt>
   <trkpt lat="68.983713" lon="15.482716"><ele>256.0</ele></trkpt>
   <trkpt lat="68.983720" lon="15.482727"><ele>256.6</ele></trkpt>
   <trkpt lat="68.983732" lon="15.482738"><ele>257.0</ele></trkpt>
   <trkpt lat="68.983745" lon="15.482811"><ele>257.8</ele></trkpt>
   <trkpt lat="68.983744" lon="15.482851"><ele>258.2</ele></trkpt>
   <trkpt lat="68.983742" lon="15.482944"><ele>259.4</ele></trkpt>
   <trkpt lat="68.983744" lon="15.482963"><ele>259.6</ele></trkpt>
   <trkpt lat="68.983742" lon="15.483030"><ele>260.8</ele></trkpt>
   <trkpt lat="68.983734" lon="15.483065"><ele>261.2</ele></trkpt>
   <trkpt lat="68.983731" lon="15.483111"><ele>261.8</ele></trkpt>
   <trkpt lat="68.983742" lon="15.483177"><ele>263.2</ele></trkpt>
   <trkpt lat="68.983732" lon="15.483253"><ele>264.0</ele></trkpt>
   <trkpt lat="68.983730" lon="15.483265"><ele>264.2</ele></trkpt>
   <trkpt lat="68.983730" lon="15.483285"><ele>264.4</ele></trkpt>
   <trkpt lat="68.983714" lon="15.483354"><ele>264.8</ele></trkpt>
   <trkpt lat="68.983716" lon="15.483363"><ele>264.8</ele></trkpt>
   <trkpt lat="68.983723" lon="15.483427"><ele>265.4</ele></trkpt>
   <trkpt lat="68.983720" lon="15.483492"><ele>266.0</ele></trkpt>
   <trkpt lat="68.983707" lon="15.483541"><ele>266.6</ele></trkpt>
   <trkpt lat="68.983696" lon="15.483596"><ele>267.0</ele></trkpt>
   <trkpt lat="68.983708" lon="15.483674"><ele>267.6</ele></trkpt>
   <trkpt lat="68.983708" lon="15.483710"><ele>267.8</ele></trkpt>
   <trkpt lat="68.983696" lon="15.483792"><ele>268.6</ele></trkpt>
   <trkpt lat="68.983696" lon="15.483800"><ele>268.8</ele></trkpt>
   <trkpt lat="68.983687" lon="15.483872"><ele>269.6</ele></trkpt>
   <trkpt lat="68.983682" lon="15.483884"><ele>269.6</ele></trkpt>
   <trkpt lat="68.983671" lon="15.483907"><ele>270.0</ele></trkpt>
   <trkpt lat="68.983670" lon="15.483986"><ele>270.8</ele></trkpt>
   <trkpt lat="68.983649" lon="15.484049"><ele>271.0</ele></trkpt>
   <trkpt lat="68.983645" lon="15.484091"><ele>271.2</ele></trkpt>
   <trkpt lat="68.983655" lon="15.484141"><ele>271.8</ele></trkpt>
   <trkpt lat="68.983658" lon="15.484157"><ele>272.2</ele></trkpt>
   <trkpt lat="68.983655" lon="15.484244"><ele>273.2</ele></trkpt>
   <trkpt lat="68.983650" lon="15.484333"><ele>274.2</ele></trkpt>
   <trkpt lat="68.983646" lon="15.484344"><ele>274.4</ele></trkpt>
   <trkpt lat="68.983641" lon="15.484356"><ele>274.6</ele></trkpt>
   <trkpt lat="68.983636" lon="15.484424"><ele>274.8</ele></trkpt>
   <trkpt lat="68.983631" lon="15.484534"><ele>275.2</ele></trkpt>
   <trkpt lat="68.983629" lon="15.484552"><ele>275.2</ele></trkpt>
   <trkpt lat="68.983631" lon="15.484637"><ele>275.4</ele></trkpt>
   <trkpt lat="68.983642" lon="15.484677"><ele>276.2</ele></trkpt>
   <trkpt lat="68.983649" lon="15.484683"><ele>276.6</ele></trkpt>
   <trkpt lat="68.983671" lon="15.484708"><ele>277.6</ele></trkpt>
   <trkpt lat="68.983685" lon="15.484810"><ele>278.8</ele></trkpt>
   <trkpt lat="68.983685" lon="15.484839"><ele>279.6</ele></trkpt>
   <trkpt lat="68.983683" lon="15.484849"><ele>279.8</ele></trkpt>
   <trkpt lat="68.983682" lon="15.484854"><ele>280.2</ele></trkpt>
   <trkpt lat="68.983681" lon="15.484852"><ele>280.2</ele></trkpt>
   <trkpt lat="68.983681" lon="15.484852"><ele>280.2</ele></trkpt>
   <trkpt lat="68.983681" lon="15.484852"><ele>280.6</ele></trkpt>
   <trkpt lat="68.983681" lon="15.484852"><ele>281.0</ele></trkpt>
   <trkpt lat="68.983682" lon="15.484850"><ele>282.2</ele></trkpt>
   <trkpt lat="68.983682" lon="15.484852"><ele>283.2</ele></trkpt>
   <trkpt lat="68.983686" lon="15.484852"><ele>283.2</ele></trkpt>
   <trkpt lat="68.983699" lon="15.484853"><ele>283.8</ele></trkpt>
   <trkpt lat="68.983711" lon="15.484879"><ele>284.4</ele></trkpt>
   <trkpt lat="68.983727" lon="15.484893"><ele>285.4</ele></trkpt>
   <trkpt lat="68.983741" lon="15.484937"><ele>286.4</ele></trkpt>
   <trkpt lat="68.983761" lon="15.484962"><ele>287.4</ele></trkpt>
   <trkpt lat="68.983771" lon="15.484992"><ele>288.2</ele></trkpt>
   <trkpt lat="68.983774" lon="15.485016"><ele>288.6</ele></trkpt>
   <trkpt lat="68.983778" lon="15.485072"><ele>289.8</ele></trkpt>
   <trkpt lat="68.983797" lon="15.485115"><ele>291.0</ele></trkpt>
   <trkpt lat="68.983803" lon="15.485177"><ele>291.8</ele></trkpt>
   <trkpt lat="68.983803" lon="15.485212"><ele>292.2</ele></trkpt>
   <trkpt lat="68.983808" lon="15.485245"><ele>293.0</ele></trkpt>
   <trkpt lat="68.983810" lon="15.485253"><ele>293.2</ele></trkpt>
   <trkpt lat="68.983819" lon="15.485293"><ele>294.2</ele></trkpt>
   <trkpt lat="68.983820" lon="15.485301"><ele>294.6</ele></trkpt>
   <trkpt lat="68.983824" lon="15.485347"><ele>295.4</ele></trkpt>
   <trkpt lat="68.983825" lon="15.485372"><ele>295.6</ele></trkpt>
   <trkpt lat="68.983829" lon="15.485419"><ele>296.0</ele></trkpt>
   <trkpt lat="68.983833" lon="15.485479"><ele>296.8</ele></trkpt>
   <trkpt lat="68.983834" lon="15.485505"><ele>297.6</ele></trkpt>
   <trkpt lat="68.983836" lon="15.485519"><ele>297.8</ele></trkpt>
   <trkpt lat="68.983846" lon="15.485587"><ele>298.6</ele></trkpt>
   <trkpt lat="68.983847" lon="15.485603"><ele>299.0</ele></trkpt>
   <trkpt lat="68.983849" lon="15.485646"><ele>300.0</ele></trkpt>
   <trkpt lat="68.983855" lon="15.485691"><ele>300.4</ele></trkpt>
   <trkpt lat="68.983857" lon="15.485730"><ele>301.0</ele></trkpt>
   <trkpt lat="68.983860" lon="15.485792"><ele>302.0</ele></trkpt>
   <trkpt lat="68.983863" lon="15.485828"><ele>302.0</ele></trkpt>
   <trkpt lat="68.983874" lon="15.485963"><ele>303.0</ele></trkpt>
   <trkpt lat="68.983877" lon="15.485999"><ele>303.2</ele></trkpt>
   <trkpt lat="68.983891" lon="15.486137"><ele>304.4</ele></trkpt>
   <trkpt lat="68.983894" lon="15.486157"><ele>304.4</ele></trkpt>
   <trkpt lat="68.983892" lon="15.486233"><ele>305.4</ele></trkpt>
   <trkpt lat="68.983886" lon="15.486274"><ele>306.0</ele></trkpt>
   <trkpt lat="68.983894" lon="15.486327"><ele>306.6</ele></trkpt>
   <trkpt lat="68.983902" lon="15.486347"><ele>307.4</ele></trkpt>
   <trkpt lat="68.983907" lon="15.486347"><ele>307.6</ele></trkpt>
   <trkpt lat="68.983932" lon="15.486396"><ele>308.6</ele></trkpt>
   <trkpt lat="68.983943" lon="15.486391"><ele>309.2</ele></trkpt>
   <trkpt lat="68.983960" lon="15.486403"><ele>309.8</ele></trkpt>
   <trkpt lat="68.983975" lon="15.486432"><ele>310.4</ele></trkpt>
   <trkpt lat="68.983982" lon="15.486451"><ele>310.8</ele></trkpt>
   <trkpt lat="68.983991" lon="15.486497"><ele>311.8</ele></trkpt>
   <trkpt lat="68.983996" lon="15.486538"><ele>312.4</ele></trkpt>
   <trkpt lat="68.984002" lon="15.486558"><ele>313.0</ele></trkpt>
   <trkpt lat="68.983999" lon="15.486611"><ele>314.0</ele></trkpt>
   <trkpt lat="68.983993" lon="15.486654"><ele>314.6</ele></trkpt>
   <trkpt lat="68.983992" lon="15.486692"><ele>315.2</ele></trkpt>
   <trkpt lat="68.983990" lon="15.486691"><ele>315.8</ele></trkpt>
   <trkpt lat="68.983990" lon="15.486690"><ele>316.0</ele></trkpt>
   <trkpt lat="68.983990" lon="15.486690"><ele>316.0</ele></trkpt>
   <trkpt lat="68.983990" lon="15.486690"><ele>315.8</ele></trkpt>
   <trkpt lat="68.983990" lon="15.486690"><ele>315.6</ele></trkpt>
   <trkpt lat="68.983990" lon="15.486690"><ele>315.6</ele></trkpt>
   <trkpt lat="68.983990" lon="15.486689"><ele>315.6</ele></trkpt>
   <trkpt lat="68.983990" lon="15.486688"><ele>315.6</ele></trkpt>
   <trkpt lat="68.983992" lon="15.486687"><ele>315.2</ele></trkpt>
   <trkpt lat="68.983996" lon="15.486685"><ele>315.2</ele></trkpt>
   <trkpt lat="68.984000" lon="15.486685"><ele>315.0</ele></trkpt>
   <trkpt lat="68.984008" lon="15.486684"><ele>314.6</ele></trkpt>
   <trkpt lat="68.984010" lon="15.486683"><ele>314.4</ele></trkpt>
   <trkpt lat="68.984010" lon="15.486683"><ele>314.2</ele></trkpt>
   <trkpt lat="68.984010" lon="15.486683"><ele>314.0</ele></trkpt>
   <trkpt lat="68.984010" lon="15.486683"><ele>313.8</ele></trkpt>
   <trkpt lat="68.984011" lon="15.486683"><ele>314.0</ele></trkpt>
   <trkpt lat="68.984011" lon="15.486684"><ele>314.0</ele></trkpt>
   <trkpt lat="68.984011" lon="15.486684"><ele>313.8</ele></trkpt>
   <trkpt lat="68.984011" lon="15.486684"><ele>313.8</ele></trkpt>
   <trkpt lat="68.984011" lon="15.486685"><ele>313.6</ele></trkpt>
   <trkpt lat="68.984011" lon="15.486690"><ele>313.6</ele></trkpt>
   <trkpt lat="68.984011" lon="15.486695"><ele>313.6</ele></trkpt>
   <trkpt lat="68.984013" lon="15.486700"><ele>314.4</ele></trkpt>
   <trkpt lat="68.984014" lon="15.486701"><ele>314.6</ele></trkpt>
   <trkpt lat="68.984014" lon="15.486703"><ele>315.0</ele></trkpt>
   <trkpt lat="68.984016" lon="15.486714"><ele>315.8</ele></trkpt>
   <trkpt lat="68.984019" lon="15.486722"><ele>316.2</ele></trkpt>
   <trkpt lat="68.984031" lon="15.486749"><ele>316.8</ele></trkpt>
   <trkpt lat="68.984045" lon="15.486763"><ele>317.2</ele></trkpt>
   <trkpt lat="68.984063" lon="15.486781"><ele>318.4</ele></trkpt>
   <trkpt lat="68.984084" lon="15.486801"><ele>319.6</ele></trkpt>
   <trkpt lat="68.984101" lon="15.486841"><ele>320.8</ele></trkpt>
   <trkpt lat="68.984105" lon="15.486848"><ele>321.0</ele></trkpt>
   <trkpt lat="68.984123" lon="15.486878"><ele>321.8</ele></trkpt>
   <trkpt lat="68.984136" lon="15.486925"><ele>322.8</ele></trkpt>
   <trkpt lat="68.984155" lon="15.487052"><ele>323.8</ele></trkpt>
   <trkpt lat="68.984161" lon="15.487101"><ele>324.0</ele></trkpt>
   <trkpt lat="68.984172" lon="15.487178"><ele>324.6</ele></trkpt>
   <trkpt lat="68.984179" lon="15.487211"><ele>324.8</ele></trkpt>
   <trkpt lat="68.984187" lon="15.487241"><ele>325.0</ele></trkpt>
   <trkpt lat="68.984202" lon="15.487251"><ele>325.8</ele></trkpt>
   <trkpt lat="68.984209" lon="15.487240"><ele>326.2</ele></trkpt>
   <trkpt lat="68.984220" lon="15.487234"><ele>326.4</ele></trkpt>
   <trkpt lat="68.984242" lon="15.487224"><ele>327.2</ele></trkpt>
   <trkpt lat="68.984248" lon="15.487234"><ele>327.4</ele></trkpt>
   <trkpt lat="68.984250" lon="15.487273"><ele>328.2</ele></trkpt>
   <trkpt lat="68.984248" lon="15.487313"><ele>328.4</ele></trkpt>
   <trkpt lat="68.984250" lon="15.487330"><ele>328.8</ele></trkpt>
   <trkpt lat="68.984262" lon="15.487366"><ele>329.6</ele></trkpt>
   <trkpt lat="68.984262" lon="15.487385"><ele>330.0</ele></trkpt>
   <trkpt lat="68.984255" lon="15.487435"><ele>330.8</ele></trkpt>
   <trkpt lat="68.984253" lon="15.487467"><ele>331.2</ele></trkpt>
   <trkpt lat="68.984259" lon="15.487505"><ele>331.6</ele></trkpt>
   <trkpt lat="68.984273" lon="15.487534"><ele>332.4</ele></trkpt>
   <trkpt lat="68.984294" lon="15.487546"><ele>333.6</ele></trkpt>
   <trkpt lat="68.984294" lon="15.487544"><ele>334.2</ele></trkpt>
   <trkpt lat="68.984297" lon="15.487544"><ele>334.4</ele></trkpt>
   <trkpt lat="68.984323" lon="15.487526"><ele>334.6</ele></trkpt>
   <trkpt lat="68.984327" lon="15.487515"><ele>334.8</ele></trkpt>
   <trkpt lat="68.984332" lon="15.487507"><ele>335.0</ele></trkpt>
   <trkpt lat="68.984358" lon="15.487490"><ele>335.8</ele></trkpt>
   <trkpt lat="68.984358" lon="15.487489"><ele>336.0</ele></trkpt>
   <trkpt lat="68.984357" lon="15.487489"><ele>336.0</ele></trkpt>
   <trkpt lat="68.984354" lon="15.487494"><ele>335.6</ele></trkpt>
   <trkpt lat="68.984354" lon="15.487494"><ele>335.6</ele></trkpt>
   <trkpt lat="68.984354" lon="15.487494"><ele>335.4</ele></trkpt>
   <trkpt lat="68.984355" lon="15.487494"><ele>335.6</ele></trkpt>
   <trkpt lat="68.984355" lon="15.487494"><ele>335.4</ele></trkpt>
   <trkpt lat="68.984356" lon="15.487493"><ele>335.2</ele></trkpt>
   <trkpt lat="68.984357" lon="15.487492"><ele>335.0</ele></trkpt>
   <trkpt lat="68.984357" lon="15.487494"><ele>334.8</ele></trkpt>
   <trkpt lat="68.984358" lon="15.487496"><ele>334.8</ele></trkpt>
   <trkpt lat="68.984360" lon="15.487497"><ele>334.6</ele></trkpt>
   <trkpt lat="68.984361" lon="15.487497"><ele>334.4</ele></trkpt>
   <trkpt lat="68.984366" lon="15.487499"><ele>334.8</ele></trkpt>
   <trkpt lat="68.984367" lon="15.487504"><ele>335.2</ele></trkpt>
   <trkpt lat="68.984377" lon="15.487506"><ele>336.0</ele></trkpt>
   <trkpt lat="68.984390" lon="15.487535"><ele>336.6</ele></trkpt>
   <trkpt lat="68.984404" lon="15.487538"><ele>337.0</ele></trkpt>
   <trkpt lat="68.984426" lon="15.487568"><ele>338.2</ele></trkpt>
   <trkpt lat="68.984439" lon="15.487609"><ele>338.6</ele></trkpt>
   <trkpt lat="68.984445" lon="15.487626"><ele>339.2</ele></trkpt>
   <trkpt lat="68.984464" lon="15.487652"><ele>340.4</ele></trkpt>
   <trkpt lat="68.984473" lon="15.487660"><ele>340.8</ele></trkpt>
   <trkpt lat="68.984482" lon="15.487673"><ele>341.2</ele></trkpt>
   <trkpt lat="68.984490" lon="15.487692"><ele>341.6</ele></trkpt>
   <trkpt lat="68.984499" lon="15.487756"><ele>342.8</ele></trkpt>
   <trkpt lat="68.984509" lon="15.487788"><ele>343.8</ele></trkpt>
   <trkpt lat="68.984527" lon="15.487864"><ele>344.8</ele></trkpt>
   <trkpt lat="68.984534" lon="15.487900"><ele>345.2</ele></trkpt>
   <trkpt lat="68.984541" lon="15.487934"><ele>345.4</ele></trkpt>
   <trkpt lat="68.984555" lon="15.488011"><ele>346.0</ele></trkpt>
   <trkpt lat="68.984572" lon="15.488093"><ele>346.4</ele></trkpt>
   <trkpt lat="68.984594" lon="15.488214"><ele>347.6</ele></trkpt>
   <trkpt lat="68.984608" lon="15.488298"><ele>348.8</ele></trkpt>
   <trkpt lat="68.984616" lon="15.488343"><ele>349.8</ele></trkpt>
   <trkpt lat="68.984630" lon="15.488394"><ele>350.6</ele></trkpt>
   <trkpt lat="68.984633" lon="15.488402"><ele>351.2</ele></trkpt>
   <trkpt lat="68.984646" lon="15.488463"><ele>352.2</ele></trkpt>
   <trkpt lat="68.984650" lon="15.488475"><ele>352.4</ele></trkpt>
   <trkpt lat="68.984663" lon="15.488544"><ele>353.4</ele></trkpt>
   <trkpt lat="68.984663" lon="15.488633"><ele>354.4</ele></trkpt>
   <trkpt lat="68.984663" lon="15.488656"><ele>354.6</ele></trkpt>
   <trkpt lat="68.984663" lon="15.488691"><ele>355.0</ele></trkpt>
   <trkpt lat="68.984668" lon="15.488774"><ele>355.6</ele></trkpt>
   <trkpt lat="68.984683" lon="15.488867"><ele>356.6</ele></trkpt>
   <trkpt lat="68.984687" lon="15.488885"><ele>356.8</ele></trkpt>
   <trkpt lat="68.984693" lon="15.488914"><ele>357.4</ele></trkpt>
   <trkpt lat="68.984700" lon="15.488949"><ele>357.8</ele></trkpt>
   <trkpt lat="68.984722" lon="15.489020"><ele>359.0</ele></trkpt>
   <trkpt lat="68.984729" lon="15.489053"><ele>360.2</ele></trkpt>
   <trkpt lat="68.984738" lon="15.489084"><ele>360.6</ele></trkpt>
   <trkpt lat="68.984747" lon="15.489128"><ele>361.2</ele></trkpt>
   <trkpt lat="68.984757" lon="15.489208"><ele>362.0</ele></trkpt>
   <trkpt lat="68.984760" lon="15.489226"><ele>362.2</ele></trkpt>
   <trkpt lat="68.984772" lon="15.489351"><ele>363.0</ele></trkpt>
   <trkpt lat="68.984772" lon="15.489393"><ele>363.6</ele></trkpt>
   <trkpt lat="68.984773" lon="15.489409"><ele>363.8</ele></trkpt>
   <trkpt lat="68.984778" lon="15.489443"><ele>364.2</ele></trkpt>
   <trkpt lat="68.984778" lon="15.489480"><ele>364.6</ele></trkpt>
   <trkpt lat="68.984790" lon="15.489553"><ele>365.4</ele></trkpt>
   <trkpt lat="68.984799" lon="15.489582"><ele>365.8</ele></trkpt>
   <trkpt lat="68.984820" lon="15.489635"><ele>366.8</ele></trkpt>
   <trkpt lat="68.984842" lon="15.489675"><ele>368.0</ele></trkpt>
   <trkpt lat="68.984850" lon="15.489701"><ele>368.4</ele></trkpt>
   <trkpt lat="68.984866" lon="15.489764"><ele>369.0</ele></trkpt>
   <trkpt lat="68.984892" lon="15.489805"><ele>370.2</ele></trkpt>
   <trkpt lat="68.984894" lon="15.489928"><ele>371.4</ele></trkpt>
   <trkpt lat="68.984900" lon="15.489975"><ele>371.6</ele></trkpt>
   <trkpt lat="68.984900" lon="15.490055"><ele>372.6</ele></trkpt>
   <trkpt lat="68.984919" lon="15.490136"><ele>373.6</ele></trkpt>
   <trkpt lat="68.984929" lon="15.490153"><ele>374.2</ele></trkpt>
   <trkpt lat="68.984936" lon="15.490177"><ele>374.8</ele></trkpt>
   <trkpt lat="68.984951" lon="15.490291"><ele>375.6</ele></trkpt>
   <trkpt lat="68.984952" lon="15.490311"><ele>375.8</ele></trkpt>
   <trkpt lat="68.984954" lon="15.490335"><ele>376.2</ele></trkpt>
   <trkpt lat="68.984958" lon="15.490383"><ele>377.0</ele></trkpt>
   <trkpt lat="68.984966" lon="15.490460"><ele>377.8</ele></trkpt>
   <trkpt lat="68.984968" lon="15.490472"><ele>378.0</ele></trkpt>
   <trkpt lat="68.984970" lon="15.490480"><ele>378.0</ele></trkpt>
   <trkpt lat="68.984971" lon="15.490492"><ele>378.2</ele></trkpt>
   <trkpt lat="68.984984" lon="15.490538"><ele>379.2</ele></trkpt>
   <trkpt lat="68.984991" lon="15.490618"><ele>379.2</ele></trkpt>
   <trkpt lat="68.984997" lon="15.490680"><ele>380.2</ele></trkpt>
   <trkpt lat="68.984997" lon="15.490727"><ele>380.4</ele></trkpt>
   <trkpt lat="68.985001" lon="15.490795"><ele>380.8</ele></trkpt>
   <trkpt lat="68.985008" lon="15.490851"><ele>381.2</ele></trkpt>
   <trkpt lat="68.985024" lon="15.490888"><ele>382.2</ele></trkpt>
   <trkpt lat="68.985028" lon="15.490900"><ele>382.4</ele></trkpt>
   <trkpt lat="68.985040" lon="15.490986"><ele>383.4</ele></trkpt>
   <trkpt lat="68.985042" lon="15.491003"><ele>383.6</ele></trkpt>
   <trkpt lat="68.985040" lon="15.491082"><ele>383.8</ele></trkpt>
   <trkpt lat="68.985035" lon="15.491173"><ele>384.6</ele></trkpt>
   <trkpt lat="68.985041" lon="15.491227"><ele>385.0</ele></trkpt>
   <trkpt lat="68.985049" lon="15.491333"><ele>385.4</ele></trkpt>
   <trkpt lat="68.985048" lon="15.491377"><ele>385.6</ele></trkpt>
   <trkpt lat="68.985048" lon="15.491444"><ele>385.8</ele></trkpt>
   <trkpt lat="68.985050" lon="15.491582"><ele>386.8</ele></trkpt>
   <trkpt lat="68.985054" lon="15.491646"><ele>387.8</ele></trkpt>
   <trkpt lat="68.985057" lon="15.491741"><ele>388.6</ele></trkpt>
   <trkpt lat="68.985061" lon="15.491779"><ele>388.8</ele></trkpt>
   <trkpt lat="68.985066" lon="15.491892"><ele>389.6</ele></trkpt>
   <trkpt lat="68.985064" lon="15.491925"><ele>390.0</ele></trkpt>
   <trkpt lat="68.985058" lon="15.492021"><ele>390.8</ele></trkpt>
   <trkpt lat="68.985059" lon="15.492080"><ele>391.2</ele></trkpt>
   <trkpt lat="68.985068" lon="15.492178"><ele>392.2</ele></trkpt>
   <trkpt lat="68.985069" lon="15.492197"><ele>392.2</ele></trkpt>
   <trkpt lat="68.985073" lon="15.492236"><ele>392.4</ele></trkpt>
   <trkpt lat="68.985082" lon="15.492333"><ele>393.0</ele></trkpt>
   <trkpt lat="68.985086" lon="15.492383"><ele>393.2</ele></trkpt>
   <trkpt lat="68.985091" lon="15.492479"><ele>394.0</ele></trkpt>
   <trkpt lat="68.985091" lon="15.492533"><ele>394.4</ele></trkpt>
   <trkpt lat="68.985088" lon="15.492629"><ele>395.2</ele></trkpt>
   <trkpt lat="68.985087" lon="15.492644"><ele>395.4</ele></trkpt>
   <trkpt lat="68.985092" lon="15.492695"><ele>396.0</ele></trkpt>
   <trkpt lat="68.985093" lon="15.492790"><ele>396.6</ele></trkpt>
   <trkpt lat="68.985096" lon="15.492869"><ele>397.6</ele></trkpt>
   <trkpt lat="68.985100" lon="15.492929"><ele>398.8</ele></trkpt>
   <trkpt lat="68.985107" lon="15.493021"><ele>399.4</ele></trkpt>
   <trkpt lat="68.985107" lon="15.493077"><ele>400.0</ele></trkpt>
   <trkpt lat="68.985103" lon="15.493183"><ele>400.8</ele></trkpt>
   <trkpt lat="68.985102" lon="15.493221"><ele>400.8</ele></trkpt>
   <trkpt lat="68.985103" lon="15.493238"><ele>401.0</ele></trkpt>
   <trkpt lat="68.985101" lon="15.493336"><ele>402.2</ele></trkpt>
   <trkpt lat="68.985104" lon="15.493407"><ele>402.8</ele></trkpt>
   <trkpt lat="68.985105" lon="15.493503"><ele>403.2</ele></trkpt>
   <trkpt lat="68.985105" lon="15.493559"><ele>403.6</ele></trkpt>
   <trkpt lat="68.985102" lon="15.493671"><ele>404.0</ele></trkpt>
   <trkpt lat="68.985106" lon="15.493723"><ele>404.2</ele></trkpt>
   <trkpt lat="68.985102" lon="15.493837"><ele>405.2</ele></trkpt>
   <trkpt lat="68.985100" lon="15.493868"><ele>405.4</ele></trkpt>
   <trkpt lat="68.985105" lon="15.493964"><ele>406.6</ele></trkpt>
   <trkpt lat="68.985105" lon="15.494080"><ele>407.2</ele></trkpt>
   <trkpt lat="68.985107" lon="15.494149"><ele>407.6</ele></trkpt>
   <trkpt lat="68.985109" lon="15.494172"><ele>407.8</ele></trkpt>
   <trkpt lat="68.985108" lon="15.494292"><ele>408.4</ele></trkpt>
   <trkpt lat="68.985117" lon="15.494358"><ele>408.6</ele></trkpt>
   <trkpt lat="68.985117" lon="15.494382"><ele>408.6</ele></trkpt>
   <trkpt lat="68.985120" lon="15.494503"><ele>409.2</ele></trkpt>
   <trkpt lat="68.985123" lon="15.494563"><ele>409.8</ele></trkpt>
   <trkpt lat="68.985120" lon="15.494621"><ele>410.0</ele></trkpt>
   <trkpt lat="68.985110" lon="15.494745"><ele>410.6</ele></trkpt>
   <trkpt lat="68.985105" lon="15.494789"><ele>410.8</ele></trkpt>
   <trkpt lat="68.985099" lon="15.494908"><ele>412.0</ele></trkpt>
   <trkpt lat="68.985088" lon="15.495027"><ele>412.4</ele></trkpt>
   <trkpt lat="68.985082" lon="15.495120"><ele>413.0</ele></trkpt>
   <trkpt lat="68.985077" lon="15.495162"><ele>413.4</ele></trkpt>
   <trkpt lat="68.985072" lon="15.495263"><ele>414.2</ele></trkpt>
   <trkpt lat="68.985067" lon="15.495375"><ele>414.8</ele></trkpt>
   <trkpt lat="68.985067" lon="15.495409"><ele>415.0</ele></trkpt>
   <trkpt lat="68.985066" lon="15.495426"><ele>415.2</ele></trkpt>
   <trkpt lat="68.985065" lon="15.495546"><ele>416.2</ele></trkpt>
   <trkpt lat="68.985065" lon="15.495657"><ele>416.8</ele></trkpt>
   <trkpt lat="68.985063" lon="15.495714"><ele>417.2</ele></trkpt>
   <trkpt lat="68.985063" lon="15.495734"><ele>417.4</ele></trkpt>
   <trkpt lat="68.985069" lon="15.495850"><ele>418.2</ele></trkpt>
   <trkpt lat="68.985070" lon="15.495878"><ele>418.4</ele></trkpt>
   <trkpt lat="68.985074" lon="15.495927"><ele>418.6</ele></trkpt>
   <trkpt lat="68.985072" lon="15.496045"><ele>419.2</ele></trkpt>
   <trkpt lat="68.985070" lon="15.496067"><ele>419.6</ele></trkpt>
   <trkpt lat="68.985063" lon="15.496189"><ele>420.6</ele></trkpt>
   <trkpt lat="68.985062" lon="15.496210"><ele>420.8</ele></trkpt>
   <trkpt lat="68.985050" lon="15.496349"><ele>421.4</ele></trkpt>
   <trkpt lat="68.985043" lon="15.496382"><ele>421.8</ele></trkpt>
   <trkpt lat="68.985042" lon="15.496400"><ele>421.8</ele></trkpt>
   <trkpt lat="68.985021" lon="15.496487"><ele>422.4</ele></trkpt>
   <trkpt lat="68.985018" lon="15.496524"><ele>422.6</ele></trkpt>
   <trkpt lat="68.985011" lon="15.496564"><ele>422.8</ele></trkpt>
   <trkpt lat="68.985007" lon="15.496703"><ele>423.6</ele></trkpt>
   <trkpt lat="68.985005" lon="15.496765"><ele>424.2</ele></trkpt>
   <trkpt lat="68.984998" lon="15.496847"><ele>424.8</ele></trkpt>
   <trkpt lat="68.984996" lon="15.496924"><ele>425.4</ele></trkpt>
   <trkpt lat="68.984995" lon="15.497066"><ele>426.4</ele></trkpt>
   <trkpt lat="68.984990" lon="15.497121"><ele>426.6</ele></trkpt>
   <trkpt lat="68.984983" lon="15.497136"><ele>427.4</ele></trkpt>
   <trkpt lat="68.984981" lon="15.497136"><ele>427.2</ele></trkpt>
   <trkpt lat="68.984981" lon="15.497138"><ele>426.6</ele></trkpt>
   <trkpt lat="68.984981" lon="15.497138"><ele>426.4</ele></trkpt>
   <trkpt lat="68.984981" lon="15.497138"><ele>426.0</ele></trkpt>
   <trkpt lat="68.984981" lon="15.497138"><ele>425.6</ele></trkpt>
   <trkpt lat="68.984981" lon="15.497138"><ele>425.4</ele></trkpt>
   <trkpt lat="68.984974" lon="15.497185"><ele>424.4</ele></trkpt>
   <trkpt lat="68.984959" lon="15.497272"><ele>424.8</ele></trkpt>
   <trkpt lat="68.984931" lon="15.497448"><ele>425.0</ele></trkpt>
   <trkpt lat="68.984929" lon="15.497469"><ele>425.2</ele></trkpt>
   <trkpt lat="68.984921" lon="15.497553"><ele>425.8</ele></trkpt>
   <trkpt lat="68.984918" lon="15.497614"><ele>426.2</ele></trkpt>
   <trkpt lat="68.984917" lon="15.497636"><ele>426.4</ele></trkpt>
   <trkpt lat="68.984913" lon="15.497698"><ele>426.8</ele></trkpt>
   <trkpt lat="68.984911" lon="15.497756"><ele>427.4</ele></trkpt>
   <trkpt lat="68.984917" lon="15.497820"><ele>427.8</ele></trkpt>
   <trkpt lat="68.984926" lon="15.497872"><ele>428.6</ele></trkpt>
   <trkpt lat="68.984930" lon="15.498009"><ele>429.2</ele></trkpt>
   <trkpt lat="68.984931" lon="15.498030"><ele>429.4</ele></trkpt>
   <trkpt lat="68.984931" lon="15.498049"><ele>429.8</ele></trkpt>
   <trkpt lat="68.984933" lon="15.498161"><ele>431.0</ele></trkpt>
   <trkpt lat="68.984922" lon="15.498267"><ele>431.8</ele></trkpt>
   <trkpt lat="68.984922" lon="15.498291"><ele>432.2</ele></trkpt>
   <trkpt lat="68.984923" lon="15.498342"><ele>432.6</ele></trkpt>
   <trkpt lat="68.984922" lon="15.498367"><ele>432.8</ele></trkpt>
   <trkpt lat="68.984922" lon="15.498430"><ele>433.2</ele></trkpt>
   <trkpt lat="68.984917" lon="15.498580"><ele>434.2</ele></trkpt>
   <trkpt lat="68.984915" lon="15.498599"><ele>434.4</ele></trkpt>
   <trkpt lat="68.984916" lon="15.498673"><ele>434.6</ele></trkpt>
   <trkpt lat="68.984913" lon="15.498748"><ele>435.6</ele></trkpt>
   <trkpt lat="68.984913" lon="15.498868"><ele>436.6</ele></trkpt>
   <trkpt lat="68.984917" lon="15.498947"><ele>437.4</ele></trkpt>
   <trkpt lat="68.984924" lon="15.498990"><ele>437.6</ele></trkpt>
   <trkpt lat="68.984929" lon="15.499096"><ele>438.6</ele></trkpt>
   <trkpt lat="68.984929" lon="15.499165"><ele>439.4</ele></trkpt>
   <trkpt lat="68.984932" lon="15.499194"><ele>439.8</ele></trkpt>
   <trkpt lat="68.984943" lon="15.499297"><ele>440.8</ele></trkpt>
   <trkpt lat="68.984944" lon="15.499316"><ele>440.8</ele></trkpt>
   <trkpt lat="68.984954" lon="15.499422"><ele>442.2</ele></trkpt>
   <trkpt lat="68.984961" lon="15.499510"><ele>442.8</ele></trkpt>
   <trkpt lat="68.984962" lon="15.499536"><ele>443.2</ele></trkpt>
   <trkpt lat="68.984969" lon="15.499658"><ele>444.2</ele></trkpt>
   <trkpt lat="68.984972" lon="15.499678"><ele>444.4</ele></trkpt>
   <trkpt lat="68.984975" lon="15.499698"><ele>444.6</ele></trkpt>
   <trkpt lat="68.984981" lon="15.499831"><ele>445.2</ele></trkpt>
   <trkpt lat="68.984979" lon="15.499879"><ele>445.4</ele></trkpt>
   <trkpt lat="68.984980" lon="15.499942"><ele>446.0</ele></trkpt>
   <trkpt lat="68.984981" lon="15.500000"><ele>446.6</ele></trkpt>
   <trkpt lat="68.984983" lon="15.500064"><ele>447.0</ele></trkpt>
   <trkpt lat="68.984978" lon="15.500183"><ele>447.8</ele></trkpt>
   <trkpt lat="68.984969" lon="15.500308"><ele>448.6</ele></trkpt>
   <trkpt lat="68.984967" lon="15.500331"><ele>448.8</ele></trkpt>
   <trkpt lat="68.984964" lon="15.500467"><ele>450.0</ele></trkpt>
   <trkpt lat="68.984963" lon="15.500486"><ele>450.2</ele></trkpt>
   <trkpt lat="68.984948" lon="15.500582"><ele>451.0</ele></trkpt>
   <trkpt lat="68.984939" lon="15.500712"><ele>452.2</ele></trkpt>
   <trkpt lat="68.984924" lon="15.500821"><ele>453.0</ele></trkpt>
   <trkpt lat="68.984922" lon="15.500871"><ele>453.2</ele></trkpt>
   <trkpt lat="68.984912" lon="15.500965"><ele>453.8</ele></trkpt>
   <trkpt lat="68.984906" lon="15.501028"><ele>454.4</ele></trkpt>
   <trkpt lat="68.984893" lon="15.501164"><ele>455.0</ele></trkpt>
   <trkpt lat="68.984889" lon="15.501189"><ele>455.4</ele></trkpt>
   <trkpt lat="68.984882" lon="15.501262"><ele>455.8</ele></trkpt>
   <trkpt lat="68.984879" lon="15.501288"><ele>456.0</ele></trkpt>
   <trkpt lat="68.984878" lon="15.501334"><ele>456.4</ele></trkpt>
   <trkpt lat="68.984870" lon="15.501469"><ele>457.4</ele></trkpt>
   <trkpt lat="68.984867" lon="15.501515"><ele>457.6</ele></trkpt>
   <trkpt lat="68.984870" lon="15.501621"><ele>458.6</ele></trkpt>
   <trkpt lat="68.984871" lon="15.501683"><ele>459.0</ele></trkpt>
   <trkpt lat="68.984872" lon="15.501781"><ele>459.6</ele></trkpt>
   <trkpt lat="68.984864" lon="15.501887"><ele>460.0</ele></trkpt>
   <trkpt lat="68.984849" lon="15.502032"><ele>460.6</ele></trkpt>
   <trkpt lat="68.984832" lon="15.502127"><ele>461.2</ele></trkpt>
   <trkpt lat="68.984822" lon="15.502240"><ele>461.8</ele></trkpt>
   <trkpt lat="68.984800" lon="15.502361"><ele>462.6</ele></trkpt>
   <trkpt lat="68.984788" lon="15.502452"><ele>463.0</ele></trkpt>
   <trkpt lat="68.984775" lon="15.502585"><ele>464.0</ele></trkpt>
   <trkpt lat="68.984768" lon="15.502626"><ele>464.2</ele></trkpt>
   <trkpt lat="68.984755" lon="15.502763"><ele>464.8</ele></trkpt>
   <trkpt lat="68.984754" lon="15.502812"><ele>465.2</ele></trkpt>
   <trkpt lat="68.984751" lon="15.502857"><ele>465.4</ele></trkpt>
   <trkpt lat="68.984748" lon="15.502998"><ele>466.2</ele></trkpt>
   <trkpt lat="68.984739" lon="15.503111"><ele>466.8</ele></trkpt>
   <trkpt lat="68.984727" lon="15.503245"><ele>467.4</ele></trkpt>
   <trkpt lat="68.984726" lon="15.503333"><ele>467.8</ele></trkpt>
   <trkpt lat="68.984729" lon="15.503425"><ele>468.6</ele></trkpt>
   <trkpt lat="68.984726" lon="15.503572"><ele>469.4</ele></trkpt>
   <trkpt lat="68.984726" lon="15.503594"><ele>469.6</ele></trkpt>
   <trkpt lat="68.984723" lon="15.503619"><ele>469.8</ele></trkpt>
   <trkpt lat="68.984718" lon="15.503762"><ele>470.4</ele></trkpt>
   <trkpt lat="68.984718" lon="15.503813"><ele>470.8</ele></trkpt>
   <trkpt lat="68.984718" lon="15.503893"><ele>471.4</ele></trkpt>
   <trkpt lat="68.984716" lon="15.503981"><ele>471.8</ele></trkpt>
   <trkpt lat="68.984714" lon="15.504112"><ele>472.0</ele></trkpt>
   <trkpt lat="68.984711" lon="15.504212"><ele>472.4</ele></trkpt>
   <trkpt lat="68.984709" lon="15.504274"><ele>472.8</ele></trkpt>
   <trkpt lat="68.984708" lon="15.504302"><ele>472.8</ele></trkpt>
   <trkpt lat="68.984706" lon="15.504430"><ele>473.2</ele></trkpt>
   <trkpt lat="68.984706" lon="15.504455"><ele>473.4</ele></trkpt>
   <trkpt lat="68.984706" lon="15.504525"><ele>473.8</ele></trkpt>
   <trkpt lat="68.984709" lon="15.504685"><ele>474.6</ele></trkpt>
   <trkpt lat="68.984704" lon="15.504706"><ele>474.8</ele></trkpt>
   <trkpt lat="68.984709" lon="15.504725"><ele>474.6</ele></trkpt>
   <trkpt lat="68.984711" lon="15.504733"><ele>474.6</ele></trkpt>
   <trkpt lat="68.984718" lon="15.504851"><ele>474.6</ele></trkpt>
   <trkpt lat="68.984720" lon="15.504919"><ele>474.6</ele></trkpt>
   <trkpt lat="68.984722" lon="15.504977"><ele>474.8</ele></trkpt>
   <trkpt lat="68.984723" lon="15.505001"><ele>475.0</ele></trkpt>
   <trkpt lat="68.984717" lon="15.505080"><ele>475.2</ele></trkpt>
   <trkpt lat="68.984724" lon="15.505206"><ele>475.6</ele></trkpt>
   <trkpt lat="68.984725" lon="15.505258"><ele>475.6</ele></trkpt>
   <trkpt lat="68.984731" lon="15.505339"><ele>476.0</ele></trkpt>
   <trkpt lat="68.984733" lon="15.505416"><ele>476.2</ele></trkpt>
   <trkpt lat="68.984730" lon="15.505560"><ele>476.8</ele></trkpt>
   <trkpt lat="68.984728" lon="15.505705"><ele>477.0</ele></trkpt>
   <trkpt lat="68.984735" lon="15.505849"><ele>477.4</ele></trkpt>
   <trkpt lat="68.984737" lon="15.505991"><ele>477.4</ele></trkpt>
   <trkpt lat="68.984738" lon="15.506014"><ele>477.6</ele></trkpt>
   <trkpt lat="68.984743" lon="15.506122"><ele>477.8</ele></trkpt>
   <trkpt lat="68.984741" lon="15.506237"><ele>478.0</ele></trkpt>
   <trkpt lat="68.984740" lon="15.506276"><ele>478.2</ele></trkpt>
   <trkpt lat="68.984738" lon="15.506415"><ele>478.6</ele></trkpt>
   <trkpt lat="68.984742" lon="15.506463"><ele>478.6</ele></trkpt>
   <trkpt lat="68.984750" lon="15.506591"><ele>479.0</ele></trkpt>
   <trkpt lat="68.984749" lon="15.506614"><ele>479.2</ele></trkpt>
   <trkpt lat="68.984747" lon="15.506650"><ele>479.4</ele></trkpt>
   <trkpt lat="68.984748" lon="15.506816"><ele>479.8</ele></trkpt>
   <trkpt lat="68.984756" lon="15.506949"><ele>480.2</ele></trkpt>
   <trkpt lat="68.984772" lon="15.507086"><ele>480.6</ele></trkpt>
   <trkpt lat="68.984777" lon="15.507185"><ele>480.8</ele></trkpt>
   <trkpt lat="68.984778" lon="15.507258"><ele>481.2</ele></trkpt>
   <trkpt lat="68.984779" lon="15.507391"><ele>481.6</ele></trkpt>
   <trkpt lat="68.984782" lon="15.507431"><ele>481.8</ele></trkpt>
   <trkpt lat="68.984797" lon="15.507556"><ele>482.4</ele></trkpt>
   <trkpt lat="68.984806" lon="15.507695"><ele>482.2</ele></trkpt>
   <trkpt lat="68.984806" lon="15.507811"><ele>482.6</ele></trkpt>
   <trkpt lat="68.984807" lon="15.507859"><ele>482.6</ele></trkpt>
   <trkpt lat="68.984813" lon="15.507987"><ele>483.0</ele></trkpt>
   <trkpt lat="68.984816" lon="15.508046"><ele>483.2</ele></trkpt>
   <trkpt lat="68.984824" lon="15.508160"><ele>483.4</ele></trkpt>
   <trkpt lat="68.984824" lon="15.508200"><ele>483.6</ele></trkpt>
   <trkpt lat="68.984831" lon="15.508261"><ele>484.0</ele></trkpt>
   <trkpt lat="68.984830" lon="15.508379"><ele>484.4</ele></trkpt>
   <trkpt lat="68.984832" lon="15.508440"><ele>484.6</ele></trkpt>
   <trkpt lat="68.984841" lon="15.508591"><ele>484.8</ele></trkpt>
   <trkpt lat="68.984849" lon="15.508697"><ele>485.2</ele></trkpt>
   <trkpt lat="68.984864" lon="15.508814"><ele>485.6</ele></trkpt>
   <trkpt lat="68.984873" lon="15.508964"><ele>485.8</ele></trkpt>
   <trkpt lat="68.984875" lon="15.508980"><ele>485.8</ele></trkpt>
   <trkpt lat="68.984905" lon="15.509115"><ele>486.0</ele></trkpt>
   <trkpt lat="68.984912" lon="15.509212"><ele>486.2</ele></trkpt>
   <trkpt lat="68.984933" lon="15.509354"><ele>486.4</ele></trkpt>
   <trkpt lat="68.984932" lon="15.509375"><ele>486.4</ele></trkpt>
   <trkpt lat="68.984940" lon="15.509472"><ele>486.6</ele></trkpt>
   <trkpt lat="68.984939" lon="15.509602"><ele>487.0</ele></trkpt>
   <trkpt lat="68.984944" lon="15.509645"><ele>487.0</ele></trkpt>
   <trkpt lat="68.984955" lon="15.509764"><ele>487.4</ele></trkpt>
   <trkpt lat="68.984957" lon="15.509857"><ele>487.6</ele></trkpt>
   <trkpt lat="68.984957" lon="15.509899"><ele>487.6</ele></trkpt>
   <trkpt lat="68.984965" lon="15.510044"><ele>488.0</ele></trkpt>
   <trkpt lat="68.984971" lon="15.510093"><ele>488.2</ele></trkpt>
   <trkpt lat="68.984979" lon="15.510187"><ele>488.6</ele></trkpt>
   <trkpt lat="68.984983" lon="15.510295"><ele>489.0</ele></trkpt>
   <trkpt lat="68.985003" lon="15.510442"><ele>489.0</ele></trkpt>
   <trkpt lat="68.985014" lon="15.510517"><ele>489.4</ele></trkpt>
   <trkpt lat="68.985011" lon="15.510564"><ele>489.4</ele></trkpt>
   <trkpt lat="68.985016" lon="15.510681"><ele>489.4</ele></trkpt>
   <trkpt lat="68.985015" lon="15.510702"><ele>489.4</ele></trkpt>
   <trkpt lat="68.985019" lon="15.510721"><ele>489.6</ele></trkpt>
   <trkpt lat="68.985024" lon="15.510763"><ele>489.6</ele></trkpt>
   <trkpt lat="68.985040" lon="15.510898"><ele>489.8</ele></trkpt>
   <trkpt lat="68.985042" lon="15.510921"><ele>489.8</ele></trkpt>
   <trkpt lat="68.985049" lon="15.511032"><ele>489.8</ele></trkpt>
   <trkpt lat="68.985054" lon="15.511055"><ele>489.8</ele></trkpt>
   <trkpt lat="68.985057" lon="15.511077"><ele>489.8</ele></trkpt>
   <trkpt lat="68.985065" lon="15.511210"><ele>490.2</ele></trkpt>
   <trkpt lat="68.985070" lon="15.511272"><ele>490.2</ele></trkpt>
   <trkpt lat="68.985081" lon="15.511397"><ele>490.2</ele></trkpt>
   <trkpt lat="68.985092" lon="15.511438"><ele>490.2</ele></trkpt>
   <trkpt lat="68.985119" lon="15.511571"><ele>490.4</ele></trkpt>
   <trkpt lat="68.985124" lon="15.511623"><ele>490.6</ele></trkpt>
   <trkpt lat="68.985133" lon="15.511667"><ele>490.8</ele></trkpt>
   <trkpt lat="68.985158" lon="15.511787"><ele>491.4</ele></trkpt>
   <trkpt lat="68.985161" lon="15.511809"><ele>491.6</ele></trkpt>
   <trkpt lat="68.985171" lon="15.511864"><ele>491.8</ele></trkpt>
   <trkpt lat="68.985180" lon="15.512024"><ele>492.6</ele></trkpt>
   <trkpt lat="68.985183" lon="15.512076"><ele>492.8</ele></trkpt>
   <trkpt lat="68.985200" lon="15.512210"><ele>493.8</ele></trkpt>
   <trkpt lat="68.985203" lon="15.512263"><ele>494.0</ele></trkpt>
   <trkpt lat="68.985207" lon="15.512386"><ele>494.6</ele></trkpt>
   <trkpt lat="68.985208" lon="15.512466"><ele>495.0</ele></trkpt>
   <trkpt lat="68.985209" lon="15.512556"><ele>495.4</ele></trkpt>
   <trkpt lat="68.985208" lon="15.512634"><ele>495.6</ele></trkpt>
   <trkpt lat="68.985206" lon="15.512683"><ele>496.0</ele></trkpt>
   <trkpt lat="68.985202" lon="15.512820"><ele>496.4</ele></trkpt>
   <trkpt lat="68.985197" lon="15.512940"><ele>497.0</ele></trkpt>
   <trkpt lat="68.985196" lon="15.513094"><ele>497.4</ele></trkpt>
   <trkpt lat="68.985195" lon="15.513146"><ele>497.6</ele></trkpt>
   <trkpt lat="68.985187" lon="15.513291"><ele>498.0</ele></trkpt>
   <trkpt lat="68.985189" lon="15.513420"><ele>498.4</ele></trkpt>
   <trkpt lat="68.985191" lon="15.513562"><ele>498.8</ele></trkpt>
   <trkpt lat="68.985198" lon="15.513709"><ele>499.0</ele></trkpt>
   <trkpt lat="68.985199" lon="15.513733"><ele>499.0</ele></trkpt>
   <trkpt lat="68.985210" lon="15.513863"><ele>499.2</ele></trkpt>
  </trkseg>
 </trk>
</gpx>
