<?xml version="1.0" encoding="UTF-8"?>
<gpx version="1.1" creator="HPGT flysteder" xmlns="http://www.topografix.com/GPX/1/1">
 <trk>
  <name>Elgen – Fra Aun (SPG): parkering til start</name>
  <trkseg>
   <trkpt lat="68.896727" lon="16.292437"><ele>28.6</ele></trkpt>
   <trkpt lat="68.896728" lon="16.291982"><ele>28.4</ele></trkpt>
   <trkpt lat="68.896804" lon="16.291833"><ele>11.6</ele></trkpt>
   <trkpt lat="68.898316" lon="16.290141"><ele>16.2</ele></trkpt>
   <trkpt lat="68.898397" lon="16.289081"><ele>21.2</ele></trkpt>
   <trkpt lat="68.898811" lon="16.288283"><ele>31.6</ele></trkpt>
   <trkpt lat="68.899005" lon="16.286787"><ele>45.2</ele></trkpt>
   <trkpt lat="68.898222" lon="16.285543"><ele>65.2</ele></trkpt>
   <trkpt lat="68.898265" lon="16.284803"><ele>72.2</ele></trkpt>
   <trkpt lat="68.898660" lon="16.284421"><ele>77.0</ele></trkpt>
   <trkpt lat="68.898898" lon="16.283718"><ele>84.6</ele></trkpt>
   <trkpt lat="68.899256" lon="16.283195"><ele>89.2</ele></trkpt>
   <trkpt lat="68.899622" lon="16.281593"><ele>103.4</ele></trkpt>
   <trkpt lat="68.900084" lon="16.280741"><ele>117.6</ele></trkpt>
   <trkpt lat="68.900253" lon="16.279395"><ele>129.6</ele></trkpt>
   <trkpt lat="68.900683" lon="16.278748"><ele>138.4</ele></trkpt>
   <trkpt lat="68.901052" lon="16.277719"><ele>149.2</ele></trkpt>
   <trkpt lat="68.901693" lon="16.276715"><ele>159.2</ele></trkpt>
   <trkpt lat="68.901773" lon="16.276222"><ele>161.4</ele></trkpt>
   <trkpt lat="68.901563" lon="16.273639"><ele>175.8</ele></trkpt>
   <trkpt lat="68.901596" lon="16.273220"><ele>178.2</ele></trkpt>
   <trkpt lat="68.901755" lon="16.273081"><ele>172.2</ele></trkpt>
   <trkpt lat="68.901742" lon="16.272616"><ele>177.0</ele></trkpt>
   <trkpt lat="68.901841" lon="16.272383"><ele>180.0</ele></trkpt>
   <trkpt lat="68.901755" lon="16.272103"><ele>183.0</ele></trkpt>
   <trkpt lat="68.901766" lon="16.271592"><ele>187.8</ele></trkpt>
   <trkpt lat="68.901839" lon="16.271495"><ele>189.2</ele></trkpt>
   <trkpt lat="68.901772" lon="16.271034"><ele>192.4</ele></trkpt>
   <trkpt lat="68.901496" lon="16.270886"><ele>200.0</ele></trkpt>
   <trkpt lat="68.900999" lon="16.271493"><ele>207.6</ele></trkpt>
   <trkpt lat="68.900697" lon="16.271217"><ele>215.6</ele></trkpt>
   <trkpt lat="68.900244" lon="16.271551"><ele>220.0</ele></trkpt>
   <trkpt lat="68.900147" lon="16.270886"><ele>222.4</ele></trkpt>
   <trkpt lat="68.900189" lon="16.270186"><ele>228.0</ele></trkpt>
   <trkpt lat="68.900112" lon="16.268963"><ele>233.4</ele></trkpt>
   <trkpt lat="68.899673" lon="16.268217"><ele>248.0</ele></trkpt>
   <trkpt lat="68.899676" lon="16.267579"><ele>252.0</ele></trkpt>
   <trkpt lat="68.899447" lon="16.267083"><ele>255.2</ele></trkpt>
   <trkpt lat="68.899306" lon="16.266093"><ele>262.0</ele></trkpt>
   <trkpt lat="68.899306" lon="16.265440"><ele>266.8</ele></trkpt>
   <trkpt lat="68.899704" lon="16.263725"><ele>268.8</ele></trkpt>
   <trkpt lat="68.899648" lon="16.262945"><ele>270.4</ele></trkpt>
   <trkpt lat="68.899766" lon="16.261144"><ele>277.6</ele></trkpt>
   <trkpt lat="68.900155" lon="16.259605"><ele>278.6</ele></trkpt>
   <trkpt lat="68.900218" lon="16.259034"><ele>280.0</ele></trkpt>
   <trkpt lat="68.900175" lon="16.258812"><ele>284.0</ele></trkpt>
   <trkpt lat="68.900311" lon="16.257830"><ele>288.4</ele></trkpt>
   <trkpt lat="68.900164" lon="16.257342"><ele>298.2</ele></trkpt>
   <trkpt lat="68.899388" lon="16.257972"><ele>332.4</ele></trkpt>
   <trkpt lat="68.899279" lon="16.257760"><ele>338.6</ele></trkpt>
   <trkpt lat="68.899135" lon="16.257975"><ele>344.4</ele></trkpt>
   <trkpt lat="68.899051" lon="16.257800"><ele>350.2</ele></trkpt>
   <trkpt lat="68.898739" lon="16.257897"><ele>364.2</ele></trkpt>
   <trkpt lat="68.898442" lon="16.257560"><ele>378.2</ele></trkpt>
   <trkpt lat="68.898349" lon="16.257707"><ele>382.6</ele></trkpt>
   <trkpt lat="68.898379" lon="16.257461"><ele>382.0</ele></trkpt>
   <trkpt lat="68.898245" lon="16.258097"><ele>384.0</ele></trkpt>
   <trkpt lat="68.897613" lon="16.258999"><ele>420.8</ele></trkpt>
   <trkpt lat="68.897547" lon="16.259494"><ele>430.6</ele></trkpt>
   <trkpt lat="68.897579" lon="16.259885"><ele>434.6</ele></trkpt>
   <trkpt lat="68.897459" lon="16.260490"><ele>443.6</ele></trkpt>
   <trkpt lat="68.897303" lon="16.260578"><ele>452.0</ele></trkpt>
   <trkpt lat="68.897286" lon="16.260875"><ele>455.0</ele></trkpt>
   <trkpt lat="68.897187" lon="16.260793"><ele>460.4</ele></trkpt>
   <trkpt lat="68.897147" lon="16.261923"><ele>469.8</ele></trkpt>
   <trkpt lat="68.896519" lon="16.263470"><ele>483.2</ele></trkpt>
   <trkpt lat="68.896136" lon="16.263901"><ele>489.6</ele></trkpt>
   <trkpt lat="68.895540" lon="16.263748"><ele>501.8</ele></trkpt>
   <trkpt lat="68.894997" lon="16.264109"><ele>509.6</ele></trkpt>
   <trkpt lat="68.894473" lon="16.265024"><ele>516.6</ele></trkpt>
   <trkpt lat="68.894184" lon="16.265785"><ele>520.2</ele></trkpt>
   <trkpt lat="68.893870" lon="16.266043"><ele>528.0</ele></trkpt>
   <trkpt lat="68.893624" lon="16.267046"><ele>532.8</ele></trkpt>
   <trkpt lat="68.893473" lon="16.268222"><ele>532.8</ele></trkpt>
   <trkpt lat="68.892493" lon="16.272308"><ele>521.6</ele></trkpt>
   <trkpt lat="68.891696" lon="16.276073"><ele>513.8</ele></trkpt>
   <trkpt lat="68.891506" lon="16.276796"><ele>510.8</ele></trkpt>
   <trkpt lat="68.891170" lon="16.277340"><ele>506.0</ele></trkpt>
   <trkpt lat="68.890987" lon="16.278017"><ele>501.8</ele></trkpt>
   <trkpt lat="68.890636" lon="16.281156"><ele>502.0</ele></trkpt>
   <trkpt lat="68.890609" lon="16.282114"><ele>507.4</ele></trkpt>
   <trkpt lat="68.890334" lon="16.283048"><ele>502.6</ele></trkpt>
   <trkpt lat="68.890497" lon="16.282696"><ele>501.6</ele></trkpt>
   <trkpt lat="68.890347" lon="16.283059"><ele>502.6</ele></trkpt>
   <trkpt lat="68.890544" lon="16.282144"><ele>504.2</ele></trkpt>
  </trkseg>
 </trk>
</gpx>
