<?xml version="1.0" encoding="UTF-8"?>
<gpx version="1.1" creator="HPGT flysteder" xmlns="http://www.topografix.com/GPX/1/1">
 <trk>
  <name>Keipen: parkering til start</name>
  <trkseg>
   <trkpt lat="68.861073" lon="16.355342"></trkpt>
   <trkpt lat="68.861257" lon="16.354880"></trkpt>
   <trkpt lat="68.861104" lon="16.353981"></trkpt>
   <trkpt lat="68.861442" lon="16.353540"></trkpt>
   <trkpt lat="68.861424" lon="16.352996"></trkpt>
   <trkpt lat="68.861527" lon="16.352719"></trkpt>
   <trkpt lat="68.861839" lon="16.350754"></trkpt>
   <trkpt lat="68.861763" lon="16.349356"></trkpt>
   <trkpt lat="68.861532" lon="16.348462"></trkpt>
   <trkpt lat="68.861566" lon="16.347921"></trkpt>
   <trkpt lat="68.861460" lon="16.347165"></trkpt>
   <trkpt lat="68.861210" lon="16.346433"></trkpt>
   <trkpt lat="68.861163" lon="16.346045"></trkpt>
   <trkpt lat="68.861066" lon="16.345788"></trkpt>
   <trkpt lat="68.860771" lon="16.345648"></trkpt>
   <trkpt lat="68.860605" lon="16.345083"></trkpt>
   <trkpt lat="68.860219" lon="16.344405"></trkpt>
   <trkpt lat="68.859591" lon="16.344200"></trkpt>
   <trkpt lat="68.858940" lon="16.343700"></trkpt>
   <trkpt lat="68.858228" lon="16.343650"></trkpt>
   <trkpt lat="68.857443" lon="16.342875"></trkpt>
   <trkpt lat="68.856603" lon="16.341734"></trkpt>
   <trkpt lat="68.855712" lon="16.341264"></trkpt>
   <trkpt lat="68.855309" lon="16.340835"></trkpt>
   <trkpt lat="68.854883" lon="16.341864"></trkpt>
   <trkpt lat="68.854656" lon="16.341942"></trkpt>
   <trkpt lat="68.853423" lon="16.341528"></trkpt>
   <trkpt lat="68.852821" lon="16.341757"></trkpt>
   <trkpt lat="68.852407" lon="16.340986"></trkpt>
   <trkpt lat="68.852066" lon="16.341425"></trkpt>
   <trkpt lat="68.851929" lon="16.341282"></trkpt>
   <trkpt lat="68.851715" lon="16.342243"></trkpt>
   <trkpt lat="68.851449" lon="16.342585"></trkpt>
   <trkpt lat="68.851184" lon="16.343550"></trkpt>
   <trkpt lat="68.850906" lon="16.343751"></trkpt>
   <trkpt lat="68.850553" lon="16.344340"></trkpt>
   <trkpt lat="68.850351" lon="16.343997"></trkpt>
   <trkpt lat="68.850336" lon="16.344198"></trkpt>
   <trkpt lat="68.849852" lon="16.344212"></trkpt>
   <trkpt lat="68.849785" lon="16.343985"></trkpt>
   <trkpt lat="68.850071" lon="16.343886"></trkpt>
   <trkpt lat="68.850295" lon="16.344016"></trkpt>
   <trkpt lat="68.850315" lon="16.344270"></trkpt>
   <trkpt lat="68.850315" lon="16.344053"></trkpt>
  </trkseg>
 </trk>
</gpx>
